{"type":"FeatureCollection","features":[{"type":"Feature","properties":{"name":"BRATS On-Demand","boundary_type":"county","source":"Census TIGER county","fidelity":"exact","updated":"2026-09","units":"Baldwin County","note":"Service covers Baldwin County countywide including Eastern Shore, Foley, Robertsdale, Bay Minette, and Gulf Shores areas.","confidence":1.0},"geometry":{"type":"Polygon","coordinates":[[[-88.02399,30.23039],[-88.01173,30.23245],[-87.96685,30.23562],[-87.94898,30.25656],[-87.93604,30.26147],[-87.91825,30.25331],[-87.91376,30.24784],[-87.90046,30.24153],[-87.8932,30.23924],[-87.87934,30.23859],[-87.86008,30.24029],[-87.82294,30.25257],[-87.81774,30.25429],[-87.80209,30.25305],[-87.78775,30.25424],[-87.7861,30.25493],[-87.78036,30.25732],[-87.77164,30.26094],[-87.768,30.26245],[-87.75596,30.27766],[-87.75232,30.28158],[-87.75217,30.28176],[-87.75187,30.28212],[-87.74717,30.28777],[-87.74721,30.29085],[-87.74974,30.29213],[-87.75028,30.2924],[-87.75614,30.29233],[-87.77276,30.3117],[-87.79672,30.3242],[-87.80927,30.3327],[-87.82988,30.35381],[-87.8317,30.35678],[-87.83454,30.36142],[-87.83748,30.36814],[-87.83774,30.37055],[-87.83735,30.3718],[-87.83711,30.37509],[-87.83719,30.3755],[-87.83737,30.37633],[-87.83961,30.37723],[-87.84386,30.37817],[-87.84938,30.37807],[-87.85381,30.37848],[-87.86502,30.38345],[-87.90634,30.40938],[-87.90891,30.41424],[-87.91005,30.42121],[-87.91414,30.44614],[-87.91768,30.46089],[-87.91954,30.46862],[-87.92003,30.47065],[-87.92072,30.47242],[-87.92128,30.47385],[-87.92516,30.47743],[-87.93203,30.48165],[-87.93697,30.4831],[-87.93398,30.48649],[-87.93372,30.4868],[-87.92656,30.49672],[-87.92503,30.50302],[-87.92171,30.50924],[-87.92168,30.50945],[-87.92168,30.50961],[-87.92152,30.51137],[-87.92086,30.51246],[-87.9206,30.51289],[-87.91595,30.51752],[-87.91212,30.52415],[-87.91181,30.52469],[-87.91114,30.52585],[-87.90875,30.53068],[-87.90859,30.531],[-87.90616,30.53591],[-87.90534,30.53757],[-87.90438,30.5411],[-87.90406,30.54227],[-87.90392,30.54277],[-87.90217,30.54919],[-87.90171,30.55088],[-87.90227,30.55432],[-87.90233,30.55465],[-87.90242,30.55525],[-87.90259,30.55629],[-87.90417,30.56599],[-87.90789,30.57311],[-87.91143,30.57626],[-87.91258,30.57939],[-87.91459,30.58489],[-87.91496,30.58589],[-87.91381,30.60002],[-87.91285,30.61183],[-87.91253,30.61579],[-87.91398,30.62009],[-87.91775,30.62414],[-87.92088,30.62647],[-87.92144,30.62689],[-87.92133,30.62938],[-87.91883,30.6306],[-87.91857,30.63073],[-87.91912,30.63451],[-87.91935,30.63606],[-87.92466,30.64154],[-87.92537,30.64889],[-87.92984,30.65034],[-87.93107,30.65269],[-87.9317,30.65436],[-87.93672,30.65743],[-87.95599,30.65886],[-87.9605,30.6617],[-87.9709,30.66826],[-87.98556,30.67751],[-87.98613,30.67757],[-87.99058,30.67806],[-88.00341,30.68122],[-88.00581,30.68182],[-88.0069,30.68208],[-88.0089,30.68343],[-88.0084,30.68496],[-88.00697,30.68699],[-88.00465,30.69054],[-88.00241,30.69386],[-88.001,30.69829],[-88.00106,30.70046],[-88.00166,30.70462],[-88.00341,30.7083],[-88.01033,30.71344],[-88.01254,30.71689],[-88.0149,30.72299],[-88.01548,30.72714],[-88.01515,30.73096],[-88.01428,30.7349],[-88.01422,30.73794],[-88.01649,30.74187],[-88.02034,30.74595],[-88.02524,30.74935],[-88.02627,30.75148],[-88.02632,30.75336],[-88.02478,30.75702],[-88.02278,30.75996],[-88.0202,30.76459],[-88.02,30.76626],[-88.02028,30.76771],[-88.0222,30.77219],[-88.0222,30.77449],[-88.0167,30.78109],[-88.01416,30.78328],[-88.0108,30.78459],[-87.99896,30.78764],[-87.99488,30.78969],[-87.99239,30.79126],[-87.9906,30.79415],[-87.99034,30.79577],[-87.99112,30.79873],[-87.99168,30.804],[-87.99158,30.80636],[-87.98937,30.80974],[-87.98706,30.81144],[-87.97693,30.81439],[-87.97052,30.81712],[-87.96344,30.82057],[-87.95873,30.82067],[-87.95155,30.82126],[-87.95105,30.8215],[-87.94855,30.82273],[-87.94667,30.82364],[-87.94455,30.82705],[-87.94417,30.83379],[-87.94491,30.83703],[-87.95049,30.84499],[-87.95448,30.84941],[-87.96073,30.85383],[-87.96706,30.85706],[-87.97307,30.85914],[-87.98097,30.86187],[-87.98504,30.8665],[-87.98643,30.87194],[-87.98641,30.87517],[-87.98493,30.88038],[-87.9835,30.88357],[-87.97969,30.88899],[-87.97615,30.89275],[-87.97242,30.89607],[-87.96769,30.8996],[-87.96052,30.90276],[-87.95884,30.90399],[-87.95764,30.90588],[-87.95764,30.90728],[-87.95555,30.90884],[-87.95442,30.91176],[-87.9544,30.91942],[-87.95387,30.92253],[-87.95231,30.92488],[-87.9499,30.92665],[-87.94709,30.92795],[-87.94359,30.92893],[-87.93839,30.92932],[-87.9357,30.92979],[-87.92779,30.9341],[-87.92429,30.9354],[-87.92394,30.93631],[-87.92436,30.93897],[-87.92572,30.94291],[-87.92833,30.94626],[-87.93337,30.94841],[-87.93816,30.95012],[-87.94055,30.9519],[-87.94191,30.95541],[-87.94355,30.96177],[-87.9459,30.96414],[-87.95046,30.96597],[-87.95274,30.96654],[-87.95558,30.96659],[-87.96326,30.96605],[-87.96491,30.96682],[-87.96519,30.96778],[-87.96407,30.97037],[-87.96119,30.97487],[-87.96057,30.97963],[-87.96055,30.98286],[-87.95756,30.98633],[-87.95662,30.98978],[-87.9568,30.99231],[-87.95763,30.99747],[-87.95843,31.00018],[-87.9584,31.00312],[-87.9592,31.00408],[-87.96227,31.00483],[-87.96413,31.00604],[-87.9648,31.00778],[-87.96207,31.01109],[-87.95895,31.01286],[-87.95586,31.01207],[-87.95394,31.01248],[-87.95235,31.01616],[-87.95022,31.01958],[-87.94997,31.02063],[-87.95051,31.02209],[-87.9556,31.02683],[-87.95735,31.02937],[-87.95779,31.03283],[-87.95665,31.03515],[-87.95359,31.0376],[-87.94758,31.04065],[-87.94458,31.04307],[-87.94286,31.04523],[-87.94115,31.04816],[-87.94089,31.05061],[-87.94112,31.05625],[-87.94156,31.06134],[-87.94343,31.06492],[-87.94479,31.06628],[-87.9487,31.06786],[-87.9522,31.06798],[-87.95917,31.06767],[-87.96382,31.06829],[-87.96732,31.07145],[-87.97055,31.07734],[-87.9733,31.07946],[-87.97585,31.08242],[-87.97688,31.08534],[-87.97684,31.08747],[-87.97622,31.08954],[-87.97505,31.09122],[-87.97254,31.09336],[-87.96585,31.09822],[-87.94658,31.12168],[-87.94456,31.12518],[-87.94444,31.13276],[-87.94424,31.13481],[-87.94302,31.1384],[-87.94076,31.14165],[-87.93992,31.14361],[-87.9397,31.1458],[-87.94012,31.14724],[-87.94133,31.14845],[-87.94373,31.14969],[-87.94624,31.14946],[-87.95326,31.14685],[-87.95633,31.14626],[-87.96023,31.14646],[-87.96257,31.14697],[-87.96628,31.14826],[-87.96948,31.15013],[-87.97228,31.15276],[-87.97419,31.15681],[-87.9745,31.1587],[-87.97411,31.16115],[-87.97287,31.16269],[-87.97134,31.16302],[-87.96839,31.16285],[-87.96391,31.16111],[-87.96107,31.16041],[-87.95707,31.16076],[-87.95234,31.162],[-87.94877,31.16175],[-87.94607,31.16125],[-87.94375,31.16134],[-87.94132,31.16305],[-87.94093,31.16585],[-87.94215,31.16765],[-87.94479,31.17048],[-87.94595,31.17228],[-87.94698,31.1761],[-87.94571,31.17959],[-87.94519,31.183],[-87.94593,31.18986],[-87.94659,31.19293],[-87.94356,31.19233],[-87.94051,31.18976],[-87.93361,31.18999],[-87.93167,31.18951],[-87.92931,31.18794],[-87.92568,31.18612],[-87.92161,31.18549],[-87.91825,31.18561],[-87.91422,31.18673],[-87.91364,31.18736],[-87.9155,31.18997],[-87.91465,31.19118],[-87.91137,31.19106],[-87.91065,31.19336],[-87.90787,31.19554],[-87.90624,31.19916],[-87.90138,31.1988],[-87.89921,31.19735],[-87.89649,31.20009],[-87.89254,31.20163],[-87.88958,31.20435],[-87.88593,31.20541],[-87.88536,31.20479],[-87.88623,31.20261],[-87.88575,31.20139],[-87.88197,31.20054],[-87.87917,31.198],[-87.87667,31.19839],[-87.87389,31.2015],[-87.87334,31.20454],[-87.87527,31.20914],[-87.8759,31.21219],[-87.875,31.21474],[-87.86977,31.21577],[-87.86797,31.21458],[-87.86538,31.20973],[-87.85995,31.20463],[-87.856,31.20345],[-87.8535,31.20344],[-87.84954,31.20611],[-87.8485,31.20838],[-87.8498,31.21158],[-87.85794,31.21645],[-87.85966,31.21844],[-87.86359,31.22611],[-87.86411,31.22917],[-87.86376,31.2311],[-87.86007,31.2354],[-87.85677,31.23707],[-87.85455,31.23723],[-87.85291,31.23699],[-87.84861,31.23483],[-87.84461,31.2295],[-87.84392,31.22703],[-87.84134,31.22541],[-87.83868,31.22596],[-87.83565,31.22864],[-87.83592,31.23105],[-87.8405,31.23324],[-87.84293,31.23479],[-87.84409,31.23615],[-87.84463,31.23934],[-87.84252,31.24204],[-87.83877,31.24411],[-87.83752,31.24543],[-87.8371,31.24725],[-87.83858,31.24946],[-87.84025,31.25017],[-87.84224,31.25305],[-87.84238,31.25547],[-87.84341,31.25599],[-87.84592,31.25528],[-87.84772,31.25374],[-87.8509,31.25329],[-87.85278,31.25414],[-87.85327,31.25596],[-87.85287,31.25778],[-87.85196,31.25911],[-87.84928,31.26001],[-87.84705,31.25948],[-87.84205,31.25719],[-87.84129,31.25594],[-87.83548,31.25778],[-87.8337,31.25908],[-87.83106,31.26347],[-87.83048,31.26497],[-87.82831,31.2753],[-87.82687,31.27791],[-87.8241,31.27926],[-87.82098,31.27949],[-87.81822,31.27862],[-87.81211,31.27571],[-87.81107,31.27496],[-87.8015,31.26981],[-87.79961,31.26954],[-87.79435,31.2708],[-87.78796,31.27417],[-87.78552,31.27579],[-87.7839,31.27777],[-87.78367,31.27894],[-87.7841,31.28113],[-87.78577,31.28294],[-87.7904,31.28475],[-87.79352,31.28676],[-87.79446,31.28781],[-87.79566,31.2909],[-87.79556,31.29233],[-87.80281,31.3014],[-87.80627,31.30388],[-87.80897,31.30664],[-87.80982,31.31048],[-87.80888,31.31527],[-87.80713,31.31773],[-87.80402,31.31902],[-87.80276,31.31882],[-87.79893,31.31621],[-87.79832,31.31323],[-87.79811,31.30803],[-87.79744,31.30531],[-87.79563,31.30274],[-87.79234,31.29988],[-87.78878,31.29877],[-87.78849,31.29741],[-87.78397,31.29796],[-87.77997,31.29772],[-87.77598,31.29562],[-87.77158,31.29372],[-87.76878,31.29381],[-87.76651,31.29451],[-87.7657,31.29527],[-87.76515,31.29735],[-87.7604,31.2975],[-87.76013,31.29957],[-87.75674,31.29867],[-87.75455,31.29897],[-87.75453,31.2975],[-87.75031,31.29693],[-87.74871,31.29715],[-87.74623,31.30066],[-87.74439,31.30169],[-87.7406,31.30128],[-87.7382,31.3027],[-87.73433,31.30225],[-87.73046,31.30243],[-87.72934,31.30058],[-87.72702,31.30113],[-87.72454,31.30037],[-87.72171,31.30129],[-87.72123,31.30271],[-87.71794,31.30331],[-87.71677,31.30168],[-87.7153,31.30118],[-87.71429,31.30212],[-87.71236,31.30113],[-87.7106,31.29868],[-87.70959,31.29724],[-87.70828,31.2971],[-87.70534,31.29449],[-87.70524,31.29208],[-87.70185,31.28837],[-87.70291,31.28679],[-87.70217,31.28564],[-87.70019,31.28541],[-87.69942,31.28454],[-87.69806,31.28523],[-87.69622,31.28468],[-87.69598,31.28374],[-87.6928,31.28395],[-87.69061,31.28292],[-87.6896,31.27849],[-87.68832,31.27813],[-87.68808,31.27542],[-87.68477,31.27127],[-87.68293,31.2707],[-87.68367,31.26985],[-87.68149,31.26765],[-87.67919,31.26726],[-87.6793,31.26639],[-87.67695,31.26465],[-87.67655,31.26234],[-87.67474,31.26094],[-87.67356,31.26137],[-87.67228,31.25965],[-87.66671,31.2578],[-87.66314,31.25509],[-87.66247,31.25298],[-87.6606,31.25191],[-87.65876,31.25159],[-87.657,31.2505],[-87.65561,31.25078],[-87.65481,31.24965],[-87.65199,31.24967],[-87.64937,31.24846],[-87.64855,31.24917],[-87.64591,31.24892],[-87.64073,31.24433],[-87.63737,31.24516],[-87.63455,31.24362],[-87.63223,31.24293],[-87.63049,31.24442],[-87.62838,31.24353],[-87.62686,31.24394],[-87.6254,31.24341],[-87.62037,31.2449],[-87.61589,31.24446],[-87.61598,31.24241],[-87.61587,31.24104],[-87.61579,31.06884],[-87.61556,31.06615],[-87.61542,31.041],[-87.61537,31.02651],[-87.61531,31.01019],[-87.61553,31.00772],[-87.61543,30.99736],[-87.60944,30.9974],[-87.59893,30.99746],[-87.59917,30.99572],[-87.59672,30.98761],[-87.59339,30.98296],[-87.59268,30.98014],[-87.59416,30.97757],[-87.59413,30.9767],[-87.59411,30.97633],[-87.59305,30.97297],[-87.59092,30.96941],[-87.58919,30.96446],[-87.59205,30.95149],[-87.59689,30.94113],[-87.5983,30.93879],[-87.60069,30.93707],[-87.60268,30.93428],[-87.60781,30.92449],[-87.60826,30.9219],[-87.6102,30.91663],[-87.61185,30.91454],[-87.61421,30.90854],[-87.61495,30.90423],[-87.61601,30.90145],[-87.62071,30.89893],[-87.6222,30.89751],[-87.62252,30.89368],[-87.62092,30.88992],[-87.62079,30.88749],[-87.62206,30.88541],[-87.6244,30.8847],[-87.62945,30.88011],[-87.62999,30.87769],[-87.63484,30.86611],[-87.63494,30.86589],[-87.62824,30.86013],[-87.62623,30.85713],[-87.62538,30.85436],[-87.6265,30.85188],[-87.62732,30.84796],[-87.62607,30.84649],[-87.62414,30.84571],[-87.61728,30.84035],[-87.61537,30.83703],[-87.61592,30.83469],[-87.61098,30.83263],[-87.60578,30.8313],[-87.60357,30.82862],[-87.60163,30.82514],[-87.60049,30.82063],[-87.5943,30.81698],[-87.58787,30.81504],[-87.58187,30.8124],[-87.57685,30.80816],[-87.57204,30.80053],[-87.56814,30.79909],[-87.56421,30.79625],[-87.56007,30.79226],[-87.55948,30.79045],[-87.55484,30.78712],[-87.55295,30.78694],[-87.55205,30.78625],[-87.54504,30.77867],[-87.54536,30.7741],[-87.54616,30.77202],[-87.54226,30.7675],[-87.53708,30.76253],[-87.53653,30.76138],[-87.53542,30.75476],[-87.53536,30.74977],[-87.53261,30.74349],[-87.52361,30.73831],[-87.51173,30.73353],[-87.50515,30.72631],[-87.50232,30.72159],[-87.49848,30.72042],[-87.49751,30.72012],[-87.49677,30.72035],[-87.48704,30.7185],[-87.48122,30.71651],[-87.47982,30.71495],[-87.47958,30.71287],[-87.47443,30.70659],[-87.4704,30.70528],[-87.46772,30.70168],[-87.46634,30.70084],[-87.45695,30.69756],[-87.4514,30.69981],[-87.44936,30.69891],[-87.44358,30.6946],[-87.44228,30.69268],[-87.4401,30.69074],[-87.43981,30.69048],[-87.43602,30.68867],[-87.43037,30.68865],[-87.42488,30.68337],[-87.41953,30.67998],[-87.41274,30.67806],[-87.40696,30.67516],[-87.40656,30.67402],[-87.40712,30.6718],[-87.40587,30.66662],[-87.40071,30.65715],[-87.40018,30.65722],[-87.39726,30.65435],[-87.39618,30.65045],[-87.39718,30.64812],[-87.39594,30.64397],[-87.39359,30.63088],[-87.39362,30.6303],[-87.39376,30.62737],[-87.39377,30.62701],[-87.39448,30.62519],[-87.39566,30.62337],[-87.39643,30.61773],[-87.39643,30.61691],[-87.39505,30.6159],[-87.39503,30.61528],[-87.39731,30.60873],[-87.39927,30.60561],[-87.40118,30.6044],[-87.4046,30.60339],[-87.40656,30.59993],[-87.40874,30.5837],[-87.41246,30.57388],[-87.41247,30.57386],[-87.41271,30.57323],[-87.41451,30.57346],[-87.41626,30.57245],[-87.41835,30.57004],[-87.41851,30.56956],[-87.41695,30.568],[-87.41666,30.56631],[-87.41865,30.56184],[-87.42092,30.56067],[-87.42241,30.56044],[-87.4228,30.56138],[-87.42336,30.56142],[-87.42604,30.56007],[-87.42789,30.55416],[-87.43144,30.55026],[-87.43496,30.5496],[-87.43544,30.54914],[-87.44659,30.52707],[-87.44647,30.52222],[-87.44643,30.52031],[-87.44494,30.51494],[-87.44518,30.51398],[-87.4465,30.51357],[-87.4473,30.51263],[-87.44778,30.51191],[-87.4477,30.51046],[-87.44471,30.50749],[-87.44322,30.50678],[-87.43969,30.50665],[-87.43827,30.50536],[-87.43118,30.4958],[-87.43058,30.4911],[-87.43298,30.4849],[-87.43477,30.48187],[-87.43558,30.4805],[-87.43468,30.4792],[-87.43158,30.4777],[-87.43058,30.4766],[-87.42958,30.4706],[-87.42508,30.4656],[-87.41468,30.4573],[-87.40788,30.4564],[-87.40468,30.4529],[-87.39988,30.451],[-87.39688,30.4506],[-87.39198,30.4516],[-87.38118,30.4501],[-87.37827,30.44919],[-87.37077,30.44686],[-87.36868,30.44463],[-87.36694,30.44048],[-87.36659,30.43665],[-87.36761,30.43458],[-87.36819,30.43341],[-87.37117,30.43049],[-87.38208,30.4229],[-87.38435,30.42163],[-87.38638,30.4205],[-87.39568,30.4176],[-87.39878,30.4151],[-87.40178,30.4114],[-87.40348,30.4102],[-87.40477,30.40986],[-87.40888,30.4088],[-87.41318,30.409],[-87.41918,30.4102],[-87.42268,30.4101],[-87.42618,30.4092],[-87.42958,30.4065],[-87.43068,30.40484],[-87.43069,30.40484],[-87.43178,30.4032],[-87.43428,30.3975],[-87.43728,30.3959],[-87.43839,30.39446],[-87.44068,30.3915],[-87.44118,30.3886],[-87.44088,30.3867],[-87.43868,30.3821],[-87.43868,30.3808],[-87.44182,30.3763],[-87.44908,30.3704],[-87.45138,30.3672],[-87.45188,30.365],[-87.45198,30.3603],[-87.45096,30.34626],[-87.45228,30.3441],[-87.45998,30.3363],[-87.46298,30.334],[-87.46488,30.3333],[-87.46727,30.33288],[-87.47558,30.3314],[-87.49188,30.3309],[-87.49204,30.33086],[-87.49998,30.32896],[-87.50257,30.3274],[-87.5047,30.32404],[-87.50594,30.3194],[-87.50584,30.31509],[-87.50578,30.3125],[-87.505,30.30996],[-87.50468,30.3089],[-87.50278,30.3073],[-87.5023,30.30716],[-87.49488,30.305],[-87.48368,30.3048],[-87.48188,30.306],[-87.47588,30.3079],[-87.46868,30.3082],[-87.46578,30.3076],[-87.46298,30.3078],[-87.45958,30.3083],[-87.45558,30.3102],[-87.45008,30.3111],[-87.45238,30.3002],[-87.49998,30.2879],[-87.50548,30.2871],[-87.51838,30.2839],[-87.51836,30.28293],[-87.51834,30.28157],[-87.51832,30.28044],[-87.52418,30.27915],[-87.54392,30.27481],[-87.54884,30.27364],[-87.55274,30.27271],[-87.55866,30.2713],[-87.56504,30.27174],[-87.57407,30.27088],[-87.58136,30.26926],[-87.58221,30.26905],[-87.63817,30.25539],[-87.64164,30.25454],[-87.65998,30.25059],[-87.68181,30.24826],[-87.68921,30.24705],[-87.7027,30.24484],[-87.73553,30.24068],[-87.73647,30.24052],[-87.80056,30.22937],[-87.80076,30.22935],[-87.82823,30.22777],[-87.83148,30.22759],[-87.83846,30.22718],[-87.92612,30.23037],[-87.96225,30.22952],[-88.0,30.22575],[-88.01361,30.22349],[-88.02136,30.22333],[-88.02768,30.22365],[-88.02858,30.22676],[-88.02399,30.23039]]]}},{"type":"Feature","properties":{"name":"LR Rides (Lee-Russell Public Transit On-Demand)","boundary_type":"counties","source":"Census TIGER county","fidelity":"exact","updated":"2026-09","units":"Auburn city; Opelika city; Lee County; Russell County","note":"LRPT on-demand zones cover Auburn, Opelika, Lee County, and Russell County. Separate PEX Paratransit component (Phenix City/Columbus GA) is excluded.","confidence":0.8},"geometry":{"type":"Polygon","coordinates":[[[-85.49075,32.73773],[-85.48185,32.73783],[-85.48205,32.73053],[-85.4736,32.73048],[-85.46129,32.73039],[-85.45626,32.73034],[-85.45233,32.73031],[-85.43414,32.7303],[-85.43055,32.73033],[-85.43055,32.74503],[-85.41345,32.74473],[-85.41345,32.73743],[-85.40481,32.73773],[-85.40455,32.73053],[-85.39669,32.73048],[-85.37713,32.73031],[-85.30918,32.73073],[-85.29322,32.73073],[-85.28504,32.73073],[-85.285,32.73916],[-85.28484,32.74513],[-85.28169,32.74518],[-85.2677,32.7453],[-85.22896,32.74543],[-85.20144,32.74575],[-85.15882,32.74625],[-85.14836,32.74638],[-85.14823,32.74638],[-85.14812,32.74638],[-85.13504,32.74653],[-85.13479,32.7468],[-85.1322,32.74441],[-85.1276,32.74305],[-85.12409,32.74169],[-85.11855,32.74082],[-85.11479,32.7381],[-85.11333,32.73575],[-85.11317,32.73281],[-85.11504,32.72883],[-85.11734,32.72663],[-85.11884,32.72483],[-85.12084,32.72293],[-85.12151,32.7204],[-85.12274,32.71573],[-85.119,32.71006],[-85.11928,32.70771],[-85.11928,32.70397],[-85.11704,32.69203],[-85.11535,32.68733],[-85.11474,32.68563],[-85.11264,32.68343],[-85.10404,32.67963],[-85.09354,32.66973],[-85.08848,32.65776],[-85.08974,32.65563],[-85.09634,32.65284],[-85.10034,32.65013],[-85.10534,32.64484],[-85.10299,32.64103],[-85.10039,32.63712],[-85.0966,32.63467],[-85.09134,32.63404],[-85.08617,32.63536],[-85.08363,32.63597],[-85.08236,32.63383],[-85.08472,32.63047],[-85.08493,32.63033],[-85.08853,32.62787],[-85.08944,32.62543],[-85.08925,32.62503],[-85.08832,32.62303],[-85.08729,32.62047],[-85.08536,32.61854],[-85.08362,32.6178],[-85.08224,32.61626],[-85.08077,32.61015],[-85.08062,32.6081],[-85.08029,32.60358],[-85.0764,32.59466],[-85.06753,32.57955],[-85.05967,32.57674],[-85.05693,32.57124],[-85.04436,32.55958],[-85.04055,32.55564],[-85.03501,32.55211],[-85.03484,32.552],[-85.03207,32.54543],[-85.02251,32.54292],[-85.0225,32.54289],[-85.02204,32.54004],[-85.02024,32.53475],[-85.01627,32.5312],[-85.01619,32.53113],[-85.0157,32.53011],[-85.01379,32.52611],[-85.0084,32.52488],[-85.0071,32.52387],[-85.00289,32.51696],[-85.00153,32.51474],[-85.00122,32.51286],[-85.00079,32.51019],[-85.00028,32.50711],[-84.99983,32.50434],[-84.9975,32.50073],[-84.99769,32.49925],[-84.99833,32.49414],[-84.99673,32.49234],[-84.99572,32.48898],[-84.99483,32.48604],[-84.99515,32.47739],[-84.99523,32.47524],[-84.99669,32.47261],[-84.99823,32.46984],[-84.99811,32.46505],[-84.99804,32.46193],[-84.99803,32.46174],[-84.99533,32.45324],[-84.99524,32.45312],[-84.9952,32.45306],[-84.99353,32.45074],[-84.98383,32.44564],[-84.97183,32.44284],[-84.96703,32.43534],[-84.96303,32.42424],[-84.96322,32.42343],[-84.96331,32.42305],[-84.96343,32.42254],[-84.97183,32.41624],[-84.97943,32.41224],[-84.9803,32.40731],[-84.9811,32.40283],[-84.9799,32.4001],[-84.97388,32.39522],[-84.96876,32.39301],[-84.96873,32.39146],[-84.97177,32.3906],[-84.97639,32.39102],[-84.97836,32.3905],[-84.98339,32.39176],[-84.98598,32.38967],[-84.98697,32.38751],[-84.98855,32.38408],[-84.98628,32.38034],[-84.97935,32.3807],[-84.97382,32.37987],[-84.97196,32.3777],[-84.97433,32.37458],[-84.97727,32.37384],[-84.98028,32.37439],[-84.98409,32.37352],[-84.9863,32.36967],[-84.98517,32.36706],[-84.98324,32.36512],[-84.98347,32.36319],[-84.98678,32.35906],[-85.00271,32.34665],[-85.00458,32.3452],[-85.0081,32.33668],[-85.0071,32.32836],[-85.00187,32.32202],[-84.98951,32.31932],[-84.95572,32.30695],[-84.93868,32.30071],[-84.9338,32.29826],[-84.92287,32.28533],[-84.91113,32.27695],[-84.90402,32.27375],[-84.89396,32.26585],[-84.89184,32.2634],[-84.88908,32.26091],[-84.88915,32.25972],[-84.88917,32.25923],[-84.8923,32.25827],[-84.89814,32.25861],[-84.90145,32.25742],[-84.90251,32.25523],[-84.90409,32.25084],[-84.90723,32.24905],[-84.9101,32.24833],[-84.91733,32.24905],[-84.92301,32.25082],[-84.92443,32.2498],[-84.92413,32.24565],[-84.92303,32.24455],[-84.92033,32.24405],[-84.91723,32.24595],[-84.91393,32.24515],[-84.91273,32.24335],[-84.91633,32.23655],[-84.92063,32.23395],[-84.92263,32.23175],[-84.92303,32.23085],[-84.92353,32.22975],[-84.92293,32.22475],[-84.92486,32.22228],[-84.92543,32.22155],[-84.92823,32.21985],[-84.93013,32.21905],[-84.93933,32.21795],[-84.94945,32.21851],[-84.95633,32.21785],[-84.95822,32.21793],[-84.96143,32.21805],[-84.96743,32.21935],[-84.97213,32.21825],[-84.97873,32.21255],[-84.98023,32.21005],[-84.98023,32.20775],[-84.97713,32.20575],[-84.97463,32.20365],[-84.97233,32.20355],[-84.96943,32.20445],[-84.96693,32.20445],[-84.96323,32.20225],[-84.96223,32.20005],[-84.96173,32.19865],[-84.96463,32.19515],[-84.96683,32.19395],[-84.97373,32.19155],[-84.99593,32.18485],[-85.00853,32.1819],[-85.01127,32.18049],[-85.01306,32.17911],[-85.01465,32.17688],[-85.02658,32.1661],[-85.03034,32.16173],[-85.03399,32.15635],[-85.04559,32.14376],[-85.04786,32.14203],[-85.05875,32.13602],[-85.06114,32.13406],[-85.06206,32.13249],[-85.06154,32.12967],[-85.05918,32.12515],[-85.05504,32.11367],[-85.05378,32.10768],[-85.04955,32.09536],[-85.04706,32.09043],[-85.04551,32.08687],[-85.04708,32.08435],[-85.05116,32.08253],[-85.05323,32.0806],[-85.05581,32.07444],[-85.05549,32.07266],[-85.05408,32.07021],[-85.05418,32.06798],[-85.05603,32.06305],[-85.10498,32.06254],[-85.10478,32.06975],[-85.11319,32.06958],[-85.11337,32.06239],[-85.17583,32.06206],[-85.17703,32.06186],[-85.18507,32.06171],[-85.18679,32.06318],[-85.18889,32.06361],[-85.18967,32.06524],[-85.19141,32.06459],[-85.19268,32.06776],[-85.19241,32.06968],[-85.19454,32.06915],[-85.19397,32.07094],[-85.19564,32.07149],[-85.19445,32.07284],[-85.19593,32.07474],[-85.19467,32.07495],[-85.19319,32.07401],[-85.1922,32.07552],[-85.19322,32.0771],[-85.19478,32.0779],[-85.1947,32.07932],[-85.1969,32.07944],[-85.19575,32.08184],[-85.19736,32.08214],[-85.1986,32.08345],[-85.20008,32.08292],[-85.20105,32.08457],[-85.20457,32.08521],[-85.20683,32.08679],[-85.20694,32.08757],[-85.20527,32.08894],[-85.20947,32.09025],[-85.20807,32.09249],[-85.21012,32.0922],[-85.21122,32.09433],[-85.21512,32.09549],[-85.21851,32.09432],[-85.21876,32.0954],[-85.22091,32.09533],[-85.22134,32.09661],[-85.22328,32.09769],[-85.22489,32.09989],[-85.22667,32.10126],[-85.22842,32.10163],[-85.22901,32.10328],[-85.22769,32.10523],[-85.23025,32.10555],[-85.23082,32.10658],[-85.22899,32.10701],[-85.22874,32.10905],[-85.23006,32.10992],[-85.23066,32.11143],[-85.22963,32.11263],[-85.23017,32.11409],[-85.23243,32.11462],[-85.23244,32.11624],[-85.23472,32.11601],[-85.23423,32.11955],[-85.24549,32.11914],[-85.24542,32.12342],[-85.23626,32.12367],[-85.23799,32.12586],[-85.23799,32.12682],[-85.24052,32.12714],[-85.24039,32.12842],[-85.242,32.12849],[-85.24397,32.13075],[-85.24486,32.12913],[-85.24669,32.12972],[-85.24693,32.13201],[-85.24863,32.13],[-85.25001,32.13009],[-85.24999,32.13074],[-85.24758,32.13312],[-85.25034,32.13432],[-85.24954,32.13316],[-85.25162,32.1327],[-85.25168,32.13396],[-85.25402,32.13442],[-85.25402,32.13629],[-85.25512,32.13558],[-85.25631,32.13625],[-85.25647,32.1379],[-85.25978,32.13854],[-85.25803,32.14012],[-85.25935,32.14127],[-85.2598,32.1434],[-85.25856,32.14383],[-85.25926,32.14521],[-85.25775,32.14825],[-85.41024,32.14665],[-85.42744,32.14655],[-85.43354,32.23465],[-85.43367,32.2421],[-85.43412,32.25015],[-85.43463,32.31711],[-85.4347,32.31761],[-85.43384,32.39221],[-85.43404,32.40984],[-85.43657,32.46169],[-85.43655,32.46658],[-85.43857,32.49709],[-85.44467,32.49719],[-85.48935,32.49694],[-85.49759,32.50013],[-85.4986,32.50068],[-85.53358,32.51519],[-85.56558,32.52861],[-85.57972,32.533],[-85.58125,32.53333],[-85.59302,32.53995],[-85.5989,32.54242],[-85.63523,32.55717],[-85.66105,32.56793],[-85.6611,32.57158],[-85.66125,32.58233],[-85.69565,32.58203],[-85.69585,32.59593],[-85.69629,32.62143],[-85.69675,32.69743],[-85.6957,32.69746],[-85.67965,32.69793],[-85.67985,32.71253],[-85.61025,32.71393],[-85.60999,32.72795],[-85.60741,32.72819],[-85.59315,32.72853],[-85.57679,32.72885],[-85.57675,32.73636],[-85.56808,32.7365],[-85.56807,32.72902],[-85.55964,32.72919],[-85.54004,32.72963],[-85.49107,32.73061],[-85.49066,32.73063],[-85.49075,32.73773]]]}},{"type":"Feature","properties":{"name":"MAX On-Demand (formerly Birmingham On-Demand)","boundary_type":"zone_approx","source":"Manual approximation","fidelity":"approximate","updated":"2026-09","units":"buffer 4.7 km @ Birmingham city; clipped to Birmingham city","note":"Core coverage ~26.6 sq mi centered on Birmingham with zones in Downtown, East/Airport, North Birmingham, Mountain Brook, and pilot expansion to Homewood and Irondale.","confidence":0.7},"geometry":{"type":"Polygon","coordinates":[[[-86.80909,33.56823],[-86.80467,33.56839],[-86.80026,33.56823],[-86.79588,33.56775],[-86.79156,33.56695],[-86.78735,33.56585],[-86.78327,33.56444],[-86.77935,33.56274],[-86.77562,33.56076],[-86.77212,33.55851],[-86.76886,33.55603],[-86.76587,33.55331],[-86.76318,33.55039],[-86.76081,33.54728],[-86.75877,33.54402],[-86.75708,33.54061],[-86.75575,33.5371],[-86.75479,33.5335],[-86.75422,33.52985],[-86.75402,33.52617],[-86.75422,33.52249],[-86.75479,33.51884],[-86.75575,33.51524],[-86.75708,33.51173],[-86.75877,33.50833],[-86.75949,33.50834],[-86.76228,33.50666],[-86.7685,33.50327],[-86.76849,33.50312],[-86.76855,33.50128],[-86.77015,33.5013],[-86.77006,33.50239],[-86.77297,33.50036],[-86.77474,33.49937],[-86.7791,33.49656],[-86.78136,33.49597],[-86.78195,33.495],[-86.78159,33.49345],[-86.78616,33.49131],[-86.78556,33.4909],[-86.78566,33.49071],[-86.77856,33.49058],[-86.77856,33.49256],[-86.77906,33.49267],[-86.77931,33.49274],[-86.77912,33.49321],[-86.77857,33.49307],[-86.77857,33.49422],[-86.77485,33.49415],[-86.77419,33.49415],[-86.7742,33.49249],[-86.77562,33.49159],[-86.77935,33.48961],[-86.78327,33.48791],[-86.78639,33.48683],[-86.78676,33.48684],[-86.78757,33.48713],[-86.79264,33.4872],[-86.79316,33.48875],[-86.79682,33.48813],[-86.79835,33.48663],[-86.79855,33.48627],[-86.80273,33.48402],[-86.80467,33.48395],[-86.80909,33.48411],[-86.81347,33.48459],[-86.81778,33.48539],[-86.82199,33.4865],[-86.82608,33.48791],[-86.82999,33.48961],[-86.83372,33.49159],[-86.83723,33.49383],[-86.84048,33.49632],[-86.84347,33.49903],[-86.84616,33.50196],[-86.84853,33.50506],[-86.85057,33.50833],[-86.85226,33.51173],[-86.85359,33.51524],[-86.85455,33.51884],[-86.85512,33.52249],[-86.85532,33.52617],[-86.85512,33.52985],[-86.85455,33.5335],[-86.85359,33.5371],[-86.85226,33.54061],[-86.85057,33.54402],[-86.84853,33.54728],[-86.84616,33.55039],[-86.84347,33.55331],[-86.84048,33.55603],[-86.83723,33.55851],[-86.83372,33.56076],[-86.82999,33.56274],[-86.82911,33.56312],[-86.82905,33.56312],[-86.82706,33.56344],[-86.827,33.56404],[-86.82608,33.56444],[-86.8222,33.56578],[-86.8222,33.56559],[-86.82144,33.56599],[-86.81953,33.56649],[-86.81871,33.56571],[-86.81931,33.56485],[-86.822,33.56491],[-86.81913,33.56469],[-86.81674,33.56515],[-86.81544,33.56652],[-86.81634,33.56722],[-86.81347,33.56775],[-86.80909,33.56823]]]}},{"type":"Feature","properties":{"name":"MoGo Rideshare","boundary_type":"zone_approx","source":"Manual approximation","fidelity":"approximate","updated":"2026-09","units":"buffer 3.74 km @ 30.6900,-88.0400; clipped to Mobile city","note":"Launch press materials describe a '17-mile service zone' (not further specified as radius vs. area) centered on southeastern Mobile, much smaller than the full city. Treated as ~17 sq mi (radius_km derived from area) centered on the CSV pin in southeastern Mobile, clipped to city limits. Sources: https://ridewithvia.com/news/mobile-area-chamber-of-commerce-foundation-and-via-launch-mogo-rideshare-an-on-demand-transit-pilot-to-expand-access-to-career-opportunities and https://city.ridewithvia.com/mogo (zone map image, southeastern Mobile).","confidence":0.6},"geometry":{"type":"Polygon","coordinates":[[[-88.03659,30.65653],[-88.04,30.6564],[-88.04341,30.65653],[-88.04678,30.65691],[-88.05011,30.65755],[-88.05336,30.65843],[-88.05651,30.65955],[-88.05953,30.6609],[-88.06241,30.66248],[-88.06511,30.66426],[-88.06763,30.66624],[-88.06993,30.6684],[-88.072,30.67073],[-88.07383,30.6732],[-88.07541,30.6758],[-88.07671,30.67851],[-88.07774,30.6813],[-88.07848,30.68417],[-88.07892,30.68707],[-88.07907,30.69],[-88.07892,30.69293],[-88.07848,30.69583],[-88.07774,30.6987],[-88.07671,30.70149],[-88.07541,30.7042],[-88.07383,30.7068],[-88.072,30.70927],[-88.06993,30.7116],[-88.06763,30.71376],[-88.06511,30.71574],[-88.06241,30.71752],[-88.05953,30.7191],[-88.05651,30.72045],[-88.05336,30.72157],[-88.05011,30.72245],[-88.04678,30.72309],[-88.04341,30.72347],[-88.04,30.7236],[-88.03659,30.72347],[-88.03322,30.72309],[-88.02989,30.72245],[-88.02664,30.72157],[-88.02349,30.72045],[-88.02047,30.7191],[-88.01759,30.71752],[-88.01489,30.71574],[-88.01237,30.71376],[-88.01007,30.7116],[-88.008,30.70927],[-88.00617,30.7068],[-88.00459,30.7042],[-88.00329,30.70149],[-88.00226,30.6987],[-88.00164,30.69628],[-88.00241,30.69386],[-88.00465,30.69054],[-88.00697,30.68699],[-88.0084,30.68496],[-88.0089,30.68343],[-88.01141,30.68513],[-88.0201,30.67567],[-88.0218,30.66862],[-88.02398,30.66001],[-88.0258,30.65873],[-88.0262,30.65859],[-88.02919,30.65904],[-88.0309,30.65736],[-88.03322,30.65691],[-88.03659,30.65653]]]}},{"type":"Feature","properties":{"name":"The M: Micro Transit","boundary_type":"city","source":"Census TIGER place","fidelity":"exact","updated":"2026-09","units":"Montgomery city","note":"On-demand service within Montgomery city limits with mapped zones including Downtown, Regional Airport, Whitewater, Maxwell AFB Visitor Center, and Jackson Hospital.","confidence":0.9},"geometry":{"type":"MultiPolygon","coordinates":[[[[-86.0937,32.27311],[-86.09982,32.27299],[-86.10009,32.27403],[-86.10048,32.27509],[-86.09885,32.27613],[-86.09376,32.27624],[-86.0937,32.27311]]],[[[-86.09002,32.32144],[-86.09003,32.31963],[-86.09444,32.31959],[-86.09443,32.32052],[-86.09445,32.32232],[-86.08604,32.3224],[-86.08603,32.32146],[-86.09002,32.32144]]],[[[-86.11387,32.32679],[-86.11253,32.32781],[-86.1113,32.32846],[-86.11127,32.32478],[-86.11826,32.32476],[-86.11917,32.32609],[-86.11918,32.32633],[-86.1167,32.3285],[-86.11519,32.32786],[-86.11387,32.32679]]],[[[-86.10297,32.33703],[-86.10161,32.33703],[-86.09934,32.33703],[-86.09929,32.33582],[-86.09467,32.33583],[-86.09453,32.32867],[-86.10713,32.32857],[-86.10716,32.33191],[-86.10706,32.33216],[-86.10318,32.33224],[-86.10335,32.33703],[-86.10297,32.33703]]],[[[-86.43993,32.30904],[-86.443,32.30905],[-86.44298,32.31835],[-86.44267,32.31982],[-86.43573,32.33139],[-86.42231,32.33647],[-86.42202,32.33622],[-86.42206,32.33304],[-86.41764,32.33306],[-86.41773,32.3382],[-86.41796,32.34966],[-86.41817,32.36749],[-86.4182,32.37028],[-86.41862,32.38773],[-86.41724,32.40229],[-86.41094,32.40158],[-86.39754,32.40164],[-86.37021,32.40203],[-86.37025,32.40588],[-86.36534,32.4059],[-86.36193,32.40297],[-86.35958,32.40212],[-86.35717,32.40113],[-86.35368,32.39848],[-86.34757,32.39364],[-86.34378,32.39169],[-86.33391,32.38823],[-86.3294,32.38539],[-86.32421,32.37978],[-86.3222,32.37926],[-86.31873,32.37952],[-86.31646,32.38048],[-86.31475,32.38213],[-86.31417,32.38394],[-86.31416,32.38525],[-86.31444,32.3865],[-86.31585,32.38882],[-86.31962,32.39261],[-86.32403,32.39653],[-86.33269,32.40174],[-86.33555,32.40409],[-86.33931,32.40904],[-86.3397,32.40957],[-86.3245,32.40962],[-86.32565,32.41078],[-86.32773,32.41155],[-86.33896,32.42383],[-86.33998,32.42638],[-86.33896,32.42909],[-86.33798,32.42977],[-86.33276,32.42569],[-86.32802,32.42312],[-86.32532,32.4222],[-86.31978,32.41982],[-86.31823,32.41875],[-86.31725,32.41653],[-86.321,32.41652],[-86.32229,32.4158],[-86.32261,32.41394],[-86.32063,32.41358],[-86.31918,32.41248],[-86.31836,32.40961],[-86.30826,32.40962],[-86.30836,32.41451],[-86.30711,32.41717],[-86.30303,32.41723],[-86.29986,32.41728],[-86.3001,32.42093],[-86.30033,32.42493],[-86.30021,32.43179],[-86.29596,32.43182],[-86.2915,32.43184],[-86.29154,32.43416],[-86.28826,32.4342],[-86.28787,32.43586],[-86.28425,32.43786],[-86.28311,32.43787],[-86.28307,32.43567],[-86.2767,32.43573],[-86.27761,32.43481],[-86.27512,32.43311],[-86.27609,32.43208],[-86.26065,32.43225],[-86.21984,32.43294],[-86.21462,32.43291],[-86.21428,32.43251],[-86.19358,32.4329],[-86.19142,32.43291],[-86.18924,32.43185],[-86.18704,32.43201],[-86.18541,32.43296],[-86.1802,32.43297],[-86.17976,32.4142],[-86.17927,32.40768],[-86.17084,32.40773],[-86.17076,32.41068],[-86.17032,32.41128],[-86.15993,32.40919],[-86.15749,32.4087],[-86.1535,32.40693],[-86.1534,32.40421],[-86.14481,32.40434],[-86.14537,32.39733],[-86.14868,32.39732],[-86.15019,32.39343],[-86.15051,32.39344],[-86.151,32.39328],[-86.15159,32.39322],[-86.15134,32.39269],[-86.15088,32.39284],[-86.15093,32.39296],[-86.1504,32.39317],[-86.15035,32.39309],[-86.1502,32.39171],[-86.1444,32.38653],[-86.14118,32.38481],[-86.13848,32.38452],[-86.13708,32.38265],[-86.12916,32.38279],[-86.12889,32.3828],[-86.1289,32.38314],[-86.12294,32.38324],[-86.12287,32.3808],[-86.12046,32.37953],[-86.11754,32.37984],[-86.10777,32.3854],[-86.10415,32.38533],[-86.1032,32.38417],[-86.09662,32.38419],[-86.0965,32.38813],[-86.09547,32.39026],[-86.09132,32.38948],[-86.09131,32.39081],[-86.0868,32.39085],[-86.08684,32.39133],[-86.08638,32.39434],[-86.09154,32.39439],[-86.09279,32.3944],[-86.09241,32.39809],[-86.09213,32.3981],[-86.08164,32.39813],[-86.08227,32.39439],[-86.0779,32.39437],[-86.07752,32.39816],[-86.07537,32.3982],[-86.07563,32.39227],[-86.07668,32.39223],[-86.07686,32.39066],[-86.07601,32.38701],[-86.07839,32.387],[-86.0782,32.38338],[-86.07471,32.38338],[-86.07466,32.37944],[-86.07461,32.37631],[-86.06916,32.37637],[-86.06916,32.37129],[-86.08223,32.37129],[-86.08277,32.37051],[-86.08606,32.36928],[-86.08692,32.38339],[-86.0868,32.39076],[-86.09113,32.39073],[-86.09117,32.38899],[-86.09351,32.3865],[-86.09494,32.38778],[-86.0957,32.38336],[-86.10382,32.38326],[-86.10413,32.38452],[-86.1076,32.38455],[-86.11539,32.38002],[-86.11509,32.36828],[-86.1193,32.36844],[-86.11932,32.37201],[-86.12026,32.37752],[-86.12747,32.37744],[-86.12704,32.37631],[-86.12664,32.3758],[-86.12415,32.37581],[-86.12419,32.36842],[-86.12532,32.36841],[-86.12532,32.36822],[-86.13866,32.36803],[-86.13711,32.36445],[-86.13725,32.36593],[-86.13562,32.36714],[-86.13564,32.36292],[-86.13702,32.36235],[-86.13696,32.36078],[-86.13658,32.36082],[-86.13637,32.36105],[-86.13624,32.36093],[-86.13576,32.36098],[-86.13272,32.36104],[-86.13164,32.36093],[-86.12491,32.35784],[-86.12412,32.35505],[-86.12476,32.35387],[-86.1257,32.35386],[-86.12821,32.35466],[-86.12733,32.35392],[-86.12822,32.35207],[-86.12814,32.34564],[-86.12809,32.34282],[-86.13094,32.34279],[-86.1318,32.34278],[-86.13279,32.34278],[-86.1328,32.34363],[-86.13449,32.34277],[-86.13733,32.34275],[-86.13699,32.34065],[-86.13657,32.3392],[-86.1342,32.33927],[-86.13408,32.3355],[-86.12801,32.33539],[-86.12802,32.33558],[-86.12365,32.33557],[-86.12365,32.33332],[-86.12365,32.33192],[-86.1258,32.3319],[-86.12584,32.33369],[-86.12798,32.33367],[-86.12795,32.33184],[-86.12791,32.3291],[-86.12265,32.32738],[-86.12255,32.32384],[-86.12355,32.32381],[-86.12453,32.32356],[-86.12523,32.32498],[-86.12787,32.32752],[-86.12782,32.32466],[-86.12778,32.32215],[-86.12776,32.32077],[-86.12774,32.31917],[-86.12769,32.31635],[-86.12768,32.31487],[-86.12763,32.31114],[-86.1276,32.30955],[-86.12578,32.30958],[-86.124,32.30961],[-86.12404,32.31119],[-86.12242,32.31122],[-86.1224,32.30964],[-86.12076,32.30967],[-86.11284,32.3098],[-86.11433,32.30603],[-86.11244,32.30599],[-86.11242,32.30411],[-86.11099,32.3041],[-86.11113,32.30976],[-86.10886,32.3095],[-86.10832,32.31208],[-86.1101,32.31227],[-86.11009,32.31527],[-86.10999,32.31527],[-86.10909,32.31526],[-86.10616,32.31531],[-86.10633,32.31174],[-86.10765,32.30932],[-86.10376,32.30873],[-86.10253,32.30852],[-86.098,32.3135],[-86.09497,32.31777],[-86.0842,32.31785],[-86.08422,32.31966],[-86.08329,32.31966],[-86.08332,32.32151],[-86.08155,32.32151],[-86.08149,32.31784],[-86.07307,32.31782],[-86.07275,32.31017],[-86.08126,32.31018],[-86.08091,32.2952],[-86.0854,32.29507],[-86.08532,32.28785],[-86.10257,32.2875],[-86.10259,32.29114],[-86.11497,32.29103],[-86.11524,32.28429],[-86.11482,32.28395],[-86.11515,32.28023],[-86.12276,32.27791],[-86.12319,32.27882],[-86.12318,32.28563],[-86.13614,32.28771],[-86.14899,32.28969],[-86.14886,32.28671],[-86.14456,32.28683],[-86.14445,32.28052],[-86.14701,32.27936],[-86.14893,32.28007],[-86.14917,32.2863],[-86.15247,32.28873],[-86.15818,32.28782],[-86.15829,32.28656],[-86.15888,32.2837],[-86.15903,32.28296],[-86.1618,32.28294],[-86.16178,32.28466],[-86.16178,32.29384],[-86.16604,32.2938],[-86.16601,32.2865],[-86.16737,32.28649],[-86.17036,32.28647],[-86.16999,32.27438],[-86.17733,32.27828],[-86.17887,32.27968],[-86.17881,32.28203],[-86.17882,32.28645],[-86.18591,32.28633],[-86.19071,32.28626],[-86.20453,32.28616],[-86.21041,32.28612],[-86.21145,32.28611],[-86.21519,32.28609],[-86.21661,32.28608],[-86.22392,32.28602],[-86.28426,32.28532],[-86.28648,32.2853],[-86.30711,32.28506],[-86.3091,32.28504],[-86.30892,32.28146],[-86.31139,32.28155],[-86.31112,32.27776],[-86.34732,32.27737],[-86.34453,32.28183],[-86.34331,32.2847],[-86.34996,32.28458],[-86.35805,32.28459],[-86.35786,32.27737],[-86.35407,32.27738],[-86.356,32.27367],[-86.35358,32.27376],[-86.35354,32.27011],[-86.35449,32.26863],[-86.3551,32.26993],[-86.35632,32.26967],[-86.35541,32.26771],[-86.35692,32.26437],[-86.36258,32.25681],[-86.36774,32.25055],[-86.37472,32.25055],[-86.37544,32.25532],[-86.37556,32.26727],[-86.37434,32.26994],[-86.36908,32.26995],[-86.36908,32.26879],[-86.3683,32.26879],[-86.36829,32.2683],[-86.36712,32.2683],[-86.36712,32.2697],[-86.363,32.26974],[-86.36368,32.27037],[-86.36383,32.27732],[-86.36642,32.27732],[-86.36658,32.28459],[-86.38368,32.2843],[-86.38366,32.28066],[-86.38793,32.2806],[-86.38791,32.27697],[-86.40071,32.27687],[-86.40084,32.28438],[-86.40983,32.28445],[-86.41743,32.2859],[-86.41752,32.30408],[-86.41752,32.30469],[-86.41757,32.32936],[-86.42619,32.32934],[-86.42617,32.31477],[-86.43479,32.31467],[-86.43472,32.30205],[-86.43694,32.30197],[-86.443,32.30079],[-86.443,32.305],[-86.44155,32.305],[-86.44157,32.30761],[-86.43992,32.30778],[-86.43993,32.30904]],[[-86.13918,32.36928],[-86.13945,32.36978],[-86.13952,32.36998],[-86.13965,32.37013],[-86.14105,32.37082],[-86.14115,32.37027],[-86.14034,32.36939],[-86.13986,32.36975],[-86.13951,32.36924],[-86.13976,32.36893],[-86.14124,32.36822],[-86.13866,32.36803],[-86.13918,32.36928]],[[-86.17034,32.28741],[-86.17032,32.28886],[-86.17489,32.28884],[-86.17857,32.28882],[-86.17852,32.28645],[-86.17036,32.28647],[-86.17034,32.28741]],[[-86.36758,32.26733],[-86.36911,32.26547],[-86.36588,32.26356],[-86.36384,32.26578],[-86.36661,32.26742],[-86.36758,32.26733]],[[-86.35683,32.27126],[-86.35671,32.27221],[-86.35698,32.27224],[-86.35768,32.27223],[-86.35769,32.27168],[-86.35836,32.27159],[-86.35828,32.26978],[-86.35776,32.26987],[-86.35735,32.27],[-86.35658,32.27026],[-86.35683,32.27126]],[[-86.28441,32.43507],[-86.2844,32.43425],[-86.28304,32.43428],[-86.28311,32.43567],[-86.28416,32.43569],[-86.28441,32.43507]],[[-86.17981,32.38268],[-86.17933,32.38268],[-86.17933,32.3831],[-86.17982,32.38309],[-86.17981,32.38268]],[[-86.1708,32.40519],[-86.1709,32.40517],[-86.17516,32.40419],[-86.17773,32.40437],[-86.17796,32.40278],[-86.17906,32.40317],[-86.17809,32.40449],[-86.17935,32.40504],[-86.17956,32.40274],[-86.1798,32.39901],[-86.17781,32.39784],[-86.17887,32.39674],[-86.17113,32.39695],[-86.1708,32.40519]],[[-86.17503,32.37797],[-86.17501,32.3769],[-86.17415,32.37691],[-86.17416,32.37797],[-86.17425,32.37797],[-86.17503,32.37797]],[[-86.15964,32.32236],[-86.15972,32.33027],[-86.15675,32.33028],[-86.15588,32.32959],[-86.15535,32.33099],[-86.15616,32.33166],[-86.16018,32.33159],[-86.16019,32.33181],[-86.15778,32.33297],[-86.16067,32.3355],[-86.16221,32.33833],[-86.16214,32.32801],[-86.16213,32.32685],[-86.16198,32.31706],[-86.15984,32.31705],[-86.15964,32.32236]],[[-86.15803,32.33715],[-86.15613,32.33717],[-86.15617,32.33887],[-86.15787,32.33884],[-86.15803,32.33715]],[[-86.15459,32.33347],[-86.15353,32.33348],[-86.15348,32.33529],[-86.15452,32.33528],[-86.15459,32.33347]],[[-86.15111,32.33531],[-86.15115,32.33425],[-86.15107,32.33349],[-86.14777,32.33351],[-86.14769,32.33533],[-86.15111,32.33531]],[[-86.13707,32.34584],[-86.13702,32.34453],[-86.13394,32.34486],[-86.13397,32.34578],[-86.13592,32.34556],[-86.13707,32.34584]],[[-86.10038,32.30149],[-86.10267,32.30147],[-86.10267,32.30203],[-86.10268,32.30384],[-86.10493,32.30381],[-86.10493,32.302],[-86.10688,32.30197],[-86.10685,32.30101],[-86.1068,32.29862],[-86.10265,32.29867],[-86.10035,32.2987],[-86.10038,32.30149]],[[-86.10495,32.30589],[-86.10494,32.30499],[-86.10269,32.30504],[-86.1027,32.30599],[-86.10296,32.30595],[-86.10495,32.30589]]]]}}]}