{"type":"FeatureCollection","features":[{"type":"Feature","properties":{"name":"CTDOT Microtransit Pilot \u2013 Norwalk Transit","boundary_type":"city","source":"Census TIGER place","fidelity":"exact","updated":"2026-09","units":"Norwalk city","note":"City of Norwalk, part of CTDOT statewide pilot","confidence":0.95},"geometry":{"type":"MultiPolygon","coordinates":[[[[-73.39981,41.06242],[-73.39915,41.06098],[-73.40105,41.0576],[-73.40153,41.05372],[-73.40608,41.05236],[-73.40954,41.053],[-73.42216,41.04756],[-73.41689,41.05393],[-73.40477,41.06213],[-73.39981,41.06242]]],[[[-73.38366,41.0725],[-73.38366,41.0716],[-73.38356,41.0703],[-73.38358,41.06942],[-73.38389,41.06925],[-73.38665,41.0663],[-73.38999,41.06429],[-73.38799,41.06105],[-73.3858,41.05976],[-73.38618,41.05839],[-73.38723,41.05825],[-73.3918,41.06141],[-73.39524,41.06443],[-73.39419,41.06738],[-73.39228,41.07083],[-73.38818,41.07328],[-73.38366,41.0725]]],[[[-73.4595,41.13422],[-73.45882,41.1349],[-73.45061,41.14871],[-73.4495,41.1501],[-73.4489,41.15354],[-73.44891,41.15375],[-73.44799,41.1538],[-73.43746,41.15617],[-73.43187,41.15764],[-73.4233,41.15976],[-73.42223,41.16003],[-73.41898,41.1608],[-73.4154,41.16289],[-73.41368,41.16359],[-73.39484,41.17177],[-73.38707,41.1705],[-73.38677,41.1698],[-73.38681,41.1664],[-73.38759,41.16243],[-73.38845,41.158],[-73.38809,41.15648],[-73.38877,41.14895],[-73.38668,41.14601],[-73.38268,41.14169],[-73.38293,41.14106],[-73.38289,41.13976],[-73.3829,41.13904],[-73.38147,41.1319],[-73.38113,41.1286],[-73.3808,41.1271],[-73.38037,41.12342],[-73.38017,41.12114],[-73.3814,41.11831],[-73.38203,41.11673],[-73.38256,41.1146],[-73.38431,41.10731],[-73.38343,41.10462],[-73.38444,41.10289],[-73.38294,41.09992],[-73.38325,41.09568],[-73.38366,41.0898],[-73.38773,41.09134],[-73.39216,41.0877],[-73.39297,41.08212],[-73.3982,41.08194],[-73.40247,41.08606],[-73.4026,41.08591],[-73.40563,41.08226],[-73.40785,41.08111],[-73.40723,41.07549],[-73.40842,41.07101],[-73.41293,41.07101],[-73.422,41.06423],[-73.43325,41.05581],[-73.43506,41.0567],[-73.43815,41.05551],[-73.44084,41.05586],[-73.4428,41.05749],[-73.44585,41.05826],[-73.44652,41.05808],[-73.44551,41.06539],[-73.44527,41.06591],[-73.44405,41.06835],[-73.44482,41.07002],[-73.44762,41.07191],[-73.4475,41.07292],[-73.44675,41.0762],[-73.44593,41.0765],[-73.44623,41.07728],[-73.44747,41.08501],[-73.44819,41.08604],[-73.45022,41.08651],[-73.45067,41.08815],[-73.45384,41.08774],[-73.45358,41.08962],[-73.45362,41.09108],[-73.45398,41.09167],[-73.45552,41.09286],[-73.4558,41.09339],[-73.46214,41.10113],[-73.46752,41.10685],[-73.46909,41.10829],[-73.47295,41.11287],[-73.47456,41.1147],[-73.47108,41.11918],[-73.46295,41.12983],[-73.4595,41.13422]]]]}},{"type":"Feature","properties":{"name":"CTDOT Microtransit Pilots \u2013 SEAT (SE Connecticut)","boundary_type":"cousubs","source":"Census TIGER county subdivision","fidelity":"exact","updated":"2026-09","units":"Groton town; New London town; Stonington town; Waterford town","note":"Four zones launched under CTDOT statewide pilot in Southeastern Connecticut","confidence":0.95},"geometry":{"type":"Polygon","coordinates":[[[-72.07012,41.3999],[-72.04563,41.39949],[-72.03698,41.39944],[-72.01122,41.39902],[-71.96129,41.3979],[-71.96267,41.39947],[-71.96296,41.40039],[-71.96204,41.40132],[-71.96367,41.40702],[-71.96299,41.40929],[-71.96282,41.41145],[-71.96101,41.41252],[-71.95827,41.41274],[-71.95687,41.41384],[-71.95646,41.41566],[-71.95356,41.41857],[-71.95339,41.42028],[-71.95077,41.42452],[-71.94729,41.42687],[-71.94324,41.42907],[-71.94283,41.43027],[-71.94327,41.43365],[-71.89354,41.42073],[-71.86903,41.41437],[-71.85551,41.41156],[-71.84478,41.40884],[-71.84282,41.40873],[-71.84347,41.40583],[-71.84326,41.40446],[-71.84173,41.40324],[-71.84115,41.39923],[-71.84224,41.39688],[-71.84213,41.39536],[-71.84106,41.39407],[-71.83863,41.39115],[-71.83817,41.39059],[-71.8352,41.38956],[-71.83265,41.38716],[-71.833,41.38527],[-71.83353,41.38237],[-71.83164,41.38002],[-71.83064,41.37877],[-71.83131,41.37772],[-71.83267,41.37562],[-71.83208,41.37296],[-71.83161,41.3709],[-71.83201,41.37024],[-71.83211,41.37008],[-71.8325,41.36944],[-71.83495,41.36756],[-71.83559,41.36707],[-71.83763,41.3655],[-71.83771,41.36371],[-71.83773,41.3633],[-71.83787,41.36015],[-71.83677,41.3551],[-71.8357,41.35357],[-71.8313,41.35129],[-71.8299,41.34664],[-71.82938,41.34241],[-71.83062,41.34125],[-71.83616,41.33601],[-71.84467,41.33058],[-71.84771,41.3296],[-71.85192,41.32466],[-71.85746,41.32079],[-71.86051,41.32025],[-71.85957,41.3224],[-71.86873,41.32782],[-71.87752,41.33602],[-71.88238,41.33624],[-71.8863,41.33641],[-71.89266,41.33327],[-71.89366,41.33332],[-71.89796,41.33353],[-71.90465,41.32735],[-71.90909,41.32751],[-71.92121,41.32793],[-71.92763,41.33229],[-71.93266,41.33335],[-71.93628,41.33796],[-71.93756,41.33794],[-71.94565,41.3378],[-71.95413,41.32791],[-71.96244,41.32153],[-71.96927,41.32103],[-71.97945,41.32999],[-71.98028,41.32995],[-71.98219,41.32986],[-71.98815,41.32058],[-71.9892,41.316],[-71.98923,41.31586],[-71.98942,41.31601],[-71.99372,41.31954],[-72.0001,41.31834],[-72.00068,41.31824],[-72.00365,41.31055],[-72.00514,41.30669],[-72.00569,41.30672],[-72.01029,41.307],[-72.01084,41.30703],[-72.01157,41.30768],[-72.0219,41.31684],[-72.0275,41.31603],[-72.03026,41.31212],[-72.03534,41.31282],[-72.03645,41.31587],[-72.04153,41.31849],[-72.04912,41.31913],[-72.05475,41.31333],[-72.05507,41.313],[-72.06053,41.31211],[-72.06505,41.31524],[-72.06696,41.31889],[-72.0741,41.31899],[-72.082,41.31722],[-72.08848,41.31577],[-72.09134,41.315],[-72.09444,41.31416],[-72.0931,41.30943],[-72.09844,41.30764],[-72.10111,41.3041],[-72.10136,41.30377],[-72.10778,41.30286],[-72.11182,41.2991],[-72.12304,41.30175],[-72.1255,41.30123],[-72.13422,41.2994],[-72.14404,41.30291],[-72.14966,41.31086],[-72.15599,41.31306],[-72.15632,41.31318],[-72.16158,41.31026],[-72.16107,41.30693],[-72.1644,41.30371],[-72.17271,41.3096],[-72.17392,41.3176],[-72.17747,41.32229],[-72.17657,41.32313],[-72.1762,41.324],[-72.17985,41.32573],[-72.18049,41.32806],[-72.1793,41.33462],[-72.18112,41.3427],[-72.18292,41.3442],[-72.1849,41.34472],[-72.18822,41.3456],[-72.18882,41.3464],[-72.18812,41.3495],[-72.18961,41.35459],[-72.18943,41.35847],[-72.19303,41.3671],[-72.19269,41.36891],[-72.19326,41.37045],[-72.19166,41.3729],[-72.19236,41.37474],[-72.19276,41.37555],[-72.21931,41.41212],[-72.16982,41.41859],[-72.13309,41.42357],[-72.12786,41.42428],[-72.12112,41.42519],[-72.11022,41.42665],[-72.10637,41.42719],[-72.10443,41.42745],[-72.10167,41.42645],[-72.09562,41.4253],[-72.09302,41.4158],[-72.09392,41.4139],[-72.09502,41.4116],[-72.09602,41.4088],[-72.09552,41.4022],[-72.09582,41.4004],[-72.08049,41.40019],[-72.07012,41.3999]]]}},{"type":"Feature","properties":{"name":"CTtransit Link New Haven","boundary_type":"places","source":"Census TIGER place","fidelity":"exact","updated":"2026-09","units":"New Haven city; West Haven city; East Haven town","note":"Greater New Haven area service: New Haven and West Haven are incorporated cities (place layer); East Haven has no separate city incorporation and is encoded as its New England town (cousub layer). State-funded CTtransit microtransit connecting to Union Station rail. https://www.cttransit.com","confidence":0.85},"geometry":{"type":"Polygon","coordinates":[[[-72.99094,41.24543],[-72.99046,41.24772],[-72.99237,41.24869],[-72.99221,41.25864],[-72.99203,41.26445],[-72.99203,41.26809],[-72.98647,41.27305],[-72.97994,41.27919],[-72.98298,41.28129],[-72.98403,41.2806],[-72.98691,41.28116],[-72.98715,41.28245],[-72.98619,41.28574],[-72.9873,41.28825],[-72.98573,41.29199],[-72.98427,41.30179],[-72.98915,41.3133],[-72.99805,41.3141],[-72.99711,41.32219],[-72.99639,41.32375],[-72.98894,41.32889],[-72.98874,41.33019],[-72.9873,41.33124],[-72.98501,41.33302],[-72.98331,41.33731],[-72.98047,41.33875],[-72.97725,41.33999],[-72.97407,41.34159],[-72.97019,41.3429],[-72.97291,41.3474],[-72.96783,41.34791],[-72.96767,41.34728],[-72.96684,41.34544],[-72.96446,41.34379],[-72.96419,41.34642],[-72.96206,41.3463],[-72.96125,41.34901],[-72.95864,41.34908],[-72.95774,41.35039],[-72.95533,41.35024],[-72.95467,41.35016],[-72.95281,41.34908],[-72.95353,41.34728],[-72.95148,41.34711],[-72.95136,41.34395],[-72.95518,41.34235],[-72.95699,41.33985],[-72.95275,41.33723],[-72.94685,41.3366],[-72.94311,41.33627],[-72.94055,41.33585],[-72.93791,41.33566],[-72.93519,41.33547],[-72.93044,41.3349],[-72.92698,41.33459],[-72.9249,41.33449],[-72.91996,41.33415],[-72.91323,41.33359],[-72.91253,41.33319],[-72.90853,41.33085],[-72.90254,41.3272],[-72.89775,41.3281],[-72.89331,41.3289],[-72.89169,41.32847],[-72.89264,41.3303],[-72.88884,41.3326],[-72.87918,41.33409],[-72.87617,41.33401],[-72.86994,41.33477],[-72.8662,41.33601],[-72.86031,41.33664],[-72.84622,41.33908],[-72.82799,41.34236],[-72.82796,41.35119],[-72.82715,41.35812],[-72.82713,41.36149],[-72.82283,41.36179],[-72.82254,41.3642],[-72.817,41.36388],[-72.81707,41.35973],[-72.81775,41.33998],[-72.81895,41.33565],[-72.82178,41.32576],[-72.82325,41.32145],[-72.8238,41.31843],[-72.82384,41.31832],[-72.83501,41.31439],[-72.8365,41.31347],[-72.83729,41.31257],[-72.83836,41.30879],[-72.84018,41.2998],[-72.84126,41.298],[-72.84374,41.2964],[-72.85086,41.29364],[-72.85582,41.29087],[-72.85897,41.28773],[-72.86082,41.28301],[-72.86032,41.28217],[-72.85934,41.28101],[-72.86053,41.27748],[-72.86263,41.27358],[-72.86262,41.27145],[-72.86405,41.26955],[-72.86247,41.26978],[-72.86103,41.26661],[-72.86051,41.26552],[-72.8577,41.26557],[-72.85334,41.26413],[-72.85193,41.26218],[-72.85202,41.25979],[-72.85227,41.25905],[-72.85724,41.2522],[-72.8594,41.247],[-72.85961,41.24632],[-72.86106,41.2458],[-72.87013,41.24531],[-72.87463,41.24443],[-72.88087,41.24321],[-72.88151,41.24309],[-72.88562,41.24427],[-72.89004,41.24465],[-72.89358,41.24254],[-72.89458,41.24251],[-72.8967,41.24531],[-72.90016,41.24668],[-72.90033,41.24676],[-72.90343,41.24818],[-72.90412,41.24955],[-72.90375,41.2514],[-72.90273,41.25292],[-72.8987,41.2552],[-72.89757,41.25557],[-72.89467,41.25652],[-72.89384,41.2599],[-72.89619,41.26366],[-72.89637,41.26395],[-72.8975,41.26576],[-72.90536,41.27063],[-72.90502,41.27164],[-72.90355,41.27605],[-72.9031,41.27739],[-72.90595,41.2827],[-72.90619,41.28316],[-72.90643,41.29218],[-72.90734,41.29525],[-72.90762,41.2962],[-72.91309,41.29674],[-72.92188,41.28933],[-72.92394,41.28552],[-72.92675,41.28326],[-72.92881,41.2816],[-72.92958,41.28098],[-72.92965,41.28092],[-72.93253,41.28032],[-72.93291,41.2805],[-72.93269,41.28185],[-72.93314,41.2821],[-72.93759,41.28204],[-72.93811,41.28193],[-72.93859,41.28113],[-72.93911,41.28027],[-72.93916,41.28019],[-72.93802,41.27801],[-72.93717,41.2774],[-72.93679,41.27713],[-72.93657,41.27697],[-72.93656,41.27671],[-72.93641,41.27305],[-72.93592,41.27257],[-72.93524,41.2719],[-72.93179,41.26918],[-72.9317,41.26908],[-72.93064,41.26788],[-72.93111,41.26729],[-72.93106,41.26474],[-72.93102,41.26267],[-72.93127,41.26234],[-72.9313,41.26229],[-72.93619,41.25989],[-72.93955,41.25884],[-72.95315,41.25542],[-72.95462,41.25434],[-72.95695,41.25263],[-72.95721,41.25243],[-72.96003,41.25215],[-72.96206,41.25194],[-72.96348,41.248],[-72.96821,41.24444],[-72.9689,41.24392],[-72.96926,41.24315],[-72.97042,41.24065],[-72.97098,41.23945],[-72.97204,41.23717],[-72.97514,41.23383],[-72.97835,41.23331],[-72.97867,41.23345],[-72.98106,41.2345],[-72.98113,41.23453],[-72.98167,41.2347],[-72.98559,41.23588],[-72.98655,41.23532],[-72.9869,41.23553],[-72.99028,41.23474],[-72.9927,41.23452],[-72.99323,41.23739],[-72.99213,41.239],[-72.99463,41.24169],[-72.99313,41.24475],[-72.99205,41.24491],[-72.99094,41.24543]]]}},{"type":"Feature","properties":{"name":"CTtransit Link Stamford","boundary_type":"places","source":"Census TIGER place","fidelity":"exact","updated":"2026-09","units":"Stamford city; Darien town","note":"State pilot serving Stamford (city) and Darien (town); fills gaps between corporate parks and residential areas","confidence":0.9},"geometry":{"type":"Polygon","coordinates":[[[-73.49342,41.11447],[-73.48621,41.1142],[-73.48561,41.11392],[-73.47903,41.11461],[-73.47456,41.1147],[-73.47295,41.11287],[-73.46909,41.10829],[-73.46752,41.10685],[-73.46214,41.10113],[-73.4558,41.09339],[-73.45552,41.09286],[-73.45398,41.09167],[-73.45362,41.09108],[-73.45358,41.08962],[-73.45384,41.08774],[-73.45067,41.08815],[-73.45022,41.08651],[-73.44819,41.08604],[-73.44747,41.08501],[-73.44623,41.07728],[-73.44593,41.0765],[-73.44675,41.0762],[-73.4475,41.07292],[-73.44762,41.07191],[-73.44482,41.07002],[-73.44405,41.06835],[-73.44527,41.06591],[-73.44551,41.06539],[-73.44652,41.05808],[-73.45048,41.05699],[-73.45139,41.05792],[-73.45364,41.05715],[-73.4542,41.05437],[-73.45957,41.05254],[-73.46171,41.05363],[-73.4615,41.05448],[-73.4589,41.05654],[-73.45782,41.05897],[-73.4594,41.05964],[-73.46168,41.05886],[-73.46258,41.05855],[-73.46309,41.05837],[-73.46319,41.05834],[-73.46483,41.0581],[-73.46502,41.05846],[-73.46517,41.05873],[-73.46396,41.0599],[-73.46466,41.06075],[-73.46673,41.06113],[-73.46898,41.06008],[-73.47047,41.05618],[-73.47151,41.05508],[-73.47049,41.0541],[-73.46831,41.05482],[-73.46726,41.05477],[-73.46715,41.05236],[-73.46957,41.05074],[-73.47403,41.05085],[-73.47438,41.04926],[-73.47003,41.04833],[-73.47024,41.0472],[-73.476,41.04391],[-73.47737,41.0364],[-73.47909,41.03658],[-73.48282,41.04622],[-73.48425,41.04618],[-73.48606,41.04613],[-73.4868,41.04224],[-73.4886,41.0408],[-73.49141,41.04274],[-73.49047,41.04413],[-73.49074,41.04443],[-73.49395,41.04804],[-73.49576,41.04768],[-73.50058,41.04672],[-73.50106,41.04489],[-73.50597,41.0428],[-73.50796,41.0385],[-73.51728,41.03989],[-73.5212,41.03779],[-73.52228,41.03721],[-73.52329,41.03666],[-73.52285,41.03566],[-73.52115,41.03182],[-73.52005,41.03164],[-73.5185,41.03138],[-73.51701,41.03005],[-73.51826,41.02896],[-73.51924,41.02431],[-73.52306,41.02005],[-73.52417,41.02017],[-73.52439,41.02019],[-73.52697,41.01972],[-73.52703,41.01964],[-73.52908,41.01707],[-73.52925,41.0171],[-73.53035,41.01728],[-73.53121,41.02245],[-73.53019,41.02878],[-73.53279,41.03167],[-73.53441,41.03183],[-73.53534,41.03192],[-73.53667,41.03107],[-73.53693,41.0309],[-73.53881,41.0297],[-73.5399,41.029],[-73.54484,41.02584],[-73.54744,41.02288],[-73.55149,41.02434],[-73.55287,41.02335],[-73.55515,41.02515],[-73.55569,41.02843],[-73.56009,41.03509],[-73.56315,41.04023],[-73.56444,41.04492],[-73.565,41.04674],[-73.56533,41.04855],[-73.56644,41.05273],[-73.5672,41.05449],[-73.56795,41.05901],[-73.56834,41.05947],[-73.57262,41.06516],[-73.57736,41.07147],[-73.59245,41.09061],[-73.59647,41.0954],[-73.59916,41.09902],[-73.60635,41.10843],[-73.60705,41.10961],[-73.61378,41.11765],[-73.61759,41.12275],[-73.62137,41.12749],[-73.62643,41.13461],[-73.63245,41.14242],[-73.63398,41.14409],[-73.63215,41.14492],[-73.62881,41.14642],[-73.61446,41.15288],[-73.59707,41.16071],[-73.58745,41.16504],[-73.58617,41.16561],[-73.57915,41.16877],[-73.56494,41.17517],[-73.56476,41.17525],[-73.55465,41.17993],[-73.5536,41.1792],[-73.55226,41.17608],[-73.55305,41.17417],[-73.54375,41.16366],[-73.54199,41.16313],[-73.54002,41.16007],[-73.53872,41.16005],[-73.53578,41.15779],[-73.53487,41.15572],[-73.53233,41.15439],[-73.53305,41.15197],[-73.53421,41.15163],[-73.53413,41.15024],[-73.53406,41.14982],[-73.53324,41.14778],[-73.5225,41.11889],[-73.52206,41.11727],[-73.52195,41.11507],[-73.50825,41.1143],[-73.50784,41.1142],[-73.50076,41.11441],[-73.49581,41.11414],[-73.49342,41.11447]]]}},{"type":"Feature","properties":{"name":"Enfield Magic Carpet Link","boundary_type":"cousub","source":"Census TIGER county subdivision","fidelity":"exact","updated":"2026-09","units":"Enfield town","note":"Town of Enfield; replaces fixed schedule loops","confidence":0.95},"geometry":{"type":"Polygon","coordinates":[[[-72.6131,41.94697],[-72.61223,41.9559],[-72.61163,41.96079],[-72.60953,41.96489],[-72.60703,41.9738],[-72.60358,41.98977],[-72.60753,41.9993],[-72.6049,42.01191],[-72.60693,42.02499],[-72.59023,42.0247],[-72.58983,42.0247],[-72.58233,42.0247],[-72.57419,42.02957],[-72.57323,42.03014],[-72.56343,42.03104],[-72.56098,42.03127],[-72.56096,42.03127],[-72.55305,42.032],[-72.55286,42.03202],[-72.55011,42.03227],[-72.53149,42.03399],[-72.52813,42.0343],[-72.52462,42.03428],[-72.5092,42.03422],[-72.50864,42.03114],[-72.50593,42.01648],[-72.50539,42.01357],[-72.5039,42.00648],[-72.49972,41.98422],[-72.49941,41.98159],[-72.49893,41.97789],[-72.49273,41.9475],[-72.50553,41.9464],[-72.51333,41.9454],[-72.52341,41.94458],[-72.52618,41.94436],[-72.53861,41.94303],[-72.548,41.9418],[-72.55989,41.94033],[-72.57737,41.93866],[-72.60693,41.9361],[-72.60776,41.93589],[-72.62343,41.9343],[-72.61395,41.94354],[-72.6131,41.94697]]]}},{"type":"Feature","properties":{"name":"Estuary Transit River HOP","boundary_type":"cousubs","source":"Census TIGER county subdivision","fidelity":"exact","updated":"2026-09","units":"Madison town; Guilford town","note":"Shoreline microtransit serving Madison and Guilford; logged 27.5k rides in second year","confidence":0.95},"geometry":{"type":"Polygon","coordinates":[[[-72.74464,41.39963],[-72.74274,41.403],[-72.7408,41.40434],[-72.73282,41.412],[-72.73131,41.41419],[-72.7282,41.41764],[-72.72337,41.41914],[-72.72216,41.42292],[-72.72145,41.42372],[-72.72064,41.4274],[-72.71042,41.42907],[-72.70834,41.42944],[-72.69055,41.43257],[-72.68267,41.43378],[-72.67874,41.4338],[-72.67109,41.43536],[-72.66683,41.43569],[-72.65367,41.43812],[-72.65456,41.43626],[-72.65302,41.43491],[-72.65091,41.43503],[-72.64836,41.43515],[-72.64959,41.43101],[-72.64684,41.43115],[-72.64235,41.42932],[-72.64518,41.42581],[-72.64879,41.422],[-72.65048,41.41912],[-72.64974,41.41839],[-72.64921,41.41734],[-72.64741,41.41696],[-72.64687,41.41574],[-72.64507,41.4158],[-72.64163,41.41374],[-72.6378,41.41232],[-72.63232,41.41231],[-72.63227,41.40812],[-72.63059,41.40694],[-72.63083,41.40359],[-72.62902,41.40123],[-72.62628,41.40019],[-72.62503,41.39909],[-72.62591,41.39717],[-72.62246,41.39359],[-72.61801,41.39166],[-72.61603,41.38874],[-72.61233,41.38618],[-72.61384,41.3844],[-72.61401,41.38078],[-72.61152,41.3765],[-72.60884,41.37351],[-72.60924,41.37053],[-72.60813,41.3674],[-72.61014,41.36715],[-72.60935,41.36536],[-72.60975,41.36337],[-72.61223,41.36267],[-72.61256,41.3572],[-72.61265,41.35383],[-72.6116,41.35233],[-72.61283,41.35022],[-72.61139,41.3471],[-72.61121,41.34323],[-72.6127,41.34241],[-72.61269,41.34087],[-72.6144,41.337],[-72.6136,41.33622],[-72.61496,41.33359],[-72.61441,41.32997],[-72.61208,41.32922],[-72.61152,41.32751],[-72.60865,41.32818],[-72.60523,41.32761],[-72.60251,41.32598],[-72.60078,41.32581],[-72.59719,41.32853],[-72.59571,41.32803],[-72.59287,41.32406],[-72.5918,41.32278],[-72.58944,41.32266],[-72.58734,41.32433],[-72.58642,41.32422],[-72.58577,41.32298],[-72.58532,41.31862],[-72.58781,41.31605],[-72.58941,41.31513],[-72.58706,41.31371],[-72.58521,41.31423],[-72.58488,41.31293],[-72.58656,41.31294],[-72.58857,41.3117],[-72.58566,41.30985],[-72.58616,41.30915],[-72.5856,41.30735],[-72.5825,41.30639],[-72.58112,41.30493],[-72.58182,41.3039],[-72.57987,41.304],[-72.57634,41.30242],[-72.57595,41.30092],[-72.57345,41.29917],[-72.5707,41.298],[-72.57174,41.29756],[-72.56998,41.29665],[-72.57081,41.29578],[-72.57015,41.29442],[-72.56756,41.29417],[-72.56563,41.29239],[-72.56456,41.28986],[-72.56463,41.28952],[-72.56393,41.2887],[-72.56113,41.2875],[-72.55743,41.2837],[-72.55724,41.28199],[-72.55503,41.28061],[-72.55113,41.28058],[-72.54889,41.28185],[-72.54599,41.28033],[-72.54805,41.27741],[-72.54625,41.27598],[-72.54434,41.2737],[-72.54703,41.2716],[-72.54636,41.2674],[-72.54765,41.26432],[-72.54723,41.2625],[-72.54584,41.2603],[-72.53633,41.25481],[-72.53676,41.2509],[-72.54394,41.2487],[-72.54692,41.25083],[-72.5706,41.26772],[-72.57108,41.26805],[-72.57114,41.2681],[-72.58334,41.2717],[-72.58517,41.27132],[-72.59097,41.27014],[-72.59804,41.2687],[-72.60119,41.26952],[-72.60408,41.27077],[-72.60781,41.27045],[-72.60796,41.27043],[-72.61036,41.27084],[-72.61724,41.272],[-72.61752,41.27194],[-72.61921,41.27159],[-72.63136,41.26909],[-72.64154,41.267],[-72.65384,41.2659],[-72.65453,41.26576],[-72.65842,41.26501],[-72.66103,41.26853],[-72.66218,41.26893],[-72.66567,41.27014],[-72.66816,41.26679],[-72.66882,41.26591],[-72.67322,41.26762],[-72.67482,41.26609],[-72.67964,41.2615],[-72.67705,41.25827],[-72.67748,41.25477],[-72.68411,41.25839],[-72.68507,41.25803],[-72.68525,41.25546],[-72.68554,41.2513],[-72.69024,41.24689],[-72.69044,41.2467],[-72.69344,41.24549],[-72.69474,41.24497],[-72.69908,41.24709],[-72.70614,41.24385],[-72.70897,41.24459],[-72.70922,41.24717],[-72.7124,41.24708],[-72.71324,41.2488],[-72.70262,41.25592],[-72.70579,41.25991],[-72.71726,41.25586],[-72.71857,41.25615],[-72.71886,41.25688],[-72.71539,41.25896],[-72.71479,41.26136],[-72.71738,41.26291],[-72.72267,41.25926],[-72.72569,41.25978],[-72.72695,41.2583],[-72.72928,41.2583],[-72.73244,41.25512],[-72.73704,41.25734],[-72.73531,41.26103],[-72.73674,41.26139],[-72.73496,41.26263],[-72.73218,41.26263],[-72.73225,41.26557],[-72.72805,41.26799],[-72.72847,41.26913],[-72.73582,41.28407],[-72.73813,41.28629],[-72.74199,41.29707],[-72.74669,41.30804],[-72.74611,41.31063],[-72.74572,41.3115],[-72.74268,41.32086],[-72.74145,41.32369],[-72.74213,41.33456],[-72.74362,41.34468],[-72.7436,41.34665],[-72.74545,41.36705],[-72.74591,41.37223],[-72.74682,41.38256],[-72.7493,41.39809],[-72.74597,41.3969],[-72.74464,41.39963]]]}},{"type":"Feature","properties":{"name":"gbt connect (Trumbull)","boundary_type":"cousub","source":"Census TIGER county subdivision","fidelity":"exact","updated":"2026-09","units":"Trumbull town","note":"Town of Trumbull, launched July 2024","confidence":0.95},"geometry":{"type":"Polygon","coordinates":[[[-73.27437,41.29381],[-73.26372,41.29491],[-73.25783,41.2954],[-73.24611,41.29585],[-73.24375,41.29583],[-73.23429,41.29672],[-73.23072,41.29742],[-73.22737,41.2976],[-73.2211,41.2981],[-73.2048,41.29936],[-73.20081,41.29494],[-73.1983,41.29309],[-73.19099,41.2858],[-73.17903,41.27373],[-73.17864,41.27264],[-73.1736,41.26861],[-73.16491,41.26879],[-73.15557,41.2691],[-73.15527,41.26909],[-73.14737,41.25622],[-73.14688,41.25537],[-73.14667,41.25504],[-73.1455,41.25438],[-73.14523,41.24985],[-73.14333,41.24503],[-73.14318,41.24122],[-73.14065,41.23799],[-73.14622,41.23704],[-73.15047,41.2324],[-73.15426,41.23054],[-73.15382,41.23005],[-73.15716,41.22882],[-73.15764,41.22838],[-73.16468,41.22565],[-73.16954,41.22276],[-73.17167,41.2224],[-73.17726,41.22234],[-73.17884,41.22197],[-73.18328,41.2207],[-73.18727,41.22053],[-73.18926,41.22197],[-73.19075,41.22418],[-73.18318,41.22369],[-73.18451,41.22594],[-73.18132,41.22688],[-73.18831,41.22754],[-73.19041,41.2261],[-73.19086,41.22503],[-73.19524,41.22725],[-73.1964,41.22772],[-73.20107,41.2283],[-73.20141,41.22947],[-73.20729,41.22775],[-73.20847,41.22779],[-73.21244,41.22847],[-73.21912,41.2278],[-73.23218,41.22729],[-73.24417,41.22659],[-73.24546,41.22806],[-73.24625,41.22933],[-73.24856,41.23198],[-73.24858,41.232],[-73.24539,41.23292],[-73.2361,41.23843],[-73.23682,41.23935],[-73.24103,41.24482],[-73.24383,41.24749],[-73.24434,41.2481],[-73.24775,41.25208],[-73.24854,41.2534],[-73.25371,41.25913],[-73.27449,41.28389],[-73.27522,41.29182],[-73.27437,41.29381]]]}},{"type":"Feature","properties":{"name":"GHTD Link (Enfield/East Windsor)","boundary_type":"cousubs","source":"Census TIGER county subdivision","fidelity":"approximate","updated":"2026-09","units":"Enfield town; East Windsor town","note":"Service covers Enfield fully and portions of East Windsor, launched April 2024","confidence":0.85},"geometry":{"type":"Polygon","coordinates":[[[-72.51463,41.91663],[-72.51523,41.89947],[-72.51692,41.87364],[-72.51733,41.8699],[-72.54788,41.86928],[-72.57149,41.86878],[-72.58256,41.86833],[-72.58799,41.86831],[-72.6056,41.86804],[-72.6166,41.8686],[-72.61926,41.8683],[-72.6194,41.87652],[-72.61969,41.88284],[-72.62045,41.88714],[-72.62044,41.8904],[-72.62133,41.89217],[-72.62068,41.89771],[-72.62173,41.9046],[-72.62268,41.91711],[-72.62409,41.92919],[-72.62343,41.9343],[-72.61395,41.94354],[-72.6131,41.94697],[-72.61223,41.9559],[-72.61163,41.96079],[-72.60953,41.96489],[-72.60703,41.9738],[-72.60358,41.98977],[-72.60753,41.9993],[-72.6049,42.01191],[-72.60693,42.02499],[-72.59023,42.0247],[-72.58983,42.0247],[-72.58233,42.0247],[-72.57419,42.02957],[-72.57323,42.03014],[-72.56343,42.03104],[-72.56098,42.03127],[-72.56096,42.03127],[-72.55305,42.032],[-72.55286,42.03202],[-72.55011,42.03227],[-72.53149,42.03399],[-72.52813,42.0343],[-72.52462,42.03428],[-72.5092,42.03422],[-72.50864,42.03114],[-72.50593,42.01648],[-72.50539,42.01357],[-72.5039,42.00648],[-72.49972,41.98422],[-72.49941,41.98159],[-72.49893,41.97789],[-72.49273,41.9475],[-72.50553,41.9464],[-72.51333,41.9454],[-72.51413,41.93256],[-72.51463,41.91663]]]}},{"type":"Feature","properties":{"name":"Groton Smart Ride","boundary_type":"cousub","source":"Census TIGER county subdivision","fidelity":"exact","updated":"2026-09","units":"Groton town","note":"Town of Groton; zone-based service","confidence":0.95},"geometry":{"type":"Polygon","coordinates":[[[-72.09582,41.4004],[-72.08049,41.40019],[-72.07012,41.3999],[-72.04563,41.39949],[-72.03698,41.39944],[-72.01122,41.39902],[-71.96129,41.3979],[-71.95868,41.39786],[-71.96084,41.3947],[-71.96029,41.38944],[-71.95863,41.38811],[-71.96122,41.38678],[-71.96422,41.38259],[-71.96353,41.37911],[-71.96453,41.37506],[-71.96603,41.373],[-71.96732,41.36974],[-71.96692,41.36567],[-71.96763,41.36179],[-71.96707,41.35806],[-71.96873,41.35473],[-71.97112,41.35137],[-71.97019,41.34899],[-71.96913,41.34519],[-71.97326,41.34032],[-71.97506,41.33715],[-71.97612,41.333],[-71.97992,41.3304],[-71.98028,41.32995],[-71.98219,41.32986],[-71.98815,41.32058],[-71.9892,41.316],[-71.98923,41.31586],[-71.98942,41.31601],[-71.99372,41.31954],[-72.0001,41.31834],[-72.00068,41.31824],[-72.00365,41.31055],[-72.00514,41.30669],[-72.00569,41.30672],[-72.01029,41.307],[-72.01084,41.30703],[-72.01157,41.30768],[-72.0219,41.31684],[-72.0275,41.31603],[-72.03026,41.31212],[-72.03534,41.31282],[-72.03645,41.31587],[-72.04153,41.31849],[-72.04912,41.31913],[-72.05475,41.31333],[-72.05507,41.313],[-72.06053,41.31211],[-72.06505,41.31524],[-72.06696,41.31889],[-72.0741,41.31899],[-72.082,41.31722],[-72.08363,41.32801],[-72.08532,41.3392],[-72.08562,41.3406],[-72.08672,41.3481],[-72.08592,41.3495],[-72.08612,41.3526],[-72.08682,41.3557],[-72.08784,41.36313],[-72.08805,41.36379],[-72.08962,41.3676],[-72.09052,41.3696],[-72.09322,41.3771],[-72.09292,41.387],[-72.09292,41.3889],[-72.09422,41.3927],[-72.09722,41.3962],[-72.09648,41.399],[-72.09582,41.4004]]]}},{"type":"Feature","properties":{"name":"Meriden Microtransit","boundary_type":"cousub","source":"Census TIGER county subdivision","fidelity":"exact","updated":"2026-09","units":"Meriden town","note":"Zone-based city transit connecting local neighborhoods to Hartford Line commuter rail","confidence":0.95},"geometry":{"type":"Polygon","coordinates":[[[-72.85798,41.53455],[-72.85361,41.53348],[-72.85169,41.54029],[-72.85315,41.54641],[-72.85174,41.54597],[-72.84428,41.54472],[-72.84515,41.54741],[-72.84573,41.55335],[-72.846,41.55485],[-72.84854,41.56733],[-72.84024,41.5691],[-72.82764,41.571],[-72.82964,41.5624],[-72.82574,41.5643],[-72.82614,41.5559],[-72.82514,41.5554],[-72.82124,41.55419],[-72.81914,41.5543],[-72.80996,41.56228],[-72.80924,41.562],[-72.80524,41.5666],[-72.80124,41.5731],[-72.77972,41.57594],[-72.76808,41.57731],[-72.76782,41.57734],[-72.75218,41.57889],[-72.74935,41.54976],[-72.74927,41.54749],[-72.74899,41.54631],[-72.74893,41.54567],[-72.74888,41.54428],[-72.7472,41.52807],[-72.74706,41.52729],[-72.74478,41.49818],[-72.76804,41.49701],[-72.77265,41.49675],[-72.77705,41.49824],[-72.79263,41.50357],[-72.79271,41.5036],[-72.79592,41.50472],[-72.80027,41.50555],[-72.81519,41.50852],[-72.81655,41.50874],[-72.823,41.51011],[-72.84071,41.51379],[-72.8503,41.51573],[-72.85373,41.52213],[-72.85308,41.52493],[-72.85739,41.52636],[-72.85777,41.52637],[-72.85793,41.52717],[-72.86123,41.5281],[-72.85883,41.53237],[-72.85798,41.53455]]]}},{"type":"Feature","properties":{"name":"Milford Micro","boundary_type":"cousub","source":"Census TIGER county subdivision","fidelity":"exact","updated":"2026-09","units":"Milford town","note":"Town of Milford, part of CTDOT statewide pilot","confidence":0.95},"geometry":{"type":"Polygon","coordinates":[[[-73.12137,41.18744],[-73.12075,41.1885],[-73.11623,41.19259],[-73.11535,41.1935],[-73.11057,41.20027],[-73.10925,41.2041],[-73.10945,41.2048],[-73.11065,41.2078],[-73.11034,41.21329],[-73.11025,41.214],[-73.10835,41.2183],[-73.11045,41.2253],[-73.11055,41.2274],[-73.10995,41.2294],[-73.10755,41.2325],[-73.10495,41.2366],[-73.10157,41.24009],[-73.0934,41.24462],[-73.09141,41.24626],[-73.09121,41.24641],[-73.08735,41.25179],[-73.08675,41.2546],[-73.08785,41.2601],[-73.08775,41.2653],[-73.08865,41.2717],[-73.08685,41.2766],[-73.07899,41.27332],[-73.07228,41.26972],[-73.06205,41.26459],[-73.05522,41.2613],[-73.05151,41.2595],[-73.04414,41.25682],[-73.03516,41.25438],[-73.03407,41.25386],[-73.03031,41.25278],[-73.02698,41.25231],[-73.02123,41.25081],[-73.01271,41.24951],[-73.00645,41.24812],[-73.00024,41.24662],[-72.99873,41.24636],[-72.99501,41.24571],[-72.99205,41.24491],[-72.99313,41.24475],[-72.99463,41.24169],[-72.99213,41.239],[-72.99323,41.23739],[-72.9927,41.23452],[-72.99028,41.23474],[-72.9869,41.23553],[-72.98655,41.23532],[-72.98687,41.23513],[-72.98703,41.23346],[-72.98755,41.2311],[-72.99204,41.22372],[-72.99703,41.22264],[-73.00042,41.22271],[-73.00255,41.22275],[-73.00408,41.2214],[-73.00617,41.21594],[-73.00839,41.21014],[-73.00868,41.20988],[-73.01262,41.20643],[-73.01303,41.20607],[-73.01455,41.20473],[-73.02022,41.20432],[-73.02023,41.20479],[-73.02028,41.20667],[-73.02028,41.20669],[-73.02244,41.20735],[-73.0233,41.20761],[-73.02964,41.20753],[-73.03489,41.20608],[-73.03521,41.20564],[-73.03592,41.20464],[-73.0363,41.20412],[-73.03638,41.204],[-73.03745,41.20249],[-73.03794,41.20181],[-73.04472,41.20919],[-73.04657,41.21055],[-73.04891,41.21073],[-73.0496,41.21078],[-73.05545,41.20913],[-73.05567,41.20899],[-73.06084,41.20577],[-73.06595,41.19841],[-73.07296,41.19763],[-73.07426,41.19696],[-73.07818,41.19495],[-73.07912,41.19447],[-73.08204,41.19296],[-73.08284,41.19231],[-73.08714,41.1888],[-73.08884,41.1874],[-73.09087,41.18517],[-73.09733,41.17807],[-73.10149,41.17382],[-73.10329,41.17408],[-73.10429,41.17319],[-73.10546,41.17216],[-73.10581,41.1717],[-73.108,41.16876],[-73.10801,41.16875],[-73.11215,41.1714],[-73.11985,41.1757],[-73.12145,41.1776],[-73.122,41.17893],[-73.12245,41.1829],[-73.12137,41.18744]]]}},{"type":"Feature","properties":{"name":"New Haven Go New Haven","boundary_type":"city","source":"Census TIGER place","fidelity":"exact","updated":"2026-09","units":"New Haven city","note":"City of New Haven; pilot program testing urban demand","confidence":0.95},"geometry":{"type":"Polygon","coordinates":[[[-72.99639,41.32375],[-72.98894,41.32889],[-72.98874,41.33019],[-72.9873,41.33124],[-72.98501,41.33302],[-72.98331,41.33731],[-72.98047,41.33875],[-72.97725,41.33999],[-72.97407,41.34159],[-72.97019,41.3429],[-72.97291,41.3474],[-72.96783,41.34791],[-72.96767,41.34728],[-72.96684,41.34544],[-72.96446,41.34379],[-72.96419,41.34642],[-72.96206,41.3463],[-72.96125,41.34901],[-72.95864,41.34908],[-72.95774,41.35039],[-72.95533,41.35024],[-72.95467,41.35016],[-72.95281,41.34908],[-72.95353,41.34728],[-72.95148,41.34711],[-72.95136,41.34395],[-72.95518,41.34235],[-72.95699,41.33985],[-72.95275,41.33723],[-72.94685,41.3366],[-72.94311,41.33627],[-72.94055,41.33585],[-72.93791,41.33566],[-72.93519,41.33547],[-72.93044,41.3349],[-72.92698,41.33459],[-72.9249,41.33449],[-72.91996,41.33415],[-72.91323,41.33359],[-72.91253,41.33319],[-72.90853,41.33085],[-72.90254,41.3272],[-72.89775,41.3281],[-72.89331,41.3289],[-72.89169,41.32847],[-72.89264,41.3303],[-72.88884,41.3326],[-72.87918,41.33409],[-72.87617,41.33401],[-72.86994,41.33477],[-72.8662,41.33601],[-72.86031,41.33664],[-72.86258,41.33157],[-72.86757,41.32043],[-72.86773,41.31975],[-72.8697,41.31531],[-72.87074,41.31286],[-72.87243,41.30879],[-72.87364,41.30685],[-72.87629,41.30356],[-72.87754,41.30093],[-72.88026,41.29734],[-72.88252,41.29323],[-72.88643,41.28811],[-72.88771,41.28571],[-72.88756,41.28472],[-72.88743,41.28231],[-72.88737,41.27606],[-72.88729,41.27429],[-72.88711,41.25515],[-72.88687,41.25428],[-72.88948,41.251],[-72.89105,41.25119],[-72.89692,41.24849],[-72.8992,41.2487],[-72.90033,41.24676],[-72.90343,41.24818],[-72.90412,41.24955],[-72.90375,41.2514],[-72.90273,41.25292],[-72.8987,41.2552],[-72.89757,41.25557],[-72.89467,41.25652],[-72.89384,41.2599],[-72.89619,41.26366],[-72.89637,41.26395],[-72.8975,41.26576],[-72.90536,41.27063],[-72.90502,41.27164],[-72.90355,41.27605],[-72.9031,41.27739],[-72.90595,41.2827],[-72.90619,41.28316],[-72.90643,41.29218],[-72.90734,41.29525],[-72.90762,41.2962],[-72.91309,41.29674],[-72.92188,41.28933],[-72.92394,41.28552],[-72.92675,41.28326],[-72.92881,41.2816],[-72.92958,41.28098],[-72.92965,41.28092],[-72.93253,41.28032],[-72.93291,41.2805],[-72.93269,41.28185],[-72.93314,41.2821],[-72.93759,41.28204],[-72.93811,41.28193],[-72.93859,41.28113],[-72.93893,41.28144],[-72.9399,41.2835],[-72.94074,41.28599],[-72.94021,41.28778],[-72.94293,41.28901],[-72.9437,41.28986],[-72.94651,41.29289],[-72.94792,41.29206],[-72.952,41.29447],[-72.94987,41.29619],[-72.95108,41.29726],[-72.95264,41.29944],[-72.9563,41.30161],[-72.95685,41.30309],[-72.95597,41.30514],[-72.95743,41.30665],[-72.9563,41.31046],[-72.95815,41.3107],[-72.96371,41.3109],[-72.97018,41.31161],[-72.97249,41.31195],[-72.98915,41.3133],[-72.99805,41.3141],[-72.99711,41.32219],[-72.99639,41.32375]]]}},{"type":"Feature","properties":{"name":"New London Smart Ride","boundary_type":"city","source":"Census TIGER place","fidelity":"exact","updated":"2026-09","units":"New London city","note":"City of New London; app-based urban microtransit","confidence":0.95},"geometry":{"type":"Polygon","coordinates":[[[-72.12392,41.3696],[-72.12231,41.37064],[-72.12191,41.37135],[-72.1184,41.37467],[-72.11776,41.37528],[-72.1097,41.38296],[-72.09836,41.38549],[-72.09292,41.387],[-72.09322,41.3771],[-72.09052,41.3696],[-72.08962,41.3676],[-72.08805,41.36379],[-72.08784,41.36313],[-72.08682,41.3557],[-72.08612,41.3526],[-72.08592,41.3495],[-72.08672,41.3481],[-72.08562,41.3406],[-72.08532,41.3392],[-72.08363,41.32801],[-72.082,41.31722],[-72.08848,41.31577],[-72.09134,41.315],[-72.09444,41.31416],[-72.0931,41.30943],[-72.09844,41.30764],[-72.10111,41.3041],[-72.1039,41.30515],[-72.10168,41.30681],[-72.10199,41.30934],[-72.10058,41.31315],[-72.10343,41.31737],[-72.10533,41.32062],[-72.1051,41.32186],[-72.10864,41.32856],[-72.10902,41.33209],[-72.10979,41.33404],[-72.1124,41.34139],[-72.11345,41.3436],[-72.11831,41.34776],[-72.12853,41.35763],[-72.12832,41.36531],[-72.12392,41.3696]]]}},{"type":"Feature","properties":{"name":"NWCTD Link","boundary_type":"city","source":"Census TIGER place","fidelity":"approximate","updated":"2026-09","units":"Torrington city","note":"Service described as covering the core Torrington commercial zone, not the full city \u2014 no zone size or street boundaries published on the operator site (https://www.nwcttransit.com/); encoded as Torrington city with approximate fidelity since it is a subset of city limits. Northwestern CT Transit District also runs a 14-town Dial-A-Ride but Link is Torrington-specific.","confidence":0.6},"geometry":{"type":"Polygon","coordinates":[[[-73.19257,41.82098],[-73.19158,41.82377],[-73.19006,41.82946],[-73.17066,41.89427],[-73.16243,41.89311],[-73.15815,41.89196],[-73.15319,41.88736],[-73.15328,41.88569],[-73.15159,41.88556],[-73.15153,41.88172],[-73.15282,41.87711],[-73.15316,41.87263],[-73.14335,41.87398],[-73.137,41.87483],[-73.12715,41.87609],[-73.1202,41.87716],[-73.10361,41.87952],[-73.07514,41.88384],[-73.07088,41.88456],[-73.05353,41.88732],[-73.05977,41.86347],[-73.06519,41.84082],[-73.06725,41.83318],[-73.06767,41.83038],[-73.0702,41.82116],[-73.07426,41.8058],[-73.07622,41.79911],[-73.07668,41.79845],[-73.08251,41.79839],[-73.08292,41.79837],[-73.08804,41.79852],[-73.10409,41.79839],[-73.10368,41.79508],[-73.10429,41.79442],[-73.10783,41.79045],[-73.11028,41.78791],[-73.11209,41.78494],[-73.11247,41.78222],[-73.11715,41.78137],[-73.1183,41.77728],[-73.11977,41.77564],[-73.12212,41.77659],[-73.12455,41.77683],[-73.15414,41.7837],[-73.15859,41.78476],[-73.16318,41.79399],[-73.16777,41.79352],[-73.194,41.79079],[-73.20043,41.79017],[-73.20184,41.79001],[-73.19257,41.82098]]]}},{"type":"Feature","properties":{"name":"Parkville Microtransit","boundary_type":"city","source":"Census TIGER place","fidelity":"approximate","updated":"2026-09","units":"Hartford city","note":"Pilot in Parkville neighborhood of Hartford; likely subset of city limits","confidence":0.8},"geometry":{"type":"Polygon","coordinates":[[[-72.71495,41.80665],[-72.70776,41.80697],[-72.70168,41.80709],[-72.69557,41.80728],[-72.69139,41.80757],[-72.69115,41.8056],[-72.69108,41.80499],[-72.69008,41.80084],[-72.68604,41.80017],[-72.68614,41.8029],[-72.66348,41.80653],[-72.66107,41.80708],[-72.65867,41.80732],[-72.65833,41.80587],[-72.66043,41.80619],[-72.66274,41.80563],[-72.66286,41.80149],[-72.66029,41.80141],[-72.65573,41.80599],[-72.65464,41.8061],[-72.64848,41.80609],[-72.64564,41.80583],[-72.64603,41.7976],[-72.64523,41.7913],[-72.64593,41.7859],[-72.65184,41.779],[-72.65794,41.7769],[-72.66416,41.77219],[-72.66491,41.76953],[-72.66511,41.76576],[-72.66134,41.7587],[-72.65594,41.7543],[-72.65416,41.75317],[-72.65399,41.75306],[-72.64904,41.7502],[-72.64464,41.7457],[-72.64254,41.7399],[-72.64264,41.7352],[-72.64784,41.7279],[-72.6556,41.72991],[-72.65871,41.72962],[-72.65931,41.72932],[-72.66743,41.72833],[-72.66824,41.72822],[-72.67376,41.72767],[-72.68038,41.72679],[-72.69149,41.72546],[-72.69184,41.72548],[-72.69354,41.72519],[-72.70484,41.7245],[-72.70594,41.7243],[-72.71023,41.72418],[-72.71414,41.72381],[-72.71456,41.72363],[-72.71489,41.72896],[-72.715,41.73136],[-72.71513,41.74221],[-72.71514,41.7426],[-72.71537,41.74435],[-72.71507,41.74608],[-72.71523,41.74775],[-72.71514,41.74974],[-72.7151,41.75006],[-72.71478,41.75643],[-72.71497,41.7575],[-72.71535,41.76016],[-72.71538,41.76049],[-72.71568,41.76251],[-72.71615,41.76562],[-72.71647,41.7708],[-72.71397,41.77715],[-72.7152,41.78716],[-72.71506,41.78814],[-72.7155,41.79158],[-72.71571,41.79381],[-72.71708,41.80103],[-72.71802,41.80219],[-72.71759,41.80662],[-72.71495,41.80665]]]}},{"type":"Feature","properties":{"name":"River Valley Transit Dial-A-Ride","boundary_type":"cousubs","source":"Census TIGER county subdivision","fidelity":"exact","updated":"2026-09","units":"Chester town; Clinton town; Deep River town; Durham town; Essex town; East Haddam town; East Hampton town; Haddam town; Killingworth town; Lyme town; Middlefield town; Middletown town; Old Lyme town; Old Saybrook town; Portland town; Westbrook town","note":"16-town Estuary Transit District dial-a-ride service; curb-to-curb, trips must start/end 3/4 mile beyond fixed RVT bus routes","confidence":0.95},"geometry":{"type":"Polygon","coordinates":[[[-72.50713,41.26015],[-72.50697,41.2569],[-72.51031,41.25661],[-72.51453,41.25853],[-72.51802,41.25776],[-72.52131,41.2656],[-72.5219,41.26552],[-72.52942,41.26442],[-72.53325,41.26269],[-72.53603,41.25753],[-72.53633,41.25481],[-72.54584,41.2603],[-72.54723,41.2625],[-72.54765,41.26432],[-72.54636,41.2674],[-72.54703,41.2716],[-72.54434,41.2737],[-72.54625,41.27598],[-72.54805,41.27741],[-72.54599,41.28033],[-72.54889,41.28185],[-72.55113,41.28058],[-72.55503,41.28061],[-72.55724,41.28199],[-72.55743,41.2837],[-72.56113,41.2875],[-72.56393,41.2887],[-72.56463,41.28952],[-72.56456,41.28986],[-72.56563,41.29239],[-72.56756,41.29417],[-72.57015,41.29442],[-72.57081,41.29578],[-72.56998,41.29665],[-72.57174,41.29756],[-72.5707,41.298],[-72.57345,41.29917],[-72.57595,41.30092],[-72.57634,41.30242],[-72.57987,41.304],[-72.58182,41.3039],[-72.58112,41.30493],[-72.5825,41.30639],[-72.5856,41.30735],[-72.58616,41.30915],[-72.58566,41.30985],[-72.58857,41.3117],[-72.58656,41.31294],[-72.58488,41.31293],[-72.58521,41.31423],[-72.58706,41.31371],[-72.58941,41.31513],[-72.58781,41.31605],[-72.58532,41.31862],[-72.58577,41.32298],[-72.58642,41.32422],[-72.58734,41.32433],[-72.58944,41.32266],[-72.5918,41.32278],[-72.59287,41.32406],[-72.59571,41.32803],[-72.59719,41.32853],[-72.60078,41.32581],[-72.60251,41.32598],[-72.60523,41.32761],[-72.60865,41.32818],[-72.61152,41.32751],[-72.61208,41.32922],[-72.61441,41.32997],[-72.61496,41.33359],[-72.6136,41.33622],[-72.6144,41.337],[-72.61269,41.34087],[-72.6127,41.34241],[-72.61121,41.34323],[-72.61139,41.3471],[-72.61283,41.35022],[-72.6116,41.35233],[-72.61265,41.35383],[-72.61256,41.3572],[-72.61223,41.36267],[-72.60975,41.36337],[-72.60935,41.36536],[-72.61014,41.36715],[-72.60813,41.3674],[-72.60924,41.37053],[-72.60884,41.37351],[-72.61152,41.3765],[-72.61401,41.38078],[-72.61384,41.3844],[-72.61233,41.38618],[-72.61603,41.38874],[-72.61801,41.39166],[-72.62246,41.39359],[-72.62591,41.39717],[-72.62503,41.39909],[-72.62628,41.40019],[-72.62902,41.40123],[-72.63083,41.40359],[-72.63059,41.40694],[-72.63227,41.40812],[-72.63232,41.41231],[-72.6378,41.41232],[-72.64163,41.41374],[-72.64507,41.4158],[-72.64687,41.41574],[-72.64741,41.41696],[-72.64921,41.41734],[-72.64974,41.41839],[-72.65048,41.41912],[-72.64879,41.422],[-72.64518,41.42581],[-72.64235,41.42932],[-72.64684,41.43115],[-72.64959,41.43101],[-72.64836,41.43515],[-72.65091,41.43503],[-72.65302,41.43491],[-72.65456,41.43626],[-72.65367,41.43812],[-72.66683,41.43569],[-72.67109,41.43536],[-72.67874,41.4338],[-72.68267,41.43378],[-72.69055,41.43257],[-72.70834,41.42944],[-72.71042,41.42907],[-72.72064,41.4274],[-72.73801,41.42467],[-72.74614,41.4233],[-72.74024,41.4365],[-72.73912,41.43829],[-72.73544,41.47327],[-72.7354,41.47356],[-72.73389,41.48537],[-72.74333,41.48311],[-72.74478,41.49818],[-72.74706,41.52729],[-72.7472,41.52807],[-72.74888,41.54428],[-72.74893,41.54567],[-72.74899,41.54631],[-72.74927,41.54749],[-72.74935,41.54976],[-72.75218,41.57889],[-72.75294,41.5925],[-72.74284,41.5944],[-72.73167,41.5958],[-72.72994,41.6015],[-72.72704,41.6024],[-72.71454,41.60431],[-72.71245,41.60242],[-72.70849,41.60378],[-72.70774,41.60266],[-72.70517,41.60325],[-72.69651,41.60034],[-72.6943,41.60142],[-72.68921,41.60077],[-72.68407,41.60186],[-72.68096,41.60049],[-72.68032,41.59737],[-72.67951,41.59713],[-72.6771,41.598],[-72.67434,41.5998],[-72.67181,41.59763],[-72.67319,41.59469],[-72.67036,41.59173],[-72.668,41.5919],[-72.66729,41.58924],[-72.66538,41.5871],[-72.6679,41.58625],[-72.6681,41.58355],[-72.66545,41.58188],[-72.66113,41.58026],[-72.66025,41.5787],[-72.65789,41.57896],[-72.65514,41.57745],[-72.65623,41.57608],[-72.6561,41.57339],[-72.65403,41.57229],[-72.65256,41.57302],[-72.65155,41.57311],[-72.6488,41.57524],[-72.64892,41.57592],[-72.64564,41.58235],[-72.64377,41.58411],[-72.64168,41.58779],[-72.64078,41.58986],[-72.63813,41.59402],[-72.63585,41.59605],[-72.63036,41.59917],[-72.62745,41.60081],[-72.62394,41.60184],[-72.62233,41.60235],[-72.61947,41.60424],[-72.61746,41.60771],[-72.61764,41.61194],[-72.61892,41.6141],[-72.62552,41.61933],[-72.63077,41.62766],[-72.63052,41.63328],[-72.60505,41.63598],[-72.57719,41.639],[-72.55993,41.64095],[-72.54423,41.6427],[-72.53458,41.64388],[-72.53213,41.644],[-72.52183,41.6455],[-72.50543,41.647],[-72.50487,41.64553],[-72.48184,41.60818],[-72.48154,41.60774],[-72.47692,41.59999],[-72.47434,41.59516],[-72.46904,41.58732],[-72.46673,41.5839],[-72.45185,41.55857],[-72.44906,41.55394],[-72.44874,41.55353],[-72.44794,41.55286],[-72.44655,41.55066],[-72.44685,41.55038],[-72.44395,41.54642],[-72.43267,41.52795],[-72.43077,41.52457],[-72.38306,41.529],[-72.3813,41.52923],[-72.37453,41.52991],[-72.36163,41.53082],[-72.35858,41.53144],[-72.34498,41.53246],[-72.34457,41.53242],[-72.32339,41.53425],[-72.32293,41.51812],[-72.32185,41.51222],[-72.31525,41.47809],[-72.31254,41.47841],[-72.30553,41.43628],[-72.30487,41.43273],[-72.28658,41.43907],[-72.27664,41.44045],[-72.2776,41.43338],[-72.27854,41.42963],[-72.27906,41.42606],[-72.2791,41.42181],[-72.27995,41.4186],[-72.28045,41.41447],[-72.281,41.41286],[-72.28128,41.4112],[-72.28215,41.4059],[-72.28003,41.39168],[-72.27925,41.38821],[-72.27791,41.37631],[-72.27794,41.37528],[-72.27672,41.3663],[-72.2745,41.35609],[-72.27072,41.35045],[-72.26631,41.34221],[-72.26509,41.33927],[-72.26133,41.334],[-72.25931,41.32969],[-72.2564,41.3259],[-72.25721,41.32424],[-72.25796,41.32362],[-72.25804,41.32284],[-72.25603,41.31559],[-72.25474,41.31253],[-72.25482,41.31031],[-72.25414,41.30979],[-72.25328,41.30953],[-72.25062,41.30472],[-72.24881,41.29934],[-72.25189,41.29862],[-72.25051,41.29439],[-72.25126,41.29034],[-72.25132,41.29],[-72.26149,41.28293],[-72.2688,41.28443],[-72.27798,41.28406],[-72.28019,41.28299],[-72.28469,41.2808],[-72.2988,41.27892],[-72.31776,41.27778],[-72.32759,41.27846],[-72.32929,41.27966],[-72.33389,41.28292],[-72.34171,41.29639],[-72.34646,41.31121],[-72.34904,41.31156],[-72.3505,41.31175],[-72.35621,41.29961],[-72.35621,41.29938],[-72.35645,41.29122],[-72.34932,41.28461],[-72.34774,41.2809],[-72.34567,41.27604],[-72.34551,41.27568],[-72.34397,41.27205],[-72.34261,41.26885],[-72.3481,41.27014],[-72.35906,41.26811],[-72.35998,41.26762],[-72.36401,41.26546],[-72.36762,41.26353],[-72.37857,41.26457],[-72.38663,41.2618],[-72.38897,41.26498],[-72.39457,41.27258],[-72.39815,41.27745],[-72.39869,41.27817],[-72.40572,41.2768],[-72.41666,41.27829],[-72.4177,41.27844],[-72.42168,41.27507],[-72.42616,41.27413],[-72.4311,41.27606],[-72.43797,41.27874],[-72.45192,41.27889],[-72.46226,41.27448],[-72.4681,41.26901],[-72.47102,41.26973],[-72.47194,41.26996],[-72.47254,41.2701],[-72.48569,41.27088],[-72.48623,41.27069],[-72.49953,41.26587],[-72.50713,41.26015]]]}},{"type":"Feature","properties":{"name":"River Valley Transit Microtransit","boundary_type":"cousubs","source":"Census TIGER county subdivision","fidelity":"approximate","updated":"2026-09","units":"Madison town; Guilford town; East Hampton town; Middletown town","note":"Service covers Madison and Guilford fully, portions of East Hampton and Middletown, part of CTDOT statewide pilot","confidence":0.85},"geometry":{"type":"MultiPolygon","coordinates":[[[[-72.74274,41.403],[-72.7408,41.40434],[-72.73282,41.412],[-72.73131,41.41419],[-72.7282,41.41764],[-72.72337,41.41914],[-72.72216,41.42292],[-72.72145,41.42372],[-72.72064,41.4274],[-72.71042,41.42907],[-72.70834,41.42944],[-72.69055,41.43257],[-72.68267,41.43378],[-72.67874,41.4338],[-72.67109,41.43536],[-72.66683,41.43569],[-72.65367,41.43812],[-72.65456,41.43626],[-72.65302,41.43491],[-72.65091,41.43503],[-72.64836,41.43515],[-72.64959,41.43101],[-72.64684,41.43115],[-72.64235,41.42932],[-72.64518,41.42581],[-72.64879,41.422],[-72.65048,41.41912],[-72.64974,41.41839],[-72.64921,41.41734],[-72.64741,41.41696],[-72.64687,41.41574],[-72.64507,41.4158],[-72.64163,41.41374],[-72.6378,41.41232],[-72.63232,41.41231],[-72.63227,41.40812],[-72.63059,41.40694],[-72.63083,41.40359],[-72.62902,41.40123],[-72.62628,41.40019],[-72.62503,41.39909],[-72.62591,41.39717],[-72.62246,41.39359],[-72.61801,41.39166],[-72.61603,41.38874],[-72.61233,41.38618],[-72.61384,41.3844],[-72.61401,41.38078],[-72.61152,41.3765],[-72.60884,41.37351],[-72.60924,41.37053],[-72.60813,41.3674],[-72.61014,41.36715],[-72.60935,41.36536],[-72.60975,41.36337],[-72.61223,41.36267],[-72.61256,41.3572],[-72.61265,41.35383],[-72.6116,41.35233],[-72.61283,41.35022],[-72.61139,41.3471],[-72.61121,41.34323],[-72.6127,41.34241],[-72.61269,41.34087],[-72.6144,41.337],[-72.6136,41.33622],[-72.61496,41.33359],[-72.61441,41.32997],[-72.61208,41.32922],[-72.61152,41.32751],[-72.60865,41.32818],[-72.60523,41.32761],[-72.60251,41.32598],[-72.60078,41.32581],[-72.59719,41.32853],[-72.59571,41.32803],[-72.59287,41.32406],[-72.5918,41.32278],[-72.58944,41.32266],[-72.58734,41.32433],[-72.58642,41.32422],[-72.58577,41.32298],[-72.58532,41.31862],[-72.58781,41.31605],[-72.58941,41.31513],[-72.58706,41.31371],[-72.58521,41.31423],[-72.58488,41.31293],[-72.58656,41.31294],[-72.58857,41.3117],[-72.58566,41.30985],[-72.58616,41.30915],[-72.5856,41.30735],[-72.5825,41.30639],[-72.58112,41.30493],[-72.58182,41.3039],[-72.57987,41.304],[-72.57634,41.30242],[-72.57595,41.30092],[-72.57345,41.29917],[-72.5707,41.298],[-72.57174,41.29756],[-72.56998,41.29665],[-72.57081,41.29578],[-72.57015,41.29442],[-72.56756,41.29417],[-72.56563,41.29239],[-72.56456,41.28986],[-72.56463,41.28952],[-72.56393,41.2887],[-72.56113,41.2875],[-72.55743,41.2837],[-72.55724,41.28199],[-72.55503,41.28061],[-72.55113,41.28058],[-72.54889,41.28185],[-72.54599,41.28033],[-72.54805,41.27741],[-72.54625,41.27598],[-72.54434,41.2737],[-72.54703,41.2716],[-72.54636,41.2674],[-72.54765,41.26432],[-72.54723,41.2625],[-72.54584,41.2603],[-72.53633,41.25481],[-72.53676,41.2509],[-72.54394,41.2487],[-72.54692,41.25083],[-72.5706,41.26772],[-72.57108,41.26805],[-72.57114,41.2681],[-72.58334,41.2717],[-72.58517,41.27132],[-72.59097,41.27014],[-72.59804,41.2687],[-72.60119,41.26952],[-72.60408,41.27077],[-72.60781,41.27045],[-72.60796,41.27043],[-72.61036,41.27084],[-72.61724,41.272],[-72.61752,41.27194],[-72.61921,41.27159],[-72.63136,41.26909],[-72.64154,41.267],[-72.65384,41.2659],[-72.65453,41.26576],[-72.65842,41.26501],[-72.66103,41.26853],[-72.66218,41.26893],[-72.66567,41.27014],[-72.66816,41.26679],[-72.66882,41.26591],[-72.67322,41.26762],[-72.67482,41.26609],[-72.67964,41.2615],[-72.67705,41.25827],[-72.67748,41.25477],[-72.68411,41.25839],[-72.68507,41.25803],[-72.68525,41.25546],[-72.68554,41.2513],[-72.69024,41.24689],[-72.69044,41.2467],[-72.69344,41.24549],[-72.69474,41.24497],[-72.69908,41.24709],[-72.70614,41.24385],[-72.70897,41.24459],[-72.70922,41.24717],[-72.7124,41.24708],[-72.71324,41.2488],[-72.70262,41.25592],[-72.70579,41.25991],[-72.71726,41.25586],[-72.71857,41.25615],[-72.71886,41.25688],[-72.71539,41.25896],[-72.71479,41.26136],[-72.71738,41.26291],[-72.72267,41.25926],[-72.72569,41.25978],[-72.72695,41.2583],[-72.72928,41.2583],[-72.73244,41.25512],[-72.73704,41.25734],[-72.73531,41.26103],[-72.73674,41.26139],[-72.73496,41.26263],[-72.73218,41.26263],[-72.73225,41.26557],[-72.72805,41.26799],[-72.72847,41.26913],[-72.73582,41.28407],[-72.73813,41.28629],[-72.74199,41.29707],[-72.74669,41.30804],[-72.74611,41.31063],[-72.74572,41.3115],[-72.74268,41.32086],[-72.74145,41.32369],[-72.74213,41.33456],[-72.74362,41.34468],[-72.7436,41.34665],[-72.74545,41.36705],[-72.74591,41.37223],[-72.74682,41.38256],[-72.7493,41.39809],[-72.74597,41.3969],[-72.74464,41.39963],[-72.74274,41.403]]],[[[-72.72994,41.6015],[-72.72704,41.6024],[-72.71454,41.60431],[-72.71245,41.60242],[-72.70849,41.60378],[-72.70774,41.60266],[-72.70517,41.60325],[-72.69651,41.60034],[-72.6943,41.60142],[-72.68921,41.60077],[-72.68407,41.60186],[-72.68096,41.60049],[-72.68032,41.59737],[-72.67951,41.59713],[-72.6771,41.598],[-72.67434,41.5998],[-72.67181,41.59763],[-72.67319,41.59469],[-72.67036,41.59173],[-72.668,41.5919],[-72.66729,41.58924],[-72.66538,41.5871],[-72.6679,41.58625],[-72.6681,41.58355],[-72.66545,41.58188],[-72.66113,41.58026],[-72.66025,41.5787],[-72.65789,41.57896],[-72.65514,41.57745],[-72.65623,41.57608],[-72.6561,41.57339],[-72.65403,41.57229],[-72.65256,41.57302],[-72.65155,41.57311],[-72.6488,41.57524],[-72.64844,41.56922],[-72.64845,41.56784],[-72.64569,41.56412],[-72.6443,41.56291],[-72.64131,41.56136],[-72.63868,41.56039],[-72.63426,41.56066],[-72.62892,41.56098],[-72.62454,41.56101],[-72.62385,41.56056],[-72.61402,41.56213],[-72.6099,41.56284],[-72.60809,41.56276],[-72.60315,41.56049],[-72.59931,41.55936],[-72.59521,41.55809],[-72.59263,41.55781],[-72.5887,41.55821],[-72.57985,41.55794],[-72.57646,41.5576],[-72.57347,41.5571],[-72.56573,41.55485],[-72.5608,41.55405],[-72.56277,41.55843],[-72.56203,41.55944],[-72.56084,41.56047],[-72.55952,41.56235],[-72.55921,41.56644],[-72.5584,41.56892],[-72.55767,41.57804],[-72.55409,41.58152],[-72.55041,41.58646],[-72.5496,41.58802],[-72.54655,41.59216],[-72.54353,41.59551],[-72.54294,41.59706],[-72.54191,41.60181],[-72.5408,41.60536],[-72.54449,41.61582],[-72.52929,41.61743],[-72.53123,41.62111],[-72.54423,41.6427],[-72.53458,41.64388],[-72.53213,41.644],[-72.52183,41.6455],[-72.50543,41.647],[-72.50487,41.64553],[-72.48184,41.60818],[-72.48154,41.60774],[-72.47692,41.59999],[-72.47434,41.59516],[-72.46904,41.58732],[-72.46673,41.5839],[-72.45185,41.55857],[-72.44906,41.55394],[-72.44874,41.55353],[-72.44794,41.55286],[-72.44655,41.55066],[-72.44685,41.55038],[-72.44395,41.54642],[-72.43267,41.52795],[-72.43077,41.52457],[-72.44851,41.52257],[-72.44955,41.52253],[-72.45419,41.52976],[-72.4554,41.53102],[-72.45866,41.53682],[-72.45884,41.53958],[-72.4597,41.54002],[-72.45931,41.53916],[-72.46169,41.53541],[-72.46356,41.53352],[-72.46593,41.53268],[-72.46862,41.53108],[-72.46974,41.52965],[-72.47553,41.52425],[-72.47944,41.52184],[-72.48037,41.51946],[-72.48505,41.51873],[-72.552,41.51123],[-72.55258,41.51141],[-72.55491,41.51105],[-72.56354,41.51012],[-72.58772,41.50651],[-72.58933,41.5063],[-72.6337,41.5002],[-72.64832,41.49842],[-72.67759,41.49484],[-72.6779,41.49623],[-72.67905,41.50799],[-72.68046,41.51471],[-72.68031,41.5162],[-72.68127,41.51687],[-72.68086,41.52271],[-72.68257,41.53109],[-72.68736,41.53616],[-72.68809,41.53703],[-72.6882,41.53863],[-72.69022,41.54202],[-72.69132,41.54396],[-72.69434,41.5492],[-72.7009,41.54903],[-72.71133,41.54789],[-72.71227,41.54861],[-72.72262,41.54796],[-72.73358,41.54616],[-72.73486,41.54433],[-72.74253,41.54407],[-72.74888,41.54428],[-72.74893,41.54567],[-72.74899,41.54631],[-72.74927,41.54749],[-72.74935,41.54976],[-72.75218,41.57889],[-72.75294,41.5925],[-72.74284,41.5944],[-72.73167,41.5958],[-72.72994,41.6015]]]]}},{"type":"Feature","properties":{"name":"Southington Microtransit","boundary_type":"cousub","source":"Census TIGER county subdivision","fidelity":"exact","updated":"2026-09","units":"Southington town","note":"Town of Southington; local microtransit pilot","confidence":0.95},"geometry":{"type":"Polygon","coordinates":[[[-72.94468,41.56286],[-72.94261,41.57113],[-72.93805,41.5906],[-72.93376,41.60711],[-72.93364,41.60779],[-72.93521,41.61942],[-72.93815,41.6403],[-72.9385,41.64431],[-72.9286,41.64545],[-72.92778,41.64073],[-72.92195,41.64114],[-72.92391,41.64549],[-72.91012,41.64711],[-72.90301,41.64749],[-72.88339,41.64947],[-72.87292,41.65049],[-72.87059,41.65069],[-72.86621,41.65109],[-72.85505,41.65246],[-72.84677,41.65341],[-72.82257,41.65571],[-72.82074,41.65571],[-72.81944,41.64558],[-72.81918,41.645],[-72.81432,41.6457],[-72.81419,41.64571],[-72.82333,41.63361],[-72.82524,41.62985],[-72.82525,41.62767],[-72.81799,41.62759],[-72.82225,41.62159],[-72.82023,41.62115],[-72.82056,41.6193],[-72.82281,41.61762],[-72.81936,41.6156],[-72.81893,41.61198],[-72.81833,41.60687],[-72.8202,41.6069],[-72.82346,41.60433],[-72.82408,41.59701],[-72.82646,41.58686],[-72.83387,41.58324],[-72.83653,41.58053],[-72.84024,41.5691],[-72.84854,41.56733],[-72.846,41.55485],[-72.84573,41.55335],[-72.84515,41.54741],[-72.84428,41.54472],[-72.85174,41.54597],[-72.85315,41.54641],[-72.86781,41.54903],[-72.86823,41.55224],[-72.86951,41.55453],[-72.87192,41.55487],[-72.87396,41.55915],[-72.87979,41.56275],[-72.87926,41.56315],[-72.88388,41.56381],[-72.89007,41.5632],[-72.90321,41.56175],[-72.90347,41.56171],[-72.91565,41.5604],[-72.9264,41.55892],[-72.92854,41.55889],[-72.94635,41.5568],[-72.9451,41.55969],[-72.94468,41.56286]]]}},{"type":"Feature","properties":{"name":"StamFORWARD (Stamford)","boundary_type":"city","source":"Census TIGER place","fidelity":"exact","updated":"2026-09","units":"Stamford city","note":"City of Stamford, launched November 2024, part of CTDOT statewide pilot","confidence":0.95},"geometry":{"type":"Polygon","coordinates":[[[-73.63215,41.14492],[-73.62881,41.14642],[-73.61446,41.15288],[-73.59707,41.16071],[-73.58745,41.16504],[-73.58617,41.16561],[-73.57915,41.16877],[-73.56494,41.17517],[-73.56476,41.17525],[-73.55465,41.17993],[-73.5536,41.1792],[-73.55226,41.17608],[-73.55305,41.17417],[-73.54375,41.16366],[-73.54199,41.16313],[-73.54002,41.16007],[-73.53872,41.16005],[-73.53578,41.15779],[-73.53487,41.15572],[-73.53233,41.15439],[-73.53305,41.15197],[-73.53421,41.15163],[-73.53413,41.15024],[-73.53406,41.14982],[-73.53324,41.14778],[-73.5225,41.11889],[-73.52206,41.11727],[-73.52195,41.11507],[-73.50825,41.1143],[-73.50784,41.1142],[-73.50076,41.11441],[-73.5068,41.10953],[-73.50808,41.11002],[-73.51147,41.10723],[-73.5114,41.10565],[-73.50944,41.10481],[-73.50977,41.10295],[-73.51049,41.10213],[-73.51443,41.09528],[-73.51496,41.09416],[-73.51459,41.0927],[-73.51523,41.08897],[-73.5145,41.08828],[-73.51697,41.08117],[-73.51801,41.07998],[-73.51558,41.07538],[-73.51463,41.07477],[-73.51399,41.07325],[-73.51134,41.07268],[-73.51094,41.07217],[-73.51065,41.07102],[-73.51,41.07041],[-73.50989,41.06871],[-73.50995,41.0668],[-73.50847,41.06283],[-73.50814,41.06208],[-73.50733,41.06092],[-73.50632,41.05888],[-73.50248,41.05598],[-73.49787,41.04939],[-73.49586,41.04865],[-73.49576,41.04768],[-73.50058,41.04672],[-73.50106,41.04489],[-73.50597,41.0428],[-73.50796,41.0385],[-73.51728,41.03989],[-73.5212,41.03779],[-73.52228,41.03721],[-73.52329,41.03666],[-73.52285,41.03566],[-73.52115,41.03182],[-73.52005,41.03164],[-73.5185,41.03138],[-73.51701,41.03005],[-73.51826,41.02896],[-73.51924,41.02431],[-73.52306,41.02005],[-73.52417,41.02017],[-73.52439,41.02019],[-73.52697,41.01972],[-73.52703,41.01964],[-73.52908,41.01707],[-73.52925,41.0171],[-73.53035,41.01728],[-73.53121,41.02245],[-73.53019,41.02878],[-73.53279,41.03167],[-73.53441,41.03183],[-73.53534,41.03192],[-73.53667,41.03107],[-73.53693,41.0309],[-73.53881,41.0297],[-73.5399,41.029],[-73.54484,41.02584],[-73.54744,41.02288],[-73.55149,41.02434],[-73.55287,41.02335],[-73.55515,41.02515],[-73.55569,41.02843],[-73.56009,41.03509],[-73.56315,41.04023],[-73.56444,41.04492],[-73.565,41.04674],[-73.56533,41.04855],[-73.56644,41.05273],[-73.5672,41.05449],[-73.56795,41.05901],[-73.56834,41.05947],[-73.57262,41.06516],[-73.57736,41.07147],[-73.59245,41.09061],[-73.59647,41.0954],[-73.59916,41.09902],[-73.60635,41.10843],[-73.60705,41.10961],[-73.61378,41.11765],[-73.61759,41.12275],[-73.62137,41.12749],[-73.62643,41.13461],[-73.63245,41.14242],[-73.63398,41.14409],[-73.63215,41.14492]]]}},{"type":"Feature","properties":{"name":"Stonington HOP","boundary_type":"cousub","source":"Census TIGER county subdivision","fidelity":"exact","updated":"2026-09","units":"Stonington town","note":"Stonington town; Mystic is a village/area within Stonington","confidence":0.9},"geometry":{"type":"Polygon","coordinates":[[[-71.97612,41.333],[-71.97506,41.33715],[-71.97326,41.34032],[-71.96913,41.34519],[-71.97019,41.34899],[-71.97112,41.35137],[-71.96873,41.35473],[-71.96707,41.35806],[-71.96763,41.36179],[-71.96692,41.36567],[-71.96732,41.36974],[-71.96603,41.373],[-71.96453,41.37506],[-71.96353,41.37911],[-71.96422,41.38259],[-71.96122,41.38678],[-71.95863,41.38811],[-71.96029,41.38944],[-71.96084,41.3947],[-71.95868,41.39786],[-71.96129,41.3979],[-71.96267,41.39947],[-71.96296,41.40039],[-71.96204,41.40132],[-71.96367,41.40702],[-71.96299,41.40929],[-71.96282,41.41145],[-71.96101,41.41252],[-71.95827,41.41274],[-71.95687,41.41384],[-71.95646,41.41566],[-71.95356,41.41857],[-71.95339,41.42028],[-71.95077,41.42452],[-71.94729,41.42687],[-71.94324,41.42907],[-71.94283,41.43027],[-71.94327,41.43365],[-71.89354,41.42073],[-71.86903,41.41437],[-71.85551,41.41156],[-71.84478,41.40884],[-71.84282,41.40873],[-71.84347,41.40583],[-71.84326,41.40446],[-71.84173,41.40324],[-71.84115,41.39923],[-71.84224,41.39688],[-71.84213,41.39536],[-71.84106,41.39407],[-71.83863,41.39115],[-71.83817,41.39059],[-71.8352,41.38956],[-71.83265,41.38716],[-71.833,41.38527],[-71.83353,41.38237],[-71.83164,41.38002],[-71.83064,41.37877],[-71.83131,41.37772],[-71.83267,41.37562],[-71.83208,41.37296],[-71.83161,41.3709],[-71.83201,41.37024],[-71.83211,41.37008],[-71.8325,41.36944],[-71.83495,41.36756],[-71.83559,41.36707],[-71.83763,41.3655],[-71.83771,41.36371],[-71.83773,41.3633],[-71.83787,41.36015],[-71.83677,41.3551],[-71.8357,41.35357],[-71.8313,41.35129],[-71.8299,41.34664],[-71.82938,41.34241],[-71.83062,41.34125],[-71.83616,41.33601],[-71.84467,41.33058],[-71.84771,41.3296],[-71.85192,41.32466],[-71.85746,41.32079],[-71.86051,41.32025],[-71.85957,41.3224],[-71.86873,41.32782],[-71.87752,41.33602],[-71.88238,41.33624],[-71.8863,41.33641],[-71.89266,41.33327],[-71.89366,41.33332],[-71.89796,41.33353],[-71.90465,41.32735],[-71.90909,41.32751],[-71.92121,41.32793],[-71.92763,41.33229],[-71.93266,41.33335],[-71.93628,41.33796],[-71.93756,41.33794],[-71.94565,41.3378],[-71.95413,41.32791],[-71.96244,41.32153],[-71.96927,41.32103],[-71.97945,41.32999],[-71.98028,41.32995],[-71.97992,41.3304],[-71.97612,41.333]]]}},{"type":"Feature","properties":{"name":"Tri-Town Connector","boundary_type":"cousubs","source":"Census TIGER county subdivision","fidelity":"exact","updated":"2026-09","units":"East Windsor town; Windsor Locks town; Somers town","note":"Three-town northern CT service connecting to Bradley Airport transit hub","confidence":0.9},"geometry":{"type":"MultiPolygon","coordinates":[[[[-72.60693,41.9361],[-72.57737,41.93866],[-72.55989,41.94033],[-72.548,41.9418],[-72.53861,41.94303],[-72.52618,41.94436],[-72.52341,41.94458],[-72.51333,41.9454],[-72.51413,41.93256],[-72.51463,41.91663],[-72.51523,41.89947],[-72.51692,41.87364],[-72.51733,41.8699],[-72.54788,41.86928],[-72.57149,41.86878],[-72.58256,41.86833],[-72.58799,41.86831],[-72.6056,41.86804],[-72.6166,41.8686],[-72.61926,41.8683],[-72.6194,41.87652],[-72.61969,41.88284],[-72.62045,41.88714],[-72.62044,41.8904],[-72.62133,41.89217],[-72.62068,41.89771],[-72.62173,41.9046],[-72.62504,41.90428],[-72.63543,41.90331],[-72.63983,41.8976],[-72.64015,41.89786],[-72.64193,41.8992],[-72.64275,41.9001],[-72.65252,41.90453],[-72.65434,41.90514],[-72.66205,41.9079],[-72.66398,41.90892],[-72.67433,41.916],[-72.67738,41.91711],[-72.68614,41.9181],[-72.69322,41.92009],[-72.69486,41.92113],[-72.69591,41.92243],[-72.69351,41.92878],[-72.69343,41.92959],[-72.68819,41.9462],[-72.68764,41.9481],[-72.68219,41.94777],[-72.67155,41.947],[-72.66977,41.94689],[-72.65951,41.94631],[-72.65174,41.94608],[-72.63768,41.94472],[-72.62892,41.94418],[-72.61744,41.94355],[-72.61678,41.94356],[-72.61395,41.94354],[-72.62343,41.9343],[-72.60776,41.93589],[-72.60693,41.9361]]],[[[-72.45829,42.03401],[-72.45668,42.034],[-72.44149,42.03377],[-72.39743,42.03311],[-72.40449,41.9798],[-72.40442,41.97907],[-72.40675,41.95716],[-72.41212,41.95688],[-72.43006,41.955],[-72.44733,41.95311],[-72.45797,41.95178],[-72.48235,41.94899],[-72.49049,41.94768],[-72.49188,41.94755],[-72.49273,41.9475],[-72.49893,41.97789],[-72.49941,41.98159],[-72.49972,41.98422],[-72.5039,42.00648],[-72.50539,42.01357],[-72.50593,42.01648],[-72.50864,42.03114],[-72.5092,42.03422],[-72.46012,42.03401],[-72.45969,42.03401],[-72.45829,42.03401]]]]}},{"type":"Feature","properties":{"name":"Via NHV","boundary_type":"cousub","source":"Census TIGER county subdivision","fidelity":"exact","updated":"2026-09","units":"New Haven town","note":"App-based microtransit serving downtown and outlying urban neighborhoods; connects to Union Station rail","confidence":0.95},"geometry":{"type":"Polygon","coordinates":[[[-72.99639,41.32375],[-72.98894,41.32889],[-72.98874,41.33019],[-72.9873,41.33124],[-72.98501,41.33302],[-72.98331,41.33731],[-72.98047,41.33875],[-72.97725,41.33999],[-72.97407,41.34159],[-72.97019,41.3429],[-72.97291,41.3474],[-72.96783,41.34791],[-72.96767,41.34728],[-72.96684,41.34544],[-72.96446,41.34379],[-72.96419,41.34642],[-72.96206,41.3463],[-72.96125,41.34901],[-72.95864,41.34908],[-72.95774,41.35039],[-72.95533,41.35024],[-72.95467,41.35016],[-72.95281,41.34908],[-72.95353,41.34728],[-72.95148,41.34711],[-72.95136,41.34395],[-72.95518,41.34235],[-72.95699,41.33985],[-72.95275,41.33723],[-72.94685,41.3366],[-72.94311,41.33627],[-72.94055,41.33585],[-72.93791,41.33566],[-72.93519,41.33547],[-72.93044,41.3349],[-72.92698,41.33459],[-72.9249,41.33449],[-72.91996,41.33415],[-72.91323,41.33359],[-72.91253,41.33319],[-72.90853,41.33085],[-72.90254,41.3272],[-72.89775,41.3281],[-72.89331,41.3289],[-72.89169,41.32847],[-72.89264,41.3303],[-72.88884,41.3326],[-72.87918,41.33409],[-72.87617,41.33401],[-72.86994,41.33477],[-72.8662,41.33601],[-72.86031,41.33664],[-72.86258,41.33157],[-72.86757,41.32043],[-72.86773,41.31975],[-72.8697,41.31531],[-72.87074,41.31286],[-72.87243,41.30879],[-72.87364,41.30685],[-72.87629,41.30356],[-72.87754,41.30093],[-72.88026,41.29734],[-72.88252,41.29323],[-72.88643,41.28811],[-72.88771,41.28571],[-72.88756,41.28472],[-72.88743,41.28231],[-72.88737,41.27606],[-72.88729,41.27429],[-72.88711,41.25515],[-72.88687,41.25428],[-72.88948,41.251],[-72.89105,41.25119],[-72.89692,41.24849],[-72.8992,41.2487],[-72.90033,41.24676],[-72.90343,41.24818],[-72.90412,41.24955],[-72.90375,41.2514],[-72.90273,41.25292],[-72.8987,41.2552],[-72.89757,41.25557],[-72.89467,41.25652],[-72.89384,41.2599],[-72.89619,41.26366],[-72.89637,41.26395],[-72.8975,41.26576],[-72.90536,41.27063],[-72.90502,41.27164],[-72.90355,41.27605],[-72.9031,41.27739],[-72.90595,41.2827],[-72.90619,41.28316],[-72.90643,41.29218],[-72.90734,41.29525],[-72.90762,41.2962],[-72.91309,41.29674],[-72.92188,41.28933],[-72.92394,41.28552],[-72.92675,41.28326],[-72.92881,41.2816],[-72.92958,41.28098],[-72.92965,41.28092],[-72.93253,41.28032],[-72.93291,41.2805],[-72.93269,41.28185],[-72.93314,41.2821],[-72.93759,41.28204],[-72.93811,41.28193],[-72.93859,41.28113],[-72.93893,41.28144],[-72.9399,41.2835],[-72.94074,41.28599],[-72.94021,41.28778],[-72.94293,41.28901],[-72.9437,41.28986],[-72.94651,41.29289],[-72.94792,41.29206],[-72.952,41.29447],[-72.94987,41.29619],[-72.95108,41.29726],[-72.95264,41.29944],[-72.9563,41.30161],[-72.95685,41.30309],[-72.95597,41.30514],[-72.95743,41.30665],[-72.9563,41.31046],[-72.95815,41.3107],[-72.96371,41.3109],[-72.97018,41.31161],[-72.97249,41.31195],[-72.98915,41.3133],[-72.99805,41.3141],[-72.99711,41.32219],[-72.99639,41.32375]]]}},{"type":"Feature","properties":{"name":"Via NHV (New Haven)","boundary_type":"city","source":"Census TIGER place","fidelity":"exact","updated":"2026-09","units":"New Haven city","note":"City of New Haven, part of CTDOT statewide pilot","confidence":0.95},"geometry":{"type":"Polygon","coordinates":[[[-72.99639,41.32375],[-72.98894,41.32889],[-72.98874,41.33019],[-72.9873,41.33124],[-72.98501,41.33302],[-72.98331,41.33731],[-72.98047,41.33875],[-72.97725,41.33999],[-72.97407,41.34159],[-72.97019,41.3429],[-72.97291,41.3474],[-72.96783,41.34791],[-72.96767,41.34728],[-72.96684,41.34544],[-72.96446,41.34379],[-72.96419,41.34642],[-72.96206,41.3463],[-72.96125,41.34901],[-72.95864,41.34908],[-72.95774,41.35039],[-72.95533,41.35024],[-72.95467,41.35016],[-72.95281,41.34908],[-72.95353,41.34728],[-72.95148,41.34711],[-72.95136,41.34395],[-72.95518,41.34235],[-72.95699,41.33985],[-72.95275,41.33723],[-72.94685,41.3366],[-72.94311,41.33627],[-72.94055,41.33585],[-72.93791,41.33566],[-72.93519,41.33547],[-72.93044,41.3349],[-72.92698,41.33459],[-72.9249,41.33449],[-72.91996,41.33415],[-72.91323,41.33359],[-72.91253,41.33319],[-72.90853,41.33085],[-72.90254,41.3272],[-72.89775,41.3281],[-72.89331,41.3289],[-72.89169,41.32847],[-72.89264,41.3303],[-72.88884,41.3326],[-72.87918,41.33409],[-72.87617,41.33401],[-72.86994,41.33477],[-72.8662,41.33601],[-72.86031,41.33664],[-72.86258,41.33157],[-72.86757,41.32043],[-72.86773,41.31975],[-72.8697,41.31531],[-72.87074,41.31286],[-72.87243,41.30879],[-72.87364,41.30685],[-72.87629,41.30356],[-72.87754,41.30093],[-72.88026,41.29734],[-72.88252,41.29323],[-72.88643,41.28811],[-72.88771,41.28571],[-72.88756,41.28472],[-72.88743,41.28231],[-72.88737,41.27606],[-72.88729,41.27429],[-72.88711,41.25515],[-72.88687,41.25428],[-72.88948,41.251],[-72.89105,41.25119],[-72.89692,41.24849],[-72.8992,41.2487],[-72.90033,41.24676],[-72.90343,41.24818],[-72.90412,41.24955],[-72.90375,41.2514],[-72.90273,41.25292],[-72.8987,41.2552],[-72.89757,41.25557],[-72.89467,41.25652],[-72.89384,41.2599],[-72.89619,41.26366],[-72.89637,41.26395],[-72.8975,41.26576],[-72.90536,41.27063],[-72.90502,41.27164],[-72.90355,41.27605],[-72.9031,41.27739],[-72.90595,41.2827],[-72.90619,41.28316],[-72.90643,41.29218],[-72.90734,41.29525],[-72.90762,41.2962],[-72.91309,41.29674],[-72.92188,41.28933],[-72.92394,41.28552],[-72.92675,41.28326],[-72.92881,41.2816],[-72.92958,41.28098],[-72.92965,41.28092],[-72.93253,41.28032],[-72.93291,41.2805],[-72.93269,41.28185],[-72.93314,41.2821],[-72.93759,41.28204],[-72.93811,41.28193],[-72.93859,41.28113],[-72.93893,41.28144],[-72.9399,41.2835],[-72.94074,41.28599],[-72.94021,41.28778],[-72.94293,41.28901],[-72.9437,41.28986],[-72.94651,41.29289],[-72.94792,41.29206],[-72.952,41.29447],[-72.94987,41.29619],[-72.95108,41.29726],[-72.95264,41.29944],[-72.9563,41.30161],[-72.95685,41.30309],[-72.95597,41.30514],[-72.95743,41.30665],[-72.9563,41.31046],[-72.95815,41.3107],[-72.96371,41.3109],[-72.97018,41.31161],[-72.97249,41.31195],[-72.98915,41.3133],[-72.99805,41.3141],[-72.99711,41.32219],[-72.99639,41.32375]]]}},{"type":"Feature","properties":{"name":"VTD2GO","boundary_type":"cousubs","source":"Census TIGER county subdivision","fidelity":"exact","updated":"2026-09","units":"Ansonia town; Derby town; Shelton town","note":"Late-day microtransit connecting three towns to Metro-North train lines; replaces evening fixed routes","confidence":0.95},"geometry":{"type":"Polygon","coordinates":[[[-73.1893,41.32043],[-73.18816,41.32193],[-73.18472,41.3265],[-73.18061,41.33297],[-73.17888,41.33474],[-73.17681,41.33759],[-73.17066,41.35793],[-73.17058,41.3579],[-73.15944,41.37291],[-73.15965,41.3749],[-73.15705,41.3767],[-73.15095,41.3702],[-73.14755,41.3677],[-73.13957,41.36121],[-73.13815,41.3539],[-73.13605,41.3512],[-73.12615,41.3466],[-73.12465,41.3453],[-73.12403,41.34557],[-73.11935,41.34757],[-73.11199,41.34976],[-73.10235,41.3529],[-73.10054,41.35402],[-73.09481,41.36069],[-73.09275,41.36074],[-73.09117,41.36054],[-73.08842,41.36168],[-73.08586,41.36294],[-73.08066,41.36289],[-73.07388,41.36119],[-73.07225,41.36062],[-73.06491,41.36029],[-73.04993,41.36021],[-73.04716,41.36053],[-73.04644,41.35209],[-73.04633,41.34608],[-73.04372,41.34232],[-73.04294,41.33882],[-73.04188,41.33758],[-73.03998,41.33236],[-73.03893,41.32801],[-73.03914,41.32665],[-73.04042,41.31854],[-73.04071,41.31389],[-73.04911,41.3113],[-73.0532,41.31114],[-73.05463,41.31157],[-73.05615,41.31197],[-73.05719,41.31217],[-73.05792,41.31206],[-73.06175,41.31008],[-73.06545,41.30483],[-73.06641,41.30295],[-73.06785,41.301],[-73.06505,41.2976],[-73.06525,41.2949],[-73.06875,41.2892],[-73.07125,41.2873],[-73.07545,41.28575],[-73.07885,41.2845],[-73.08153,41.28286],[-73.08375,41.2815],[-73.08685,41.2766],[-73.08865,41.2717],[-73.08775,41.2653],[-73.08785,41.2601],[-73.08675,41.2546],[-73.09087,41.25708],[-73.09456,41.25621],[-73.09526,41.25805],[-73.09836,41.25928],[-73.10308,41.25961],[-73.10295,41.26164],[-73.10462,41.26356],[-73.10708,41.26407],[-73.10605,41.26705],[-73.10829,41.26858],[-73.11358,41.26682],[-73.12024,41.26468],[-73.1439,41.25716],[-73.14688,41.25537],[-73.14737,41.25622],[-73.15527,41.26909],[-73.15557,41.2691],[-73.16491,41.26879],[-73.1736,41.26861],[-73.17864,41.27264],[-73.17903,41.27373],[-73.19099,41.2858],[-73.1983,41.29309],[-73.20081,41.29494],[-73.2048,41.29936],[-73.20336,41.30129],[-73.18978,41.31958],[-73.1893,41.32043]]]}},{"type":"Feature","properties":{"name":"VTD2GO (Valley Transit District)","boundary_type":"cousubs","source":"Census TIGER county subdivision","fidelity":"approximate","updated":"2026-09","units":"Ansonia town; Derby town; Shelton town","note":"Service covers Ansonia and Derby fully, portions of Shelton; evening-only service launched April 2024","confidence":0.85},"geometry":{"type":"Polygon","coordinates":[[[-73.1893,41.32043],[-73.18816,41.32193],[-73.18472,41.3265],[-73.18061,41.33297],[-73.17888,41.33474],[-73.17681,41.33759],[-73.17066,41.35793],[-73.17058,41.3579],[-73.15944,41.37291],[-73.15965,41.3749],[-73.15705,41.3767],[-73.15095,41.3702],[-73.14755,41.3677],[-73.13957,41.36121],[-73.13815,41.3539],[-73.13605,41.3512],[-73.12615,41.3466],[-73.12465,41.3453],[-73.12403,41.34557],[-73.11935,41.34757],[-73.11199,41.34976],[-73.10235,41.3529],[-73.10054,41.35402],[-73.09481,41.36069],[-73.09275,41.36074],[-73.09117,41.36054],[-73.08842,41.36168],[-73.08586,41.36294],[-73.08066,41.36289],[-73.07388,41.36119],[-73.07225,41.36062],[-73.06491,41.36029],[-73.04993,41.36021],[-73.04716,41.36053],[-73.04644,41.35209],[-73.04633,41.34608],[-73.04372,41.34232],[-73.04294,41.33882],[-73.04188,41.33758],[-73.03998,41.33236],[-73.03893,41.32801],[-73.03914,41.32665],[-73.04042,41.31854],[-73.04071,41.31389],[-73.04911,41.3113],[-73.0532,41.31114],[-73.05463,41.31157],[-73.05615,41.31197],[-73.05719,41.31217],[-73.05792,41.31206],[-73.06175,41.31008],[-73.06545,41.30483],[-73.06641,41.30295],[-73.06785,41.301],[-73.06505,41.2976],[-73.06525,41.2949],[-73.06875,41.2892],[-73.07125,41.2873],[-73.07545,41.28575],[-73.07885,41.2845],[-73.08153,41.28286],[-73.08375,41.2815],[-73.08685,41.2766],[-73.08865,41.2717],[-73.08775,41.2653],[-73.08785,41.2601],[-73.08675,41.2546],[-73.09087,41.25708],[-73.09456,41.25621],[-73.09526,41.25805],[-73.09836,41.25928],[-73.10308,41.25961],[-73.10295,41.26164],[-73.10462,41.26356],[-73.10708,41.26407],[-73.10605,41.26705],[-73.10829,41.26858],[-73.11358,41.26682],[-73.12024,41.26468],[-73.1439,41.25716],[-73.14688,41.25537],[-73.14737,41.25622],[-73.15527,41.26909],[-73.15557,41.2691],[-73.16491,41.26879],[-73.1736,41.26861],[-73.17864,41.27264],[-73.17903,41.27373],[-73.19099,41.2858],[-73.1983,41.29309],[-73.20081,41.29494],[-73.2048,41.29936],[-73.20336,41.30129],[-73.18978,41.31958],[-73.1893,41.32043]]]}},{"type":"Feature","properties":{"name":"Waterford HOP","boundary_type":"cousub","source":"Census TIGER county subdivision","fidelity":"exact","updated":"2026-09","units":"Waterford town","note":"Microtransit zone covering key Waterford residential and shopping corridors","confidence":0.95},"geometry":{"type":"Polygon","coordinates":[[[-72.16982,41.41859],[-72.13309,41.42357],[-72.12786,41.42428],[-72.12112,41.42519],[-72.11022,41.42665],[-72.10637,41.42719],[-72.10443,41.42745],[-72.10167,41.42645],[-72.09562,41.4253],[-72.09302,41.4158],[-72.09392,41.4139],[-72.09502,41.4116],[-72.09602,41.4088],[-72.09552,41.4022],[-72.09582,41.4004],[-72.09648,41.399],[-72.09722,41.3962],[-72.09422,41.3927],[-72.09292,41.3889],[-72.09292,41.387],[-72.09836,41.38549],[-72.1097,41.38296],[-72.11776,41.37528],[-72.1184,41.37467],[-72.12191,41.37135],[-72.12231,41.37064],[-72.12392,41.3696],[-72.12832,41.36531],[-72.12853,41.35763],[-72.11831,41.34776],[-72.11345,41.3436],[-72.1124,41.34139],[-72.10979,41.33404],[-72.10902,41.33209],[-72.10864,41.32856],[-72.1051,41.32186],[-72.10533,41.32062],[-72.10343,41.31737],[-72.10058,41.31315],[-72.10199,41.30934],[-72.10168,41.30681],[-72.1039,41.30515],[-72.10111,41.3041],[-72.10136,41.30377],[-72.10778,41.30286],[-72.11182,41.2991],[-72.12304,41.30175],[-72.1255,41.30123],[-72.13422,41.2994],[-72.14404,41.30291],[-72.14966,41.31086],[-72.15599,41.31306],[-72.15632,41.31318],[-72.16158,41.31026],[-72.16107,41.30693],[-72.1644,41.30371],[-72.17271,41.3096],[-72.17392,41.3176],[-72.17747,41.32229],[-72.17657,41.32313],[-72.1762,41.324],[-72.17985,41.32573],[-72.18049,41.32806],[-72.1793,41.33462],[-72.18112,41.3427],[-72.18292,41.3442],[-72.1849,41.34472],[-72.18822,41.3456],[-72.18882,41.3464],[-72.18812,41.3495],[-72.18961,41.35459],[-72.18943,41.35847],[-72.19303,41.3671],[-72.19269,41.36891],[-72.19326,41.37045],[-72.19166,41.3729],[-72.19236,41.37474],[-72.19276,41.37555],[-72.21931,41.41212],[-72.16982,41.41859]]]}},{"type":"Feature","properties":{"name":"Wheels 2U Norwalk","boundary_type":"city","source":"Census TIGER place","fidelity":"exact","updated":"2026-09","units":"Norwalk city","note":"City of Norwalk, pioneering CT microtransit service","confidence":0.95},"geometry":{"type":"MultiPolygon","coordinates":[[[[-73.39981,41.06242],[-73.39915,41.06098],[-73.40105,41.0576],[-73.40153,41.05372],[-73.40608,41.05236],[-73.40954,41.053],[-73.42216,41.04756],[-73.41689,41.05393],[-73.40477,41.06213],[-73.39981,41.06242]]],[[[-73.38366,41.0725],[-73.38366,41.0716],[-73.38356,41.0703],[-73.38358,41.06942],[-73.38389,41.06925],[-73.38665,41.0663],[-73.38999,41.06429],[-73.38799,41.06105],[-73.3858,41.05976],[-73.38618,41.05839],[-73.38723,41.05825],[-73.3918,41.06141],[-73.39524,41.06443],[-73.39419,41.06738],[-73.39228,41.07083],[-73.38818,41.07328],[-73.38366,41.0725]]],[[[-73.4595,41.13422],[-73.45882,41.1349],[-73.45061,41.14871],[-73.4495,41.1501],[-73.4489,41.15354],[-73.44891,41.15375],[-73.44799,41.1538],[-73.43746,41.15617],[-73.43187,41.15764],[-73.4233,41.15976],[-73.42223,41.16003],[-73.41898,41.1608],[-73.4154,41.16289],[-73.41368,41.16359],[-73.39484,41.17177],[-73.38707,41.1705],[-73.38677,41.1698],[-73.38681,41.1664],[-73.38759,41.16243],[-73.38845,41.158],[-73.38809,41.15648],[-73.38877,41.14895],[-73.38668,41.14601],[-73.38268,41.14169],[-73.38293,41.14106],[-73.38289,41.13976],[-73.3829,41.13904],[-73.38147,41.1319],[-73.38113,41.1286],[-73.3808,41.1271],[-73.38037,41.12342],[-73.38017,41.12114],[-73.3814,41.11831],[-73.38203,41.11673],[-73.38256,41.1146],[-73.38431,41.10731],[-73.38343,41.10462],[-73.38444,41.10289],[-73.38294,41.09992],[-73.38325,41.09568],[-73.38366,41.0898],[-73.38773,41.09134],[-73.39216,41.0877],[-73.39297,41.08212],[-73.3982,41.08194],[-73.40247,41.08606],[-73.4026,41.08591],[-73.40563,41.08226],[-73.40785,41.08111],[-73.40723,41.07549],[-73.40842,41.07101],[-73.41293,41.07101],[-73.422,41.06423],[-73.43325,41.05581],[-73.43506,41.0567],[-73.43815,41.05551],[-73.44084,41.05586],[-73.4428,41.05749],[-73.44585,41.05826],[-73.44652,41.05808],[-73.44551,41.06539],[-73.44527,41.06591],[-73.44405,41.06835],[-73.44482,41.07002],[-73.44762,41.07191],[-73.4475,41.07292],[-73.44675,41.0762],[-73.44593,41.0765],[-73.44623,41.07728],[-73.44747,41.08501],[-73.44819,41.08604],[-73.45022,41.08651],[-73.45067,41.08815],[-73.45384,41.08774],[-73.45358,41.08962],[-73.45362,41.09108],[-73.45398,41.09167],[-73.45552,41.09286],[-73.4558,41.09339],[-73.46214,41.10113],[-73.46752,41.10685],[-73.46909,41.10829],[-73.47295,41.11287],[-73.47456,41.1147],[-73.47108,41.11918],[-73.46295,41.12983],[-73.4595,41.13422]]]]}},{"type":"Feature","properties":{"name":"Wheels 2U Westport","boundary_type":"cousub","source":"Census TIGER county subdivision","fidelity":"exact","updated":"2026-09","units":"Westport town","note":"Town of Westport, first/last mile connection to Metro-North rail","confidence":0.95},"geometry":{"type":"MultiPolygon","coordinates":[[[[-73.38131,41.07069],[-73.38358,41.06942],[-73.38356,41.0703],[-73.38366,41.0716],[-73.38366,41.0725],[-73.38189,41.0722],[-73.38131,41.07069]]],[[[-73.35881,41.08664],[-73.3569,41.08708],[-73.35375,41.08751],[-73.35423,41.08564],[-73.35509,41.08348],[-73.35766,41.08197],[-73.36014,41.08202],[-73.36377,41.08363],[-73.36977,41.0888],[-73.36424,41.08895],[-73.36176,41.08751],[-73.36033,41.08571],[-73.35881,41.08664]]],[[[-73.38681,41.1664],[-73.38677,41.1698],[-73.38707,41.1705],[-73.38487,41.17443],[-73.38147,41.18257],[-73.37957,41.18578],[-73.37816,41.1842],[-73.37655,41.18143],[-73.3716,41.17468],[-73.37045,41.17572],[-73.36475,41.17903],[-73.36383,41.17935],[-73.36173,41.1809],[-73.35465,41.18506],[-73.34552,41.19028],[-73.3421,41.19273],[-73.33846,41.19454],[-73.32864,41.18099],[-73.32441,41.17548],[-73.32329,41.17372],[-73.32227,41.17246],[-73.30694,41.15233],[-73.30602,41.15277],[-73.3046,41.15191],[-73.30598,41.14948],[-73.30425,41.14898],[-73.30339,41.14585],[-73.29881,41.14481],[-73.29801,41.14301],[-73.29895,41.14065],[-73.29787,41.13829],[-73.29679,41.13636],[-73.29719,41.13597],[-73.29613,41.13367],[-73.29718,41.13214],[-73.29653,41.12969],[-73.29725,41.12604],[-73.29875,41.12479],[-73.299,41.12472],[-73.29861,41.12021],[-73.30664,41.11652],[-73.30851,41.11551],[-73.3091,41.1148],[-73.3096,41.11495],[-73.31079,41.11575],[-73.31127,41.11648],[-73.31363,41.11677],[-73.31546,41.1166],[-73.31766,41.1162],[-73.31929,41.11538],[-73.31954,41.11536],[-73.32087,41.11526],[-73.32497,41.11343],[-73.33066,41.11],[-73.33096,41.11009],[-73.33108,41.11012],[-73.33641,41.11176],[-73.34703,41.10766],[-73.34722,41.10759],[-73.35035,41.10638],[-73.35263,41.10169],[-73.35267,41.10161],[-73.35293,41.10174],[-73.35708,41.10379],[-73.35731,41.10386],[-73.36825,41.10719],[-73.36806,41.10282],[-73.36801,41.10164],[-73.3654,41.09734],[-73.3692,41.09555],[-73.37221,41.09552],[-73.37948,41.09544],[-73.38228,41.09541],[-73.38279,41.0954],[-73.38265,41.09518],[-73.37969,41.09045],[-73.38103,41.0888],[-73.38366,41.0898],[-73.38325,41.09568],[-73.38294,41.09992],[-73.38444,41.10289],[-73.38343,41.10462],[-73.38431,41.10731],[-73.38256,41.1146],[-73.38203,41.11673],[-73.3814,41.11831],[-73.38017,41.12114],[-73.38037,41.12342],[-73.3808,41.1271],[-73.38113,41.1286],[-73.38147,41.1319],[-73.3829,41.13904],[-73.38289,41.13976],[-73.38293,41.14106],[-73.38268,41.14169],[-73.38668,41.14601],[-73.38877,41.14895],[-73.38809,41.15648],[-73.38845,41.158],[-73.38759,41.16243],[-73.38681,41.1664]]]]}},{"type":"Feature","properties":{"name":"WRTD Dial-A-Ride","boundary_type":"cousubs","source":"Census TIGER county subdivision","fidelity":"exact","updated":"2026-09","units":"Ashford town; Chaplin town; Columbia town; Coventry town; Lebanon town; Mansfield town; Scotland town; Willington town; Windham town","note":"9-town Windham Region Transit District dial-a-ride service; available to general public with no age/disability restrictions","confidence":0.95},"geometry":{"type":"Polygon","coordinates":[[[-72.16928,41.6363],[-72.18174,41.61284],[-72.18766,41.60198],[-72.18966,41.59743],[-72.19221,41.59377],[-72.19402,41.5904],[-72.19595,41.58741],[-72.20224,41.57519],[-72.20429,41.57056],[-72.21842,41.5407],[-72.21911,41.53881],[-72.22782,41.5462],[-72.23104,41.54874],[-72.24741,41.56037],[-72.24952,41.56271],[-72.25323,41.56612],[-72.26196,41.574],[-72.28711,41.59414],[-72.28968,41.59595],[-72.29197,41.5977],[-72.29289,41.59812],[-72.3095,41.61151],[-72.31312,41.60952],[-72.32451,41.61857],[-72.32702,41.6251],[-72.32923,41.6296],[-72.33423,41.6436],[-72.34401,41.66871],[-72.35147,41.68716],[-72.35637,41.70151],[-72.35648,41.7015],[-72.35072,41.71188],[-72.34262,41.72233],[-72.33438,41.73146],[-72.32949,41.73744],[-72.32887,41.73882],[-72.35327,41.76584],[-72.35488,41.76713],[-72.37667,41.76438],[-72.38092,41.76386],[-72.41025,41.7655],[-72.41116,41.76992],[-72.41652,41.79695],[-72.41889,41.80656],[-72.42123,41.82441],[-72.42153,41.8255],[-72.40516,41.82702],[-72.3956,41.82822],[-72.37608,41.82996],[-72.35466,41.83248],[-72.33735,41.83431],[-72.3143,41.83738],[-72.31272,41.8376],[-72.30974,41.83777],[-72.30893,41.83928],[-72.30954,41.84293],[-72.30891,41.84486],[-72.30968,41.84794],[-72.30655,41.85032],[-72.30531,41.85051],[-72.30406,41.85078],[-72.30377,41.85332],[-72.30718,41.85611],[-72.30645,41.86035],[-72.30799,41.86333],[-72.30792,41.86494],[-72.31018,41.86776],[-72.31022,41.87042],[-72.31165,41.87192],[-72.31188,41.87365],[-72.30844,41.87478],[-72.30898,41.87805],[-72.30652,41.88134],[-72.30696,41.88247],[-72.3026,41.88387],[-72.30125,41.88688],[-72.29816,41.88803],[-72.29906,41.88886],[-72.30277,41.88912],[-72.30296,41.8905],[-72.30126,41.89296],[-72.29922,41.89399],[-72.29304,41.89559],[-72.29109,41.89697],[-72.29268,41.90052],[-72.2914,41.9031],[-72.29095,41.90556],[-72.29172,41.90677],[-72.29301,41.90699],[-72.2938,41.90892],[-72.29682,41.91109],[-72.29766,41.91449],[-72.29747,41.91593],[-72.29905,41.91947],[-72.30172,41.92055],[-72.30325,41.92285],[-72.3052,41.92421],[-72.30628,41.92596],[-72.3069,41.92963],[-72.30887,41.93109],[-72.30922,41.93354],[-72.30625,41.94071],[-72.30099,41.94073],[-72.29066,41.94063],[-72.26048,41.94022],[-72.2367,41.93986],[-72.23633,41.94377],[-72.23684,41.94545],[-72.23661,41.95605],[-72.23679,41.95829],[-72.2349,41.95758],[-72.21698,41.95816],[-72.19528,41.95932],[-72.19066,41.95914],[-72.15165,41.9593],[-72.15272,41.95303],[-72.1507,41.95246],[-72.15068,41.94946],[-72.14902,41.94379],[-72.14837,41.94352],[-72.14704,41.94253],[-72.14724,41.94085],[-72.14663,41.93907],[-72.14538,41.93833],[-72.14522,41.93548],[-72.14439,41.93325],[-72.14504,41.93062],[-72.14475,41.92882],[-72.14113,41.92372],[-72.13996,41.92319],[-72.13875,41.92043],[-72.13981,41.91837],[-72.13939,41.91618],[-72.13536,41.91339],[-72.13283,41.91041],[-72.12757,41.9027],[-72.12509,41.89861],[-72.12216,41.89442],[-72.11292,41.87932],[-72.11295,41.87784],[-72.11244,41.86278],[-72.11399,41.83169],[-72.09667,41.83166],[-72.09327,41.83164],[-72.09245,41.83167],[-72.09278,41.81391],[-72.09664,41.76809],[-72.09973,41.75711],[-72.10263,41.74444],[-72.08098,41.73513],[-72.05256,41.73142],[-72.0561,41.7012],[-72.05292,41.68827],[-72.05345,41.68437],[-72.06205,41.65224],[-72.09241,41.65719],[-72.10352,41.65931],[-72.11,41.66022],[-72.11977,41.66183],[-72.11996,41.6633],[-72.14672,41.66717],[-72.15175,41.66752],[-72.15501,41.66267],[-72.15747,41.6578],[-72.15755,41.65763],[-72.1618,41.64995],[-72.16315,41.64791],[-72.16928,41.6363]]]}},{"type":"Feature","properties":{"name":"WRTD Link","boundary_type":"cousubs","source":"Census TIGER county subdivision","fidelity":"exact","updated":"2026-09","units":"Mansfield town; Windham town","note":"App-based service connecting UConn Storrs (in Mansfield) to Willimantic (in Windham); covers both towns","confidence":0.95},"geometry":{"type":"Polygon","coordinates":[[[-72.254,41.72951],[-72.2597,41.72962],[-72.26135,41.73275],[-72.26068,41.73414],[-72.26172,41.73676],[-72.26306,41.73709],[-72.2625,41.73834],[-72.26364,41.73936],[-72.26353,41.74047],[-72.26577,41.74368],[-72.26843,41.74484],[-72.26784,41.74569],[-72.26947,41.74583],[-72.26599,41.75],[-72.26613,41.75335],[-72.2679,41.75638],[-72.27087,41.75976],[-72.2709,41.76062],[-72.26886,41.76252],[-72.2709,41.76412],[-72.27112,41.76617],[-72.27241,41.76716],[-72.27198,41.7712],[-72.27519,41.77378],[-72.27536,41.7761],[-72.27732,41.77778],[-72.28022,41.77922],[-72.28023,41.78128],[-72.28059,41.78418],[-72.29156,41.79532],[-72.29599,41.79501],[-72.2963,41.79547],[-72.29987,41.79716],[-72.30272,41.79746],[-72.30592,41.79539],[-72.30901,41.79629],[-72.31283,41.79831],[-72.3127,41.79928],[-72.30976,41.80062],[-72.31022,41.80293],[-72.31603,41.80556],[-72.3161,41.80774],[-72.31672,41.80822],[-72.31532,41.80929],[-72.31501,41.81316],[-72.31668,41.8145],[-72.31678,41.81636],[-72.31382,41.81852],[-72.31307,41.82042],[-72.314,41.82246],[-72.31333,41.82413],[-72.31296,41.82713],[-72.31416,41.82792],[-72.31307,41.82941],[-72.31096,41.82939],[-72.30851,41.83314],[-72.31018,41.83492],[-72.31014,41.83606],[-72.30022,41.83589],[-72.29658,41.83626],[-72.26979,41.83602],[-72.25829,41.83584],[-72.22372,41.83527],[-72.21772,41.83518],[-72.20029,41.83505],[-72.16902,41.8349],[-72.16601,41.83488],[-72.1645,41.83491],[-72.16321,41.82222],[-72.16322,41.82203],[-72.15934,41.78116],[-72.15786,41.76565],[-72.15672,41.75372],[-72.15632,41.75349],[-72.15074,41.75284],[-72.12252,41.74877],[-72.11204,41.7459],[-72.12249,41.71275],[-72.1211,41.69745],[-72.11968,41.66444],[-72.11996,41.6633],[-72.14672,41.66717],[-72.15175,41.66752],[-72.15501,41.66267],[-72.15747,41.6578],[-72.15755,41.65763],[-72.17333,41.66786],[-72.17547,41.669],[-72.17828,41.67121],[-72.18665,41.67628],[-72.19887,41.68539],[-72.20824,41.69225],[-72.21118,41.69414],[-72.21159,41.69441],[-72.21459,41.69634],[-72.21718,41.69801],[-72.235,41.71069],[-72.23789,41.71312],[-72.23956,41.71419],[-72.24281,41.71645],[-72.24431,41.71715],[-72.24528,41.72049],[-72.2466,41.7229],[-72.24952,41.72447],[-72.25299,41.72492],[-72.25208,41.72706],[-72.25264,41.7282],[-72.254,41.72951]]]}},{"type":"Feature","properties":{"name":"XtraMile East Hampton","boundary_type":"cousub","source":"Census TIGER county subdivision","fidelity":"exact","updated":"2026-09","units":"East Hampton town","note":"On-demand pilot connecting residents to regional employment zones; serves transit desert","confidence":0.95},"geometry":{"type":"Polygon","coordinates":[[[-72.56084,41.56047],[-72.55952,41.56235],[-72.55921,41.56644],[-72.5584,41.56892],[-72.55767,41.57804],[-72.55409,41.58152],[-72.55041,41.58646],[-72.5496,41.58802],[-72.54655,41.59216],[-72.54353,41.59551],[-72.54294,41.59706],[-72.54191,41.60181],[-72.5408,41.60536],[-72.54449,41.61582],[-72.52929,41.61743],[-72.53123,41.62111],[-72.54423,41.6427],[-72.53458,41.64388],[-72.53213,41.644],[-72.52183,41.6455],[-72.50543,41.647],[-72.50487,41.64553],[-72.48184,41.60818],[-72.48154,41.60774],[-72.47692,41.59999],[-72.47434,41.59516],[-72.46904,41.58732],[-72.46673,41.5839],[-72.45185,41.55857],[-72.44906,41.55394],[-72.44874,41.55353],[-72.44794,41.55286],[-72.44655,41.55066],[-72.44685,41.55038],[-72.44395,41.54642],[-72.43267,41.52795],[-72.43077,41.52457],[-72.44851,41.52257],[-72.44955,41.52253],[-72.45419,41.52976],[-72.4554,41.53102],[-72.45866,41.53682],[-72.45884,41.53958],[-72.4597,41.54002],[-72.45931,41.53916],[-72.46169,41.53541],[-72.46356,41.53352],[-72.46593,41.53268],[-72.46862,41.53108],[-72.46974,41.52965],[-72.47553,41.52425],[-72.47944,41.52184],[-72.48037,41.51946],[-72.48505,41.51873],[-72.552,41.51123],[-72.55258,41.51141],[-72.55491,41.51105],[-72.55574,41.51457],[-72.55619,41.51932],[-72.55586,41.52496],[-72.5538,41.53047],[-72.55297,41.53153],[-72.55134,41.5353],[-72.55094,41.53807],[-72.55113,41.54299],[-72.55158,41.5455],[-72.55247,41.54751],[-72.55439,41.55065],[-72.5608,41.55405],[-72.56277,41.55843],[-72.56203,41.55944],[-72.56084,41.56047]]]}},{"type":"Feature","properties":{"name":"XtraMile Middletown","boundary_type":"cousub","source":"Census TIGER county subdivision","fidelity":"approximate","updated":"2026-09","units":"Middletown town","note":"Service is a fixed-stop microtransit covering downtown Middletown, the Washington Street corridor, the Wesleyan University campus, and the north end (17 stops total) -- not the full town of Middletown. Encoded as the containing town with approximate fidelity since no zone size or stop-boundary geometry is published. Source: https://rivervalleytransit.com/xtramile-middletown/","confidence":0.6},"geometry":{"type":"Polygon","coordinates":[[[-72.74284,41.5944],[-72.73167,41.5958],[-72.72994,41.6015],[-72.72704,41.6024],[-72.71454,41.60431],[-72.71245,41.60242],[-72.70849,41.60378],[-72.70774,41.60266],[-72.70517,41.60325],[-72.69651,41.60034],[-72.6943,41.60142],[-72.68921,41.60077],[-72.68407,41.60186],[-72.68096,41.60049],[-72.68032,41.59737],[-72.67951,41.59713],[-72.6771,41.598],[-72.67434,41.5998],[-72.67181,41.59763],[-72.67319,41.59469],[-72.67036,41.59173],[-72.668,41.5919],[-72.66729,41.58924],[-72.66538,41.5871],[-72.6679,41.58625],[-72.6681,41.58355],[-72.66545,41.58188],[-72.66113,41.58026],[-72.66025,41.5787],[-72.65789,41.57896],[-72.65514,41.57745],[-72.65623,41.57608],[-72.6561,41.57339],[-72.65403,41.57229],[-72.65256,41.57302],[-72.65155,41.57311],[-72.6488,41.57524],[-72.64844,41.56922],[-72.64845,41.56784],[-72.64569,41.56412],[-72.6443,41.56291],[-72.64131,41.56136],[-72.63868,41.56039],[-72.63426,41.56066],[-72.62892,41.56098],[-72.62454,41.56101],[-72.62385,41.56056],[-72.61402,41.56213],[-72.6099,41.56284],[-72.60809,41.56276],[-72.60315,41.56049],[-72.59931,41.55936],[-72.59521,41.55809],[-72.59263,41.55781],[-72.5887,41.55821],[-72.57985,41.55794],[-72.57646,41.5576],[-72.57347,41.5571],[-72.56573,41.55485],[-72.5608,41.55405],[-72.55439,41.55065],[-72.55247,41.54751],[-72.55158,41.5455],[-72.55113,41.54299],[-72.55094,41.53807],[-72.55134,41.5353],[-72.55297,41.53153],[-72.5538,41.53047],[-72.55586,41.52496],[-72.55619,41.51932],[-72.55574,41.51457],[-72.55491,41.51105],[-72.56354,41.51012],[-72.58772,41.50651],[-72.58933,41.5063],[-72.6337,41.5002],[-72.64832,41.49842],[-72.67759,41.49484],[-72.6779,41.49623],[-72.67905,41.50799],[-72.68046,41.51471],[-72.68031,41.5162],[-72.68127,41.51687],[-72.68086,41.52271],[-72.68257,41.53109],[-72.68736,41.53616],[-72.68809,41.53703],[-72.6882,41.53863],[-72.69022,41.54202],[-72.69132,41.54396],[-72.69434,41.5492],[-72.7009,41.54903],[-72.71133,41.54789],[-72.71227,41.54861],[-72.72262,41.54796],[-72.73358,41.54616],[-72.73486,41.54433],[-72.74253,41.54407],[-72.74888,41.54428],[-72.74893,41.54567],[-72.74899,41.54631],[-72.74927,41.54749],[-72.74935,41.54976],[-72.75218,41.57889],[-72.75294,41.5925],[-72.74284,41.5944]]]}},{"type":"Feature","properties":{"name":"XtraMile Old Saybrook","boundary_type":"cousubs","source":"Census TIGER county subdivision","fidelity":"exact","updated":"2026-09","units":"Old Saybrook town; Essex town; Westbrook town","note":"Three-town shoreline microtransit connecting to commuter rail","confidence":0.95},"geometry":{"type":"Polygon","coordinates":[[[-72.36249,41.33894],[-72.35783,41.33514],[-72.35338,41.32983],[-72.35124,41.32637],[-72.34912,41.32449],[-72.34792,41.32178],[-72.34744,41.3188],[-72.34904,41.31156],[-72.3505,41.31175],[-72.35621,41.29961],[-72.35621,41.29938],[-72.35645,41.29122],[-72.34932,41.28461],[-72.34774,41.2809],[-72.34567,41.27604],[-72.34551,41.27568],[-72.34397,41.27205],[-72.34261,41.26885],[-72.3481,41.27014],[-72.35906,41.26811],[-72.35998,41.26762],[-72.36401,41.26546],[-72.36762,41.26353],[-72.37857,41.26457],[-72.38663,41.2618],[-72.38897,41.26498],[-72.39457,41.27258],[-72.39815,41.27745],[-72.39869,41.27817],[-72.40572,41.2768],[-72.41666,41.27829],[-72.4177,41.27844],[-72.42168,41.27507],[-72.42616,41.27413],[-72.4311,41.27606],[-72.43797,41.27874],[-72.45192,41.27889],[-72.46226,41.27448],[-72.4681,41.26901],[-72.47102,41.26973],[-72.47194,41.26996],[-72.47254,41.2701],[-72.48569,41.27088],[-72.48623,41.27069],[-72.48723,41.2737],[-72.49255,41.28716],[-72.49421,41.29205],[-72.49956,41.30622],[-72.49956,41.30743],[-72.51203,41.3416],[-72.51395,41.3464],[-72.50112,41.34746],[-72.49823,41.3476],[-72.48303,41.33833],[-72.47693,41.3345],[-72.47663,41.3344],[-72.47272,41.33421],[-72.46894,41.34538],[-72.44606,41.35618],[-72.42713,41.36372],[-72.42523,41.3645],[-72.4243,41.36503],[-72.41294,41.3741],[-72.40903,41.3751],[-72.40895,41.3751],[-72.39854,41.37751],[-72.39415,41.37822],[-72.38259,41.38248],[-72.3816,41.38061],[-72.376,41.37625],[-72.37509,41.37451],[-72.37491,41.37331],[-72.37643,41.3691],[-72.37737,41.36448],[-72.37839,41.35591],[-72.3794,41.34975],[-72.37877,41.348],[-72.37769,41.34647],[-72.37216,41.34343],[-72.36915,41.34234],[-72.36606,41.34108],[-72.36249,41.33894]]]}}]}