{"type":"FeatureCollection","features":[{"type":"Feature","properties":{"name":"DC Neighborhood Connect","boundary_type":"city","source":"Census TIGER place","fidelity":"approximate","updated":"2026-09","units":"Washington city","note":"Two street-bounded zones within DC, not citywide: Zone 1 (parts of Wards 1, 4, 5) bounded by Georgia Ave, Eastern Ave, Florida Ave, and Bladensburg Rd; Zone 2 (Ward 8) bounded by Pennsylvania Ave SE, Southern Ave SE, and the Anacostia Fwy. No ward-level boundary layer is available to the resolver, so the full District (Washington) is used as an approximate containing-unit proxy. Sources: https://dfhv.dc.gov/page/dc-neighborhood-connect ; https://ggwash.org/view/81932/dc-neighborhood-is-back-and-this-time-covering-parts-of-ward-8 ; https://mayor.dc.gov/release/mayor-bowser-announces-expansion-neighborhood-connect-service-northwest-and-northeast","confidence":0.6},"geometry":{"type":"Polygon","coordinates":[[[-77.11253,38.94006],[-77.11248,38.9401],[-77.1045,38.94641],[-77.10128,38.94853],[-77.1007,38.94891],[-77.10053,38.94905],[-77.09809,38.95107],[-77.09387,38.95456],[-77.0915,38.95651],[-77.0914,38.95659],[-77.09136,38.95662],[-77.08766,38.95946],[-77.08581,38.96088],[-77.08578,38.96091],[-77.08384,38.9624],[-77.08271,38.96327],[-77.08224,38.96363],[-77.08042,38.96503],[-77.07744,38.96732],[-77.07164,38.97178],[-77.06895,38.97385],[-77.06669,38.97558],[-77.06256,38.97876],[-77.0543,38.98511],[-77.05294,38.98613],[-77.05222,38.98667],[-77.05166,38.98709],[-77.04654,38.99094],[-77.04239,38.99406],[-77.041,38.99511],[-77.03677,38.99205],[-77.03646,38.99183],[-77.0363,38.99171],[-77.03371,38.98973],[-77.03123,38.98784],[-77.0267,38.98438],[-77.02663,38.98433],[-77.02659,38.9843],[-77.02054,38.97968],[-77.01871,38.97828],[-77.01865,38.97824],[-77.01732,38.97723],[-77.0156,38.97591],[-77.0138,38.97441],[-77.01106,38.97227],[-77.00859,38.97034],[-77.0083,38.97011],[-77.00777,38.96969],[-77.00369,38.96638],[-77.0026,38.96549],[-77.00259,38.96548],[-77.0025,38.96541],[-77.00165,38.96475],[-76.99912,38.9628],[-76.99749,38.96154],[-76.99736,38.96144],[-76.99189,38.95721],[-76.98952,38.95538],[-76.98793,38.95415],[-76.98594,38.95261],[-76.97843,38.94681],[-76.97783,38.94634],[-76.9745,38.94377],[-76.97375,38.94319],[-76.96816,38.93887],[-76.96683,38.93784],[-76.96344,38.93522],[-76.96343,38.93521],[-76.96137,38.93362],[-76.9588,38.93163],[-76.95772,38.9308],[-76.95762,38.93072],[-76.95605,38.92951],[-76.94386,38.92009],[-76.94192,38.91859],[-76.94144,38.91822],[-76.9351,38.91331],[-76.93172,38.91062],[-76.93164,38.91055],[-76.93125,38.91024],[-76.92353,38.90409],[-76.92345,38.90402],[-76.9199,38.90119],[-76.91341,38.89602],[-76.91287,38.89558],[-76.91096,38.89406],[-76.91053,38.89372],[-76.90939,38.89281],[-76.91079,38.89171],[-76.91276,38.89018],[-76.91326,38.8898],[-76.9133,38.88976],[-76.91854,38.8857],[-76.91855,38.88569],[-76.91929,38.88511],[-76.92019,38.88441],[-76.92083,38.88392],[-76.92098,38.8838],[-76.92397,38.88145],[-76.92403,38.88141],[-76.92989,38.87682],[-76.93125,38.87576],[-76.93372,38.87382],[-76.9338,38.87376],[-76.93497,38.87284],[-76.93594,38.87208],[-76.93949,38.8693],[-76.94364,38.86605],[-76.9467,38.86366],[-76.94675,38.86362],[-76.9497,38.86131],[-76.94986,38.8612],[-76.9537,38.85851],[-76.95814,38.85495],[-76.95815,38.85494],[-76.96194,38.8519],[-76.96347,38.85067],[-76.96544,38.84909],[-76.96657,38.84818],[-76.97081,38.84478],[-76.97085,38.84475],[-76.97233,38.84356],[-76.97294,38.84307],[-76.9795,38.83781],[-76.98249,38.83563],[-76.98497,38.83383],[-76.98733,38.83212],[-76.98904,38.83087],[-76.99134,38.8292],[-76.9927,38.82821],[-76.9928,38.82812],[-76.99595,38.82541],[-76.99794,38.82369],[-76.99846,38.82324],[-76.99913,38.82266],[-77.0,38.82191],[-77.00108,38.8216],[-77.0014,38.82151],[-77.00148,38.82145],[-77.00149,38.82144],[-77.00174,38.82124],[-77.00468,38.81891],[-77.01556,38.81026],[-77.0205,38.80634],[-77.02187,38.80526],[-77.03758,38.79278],[-77.03901,38.79165],[-77.03899,38.79277],[-77.03894,38.79699],[-77.03893,38.79817],[-77.0389,38.8003],[-77.0389,38.80081],[-77.0388,38.80166],[-77.0384,38.80511],[-77.038,38.8086],[-77.03745,38.8134],[-77.03736,38.81419],[-77.0381,38.81561],[-77.03879,38.81962],[-77.0391,38.82141],[-77.03888,38.82295],[-77.0381,38.82861],[-77.03856,38.83012],[-77.0392,38.83221],[-77.0412,38.83371],[-77.0426,38.83381],[-77.0435,38.83321],[-77.0449,38.83471],[-77.045,38.83851],[-77.04449,38.8396],[-77.0442,38.84021],[-77.0417,38.84021],[-77.03855,38.83926],[-77.03454,38.84047],[-77.03337,38.8446],[-77.0317,38.85051],[-77.03183,38.8509],[-77.034,38.85714],[-77.0393,38.86431],[-77.0389,38.86581],[-77.0391,38.86811],[-77.0406,38.87121],[-77.04109,38.87172],[-77.0433,38.87401],[-77.04345,38.8741],[-77.04378,38.87429],[-77.0454,38.87521],[-77.0466,38.87491],[-77.0456,38.87301],[-77.0463,38.87131],[-77.0491,38.87071],[-77.0513,38.87321],[-77.0511,38.87521],[-77.0541,38.87911],[-77.0552,38.88001],[-77.05825,38.88007],[-77.0635,38.88861],[-77.06466,38.89184],[-77.0673,38.89921],[-77.0682,38.89981],[-77.06937,38.90037],[-77.0701,38.90071],[-77.07062,38.90076],[-77.07067,38.90077],[-77.0735,38.90105],[-77.07836,38.90153],[-77.0793,38.90162],[-77.0822,38.90191],[-77.08284,38.90209],[-77.0902,38.90421],[-77.0937,38.90591],[-77.10102,38.91098],[-77.1012,38.91111],[-77.10164,38.91147],[-77.1034,38.91291],[-77.1054,38.91719],[-77.1063,38.91911],[-77.10736,38.92002],[-77.1134,38.92521],[-77.1166,38.92891],[-77.11682,38.92949],[-77.1179,38.93241],[-77.11976,38.93434],[-77.11253,38.94006]]]}}]}