{"type":"FeatureCollection","features":[{"type":"Feature","properties":{"name":"DART Connect","boundary_type":"places","source":"Census TIGER place","fidelity":"exact","updated":"2026-09","units":"Georgetown town; Millsboro town; Newark city","note":"Three on-demand zones: Georgetown and Millsboro in Sussex County, Newark in New Castle County","confidence":0.95},"geometry":{"type":"MultiPolygon","coordinates":[[[[-75.31106,38.58141],[-75.31131,38.58199],[-75.30709,38.58142],[-75.30451,38.57702],[-75.30729,38.57512],[-75.30593,38.57378],[-75.30463,38.57125],[-75.30472,38.56999],[-75.30624,38.57042],[-75.30831,38.57472],[-75.31164,38.57341],[-75.31324,38.57659],[-75.31898,38.57232],[-75.32003,38.57182],[-75.32231,38.57596],[-75.31551,38.58055],[-75.31475,38.57953],[-75.31106,38.58141]]],[[[-75.35657,38.60526],[-75.3532,38.60533],[-75.35163,38.60625],[-75.34733,38.6065],[-75.34644,38.61052],[-75.33333,38.61116],[-75.33297,38.61235],[-75.33132,38.61355],[-75.32478,38.60654],[-75.33261,38.60864],[-75.33491,38.60885],[-75.33387,38.60507],[-75.33249,38.60392],[-75.3289,38.6035],[-75.32907,38.60261],[-75.32505,38.60156],[-75.32547,38.60007],[-75.32789,38.60052],[-75.32845,38.59883],[-75.32488,38.59996],[-75.32144,38.59939],[-75.32139,38.59938],[-75.3175,38.59914],[-75.31539,38.59695],[-75.31386,38.59585],[-75.31598,38.59381],[-75.31644,38.59159],[-75.31825,38.59177],[-75.31856,38.59095],[-75.31599,38.59092],[-75.31316,38.59338],[-75.31043,38.58884],[-75.30888,38.58937],[-75.3063,38.58966],[-75.30508,38.59095],[-75.30563,38.59161],[-75.3047,38.59193],[-75.30781,38.5936],[-75.3066,38.59495],[-75.30336,38.59512],[-75.30303,38.59321],[-75.30151,38.59478],[-75.29849,38.59267],[-75.2968,38.59508],[-75.29792,38.59576],[-75.29784,38.59787],[-75.3003,38.59901],[-75.30294,38.59853],[-75.30359,38.59853],[-75.30367,38.60253],[-75.30901,38.60019],[-75.31032,38.60143],[-75.31398,38.59943],[-75.31726,38.59913],[-75.31891,38.60088],[-75.3206,38.60268],[-75.31941,38.60446],[-75.31608,38.60552],[-75.31386,38.60467],[-75.30739,38.60344],[-75.30633,38.60424],[-75.30538,38.60348],[-75.30327,38.60451],[-75.30096,38.60183],[-75.29626,38.603],[-75.30009,38.60462],[-75.29633,38.60626],[-75.29719,38.60491],[-75.29539,38.60438],[-75.29518,38.60236],[-75.29669,38.60123],[-75.29388,38.59969],[-75.29306,38.59737],[-75.29384,38.59582],[-75.29115,38.59507],[-75.291,38.59446],[-75.28925,38.59479],[-75.28921,38.59526],[-75.28718,38.59533],[-75.28713,38.5942],[-75.28514,38.5923],[-75.28657,38.59036],[-75.28535,38.58966],[-75.28339,38.59218],[-75.28218,38.59117],[-75.27769,38.59016],[-75.27969,38.58701],[-75.27798,38.58698],[-75.27709,38.58526],[-75.27487,38.58428],[-75.27131,38.58568],[-75.27071,38.58474],[-75.26885,38.58485],[-75.26751,38.58332],[-75.26908,38.58329],[-75.26948,38.58214],[-75.27579,38.58401],[-75.27825,38.58214],[-75.27391,38.57962],[-75.27161,38.57971],[-75.27147,38.5783],[-75.27502,38.57539],[-75.27648,38.5739],[-75.27692,38.57141],[-75.27988,38.57054],[-75.28258,38.57424],[-75.28192,38.57463],[-75.28446,38.57344],[-75.28138,38.56958],[-75.28251,38.56878],[-75.28218,38.57006],[-75.28454,38.56825],[-75.28618,38.56889],[-75.28688,38.56928],[-75.2893,38.56759],[-75.28784,38.56434],[-75.2846,38.56529],[-75.28375,38.56279],[-75.28513,38.56271],[-75.288,38.56053],[-75.29072,38.56083],[-75.29254,38.56171],[-75.29457,38.56373],[-75.29317,38.56483],[-75.29326,38.56611],[-75.28878,38.57045],[-75.29283,38.57297],[-75.28968,38.57514],[-75.29094,38.57665],[-75.29148,38.57641],[-75.29285,38.57816],[-75.29349,38.57819],[-75.29547,38.57606],[-75.29602,38.57459],[-75.29696,38.57298],[-75.29802,38.57245],[-75.30022,38.57042],[-75.30117,38.57192],[-75.29988,38.57275],[-75.30272,38.57694],[-75.29992,38.57805],[-75.30351,38.57974],[-75.30479,38.58336],[-75.30431,38.58346],[-75.30502,38.58802],[-75.30546,38.5866],[-75.30518,38.58327],[-75.31131,38.58199],[-75.31327,38.58158],[-75.31405,38.58135],[-75.31499,38.58091],[-75.31551,38.58055],[-75.32245,38.58456],[-75.32633,38.58792],[-75.32774,38.58885],[-75.32823,38.59052],[-75.32539,38.59005],[-75.32822,38.59249],[-75.32928,38.59141],[-75.33125,38.59333],[-75.33224,38.5938],[-75.33231,38.59854],[-75.33145,38.59925],[-75.33716,38.60005],[-75.33864,38.59997],[-75.34162,38.59816],[-75.3464,38.60037],[-75.35313,38.59722],[-75.35537,38.60029],[-75.35987,38.59953],[-75.36028,38.60043],[-75.35943,38.60301],[-75.35794,38.60569],[-75.35657,38.60526]],[[-75.28015,38.58721],[-75.28219,38.58717],[-75.28089,38.58475],[-75.27881,38.58598],[-75.27999,38.58657],[-75.27969,38.58701],[-75.28015,38.58721]],[[-75.30635,38.58814],[-75.30643,38.58887],[-75.30647,38.58923],[-75.30691,38.58915],[-75.30686,38.58881],[-75.30715,38.58863],[-75.31005,38.58804],[-75.30823,38.58573],[-75.30723,38.58653],[-75.30762,38.5878],[-75.30635,38.58814]],[[-75.28526,38.57724],[-75.28551,38.57747],[-75.28515,38.57772],[-75.28541,38.57807],[-75.28611,38.5776],[-75.28652,38.57777],[-75.28692,38.57841],[-75.28722,38.57806],[-75.28824,38.5778],[-75.28733,38.57677],[-75.28646,38.57736],[-75.28604,38.57694],[-75.28526,38.57724]],[[-75.28093,38.58227],[-75.28264,38.58577],[-75.28421,38.58672],[-75.28488,38.58657],[-75.28417,38.58409],[-75.28312,38.58238],[-75.28093,38.58227]]],[[[-75.41018,38.70193],[-75.41318,38.70188],[-75.41381,38.7049],[-75.41194,38.70685],[-75.40955,38.70555],[-75.40346,38.70682],[-75.40065,38.70627],[-75.39987,38.709],[-75.39769,38.70955],[-75.39369,38.70342],[-75.39516,38.70239],[-75.39299,38.70233],[-75.39048,38.69843],[-75.39006,38.69969],[-75.38875,38.69969],[-75.38867,38.69834],[-75.38691,38.70086],[-75.38508,38.70314],[-75.38236,38.70233],[-75.38129,38.70301],[-75.3767,38.70152],[-75.37524,38.7065],[-75.37571,38.70815],[-75.3664,38.70875],[-75.36623,38.70961],[-75.36603,38.71062],[-75.3661,38.7096],[-75.36736,38.70338],[-75.36498,38.70395],[-75.36497,38.70207],[-75.36593,38.70055],[-75.36649,38.69738],[-75.36289,38.69486],[-75.3653,38.69036],[-75.3659,38.68986],[-75.36855,38.68432],[-75.36916,38.68503],[-75.37413,38.68338],[-75.37192,38.68064],[-75.37251,38.68064],[-75.37485,38.6779],[-75.37381,38.67596],[-75.37226,38.67539],[-75.36943,38.67747],[-75.36706,38.6745],[-75.36706,38.67225],[-75.36559,38.67064],[-75.36766,38.66991],[-75.36624,38.66889],[-75.37137,38.66679],[-75.37473,38.67032],[-75.37092,38.67155],[-75.37372,38.67224],[-75.37577,38.67151],[-75.37589,38.67026],[-75.37441,38.66789],[-75.37608,38.66631],[-75.37847,38.66667],[-75.38044,38.666],[-75.38579,38.67126],[-75.39326,38.66878],[-75.39376,38.66766],[-75.39497,38.6734],[-75.39294,38.67362],[-75.39311,38.67586],[-75.39578,38.67779],[-75.39746,38.67514],[-75.40063,38.67559],[-75.40199,38.67694],[-75.39963,38.67897],[-75.39956,38.67903],[-75.39807,38.68036],[-75.40219,38.68201],[-75.40276,38.68494],[-75.40555,38.68471],[-75.40933,38.68506],[-75.40882,38.68678],[-75.40591,38.68632],[-75.40245,38.68644],[-75.40204,38.69294],[-75.40465,38.69419],[-75.40774,38.69468],[-75.4117,38.68804],[-75.41492,38.68838],[-75.41454,38.6906],[-75.41655,38.6906],[-75.41707,38.69216],[-75.41874,38.6923],[-75.41632,38.6977],[-75.41101,38.6979],[-75.41018,38.70193]],[[-75.39775,38.67733],[-75.39897,38.67831],[-75.39961,38.67783],[-75.39791,38.67613],[-75.3972,38.67659],[-75.39775,38.67733]],[[-75.38302,38.67944],[-75.38385,38.68182],[-75.3862,38.67985],[-75.38589,38.67811],[-75.38355,38.6784],[-75.38274,38.67931],[-75.38302,38.67944]]],[[[-75.777,39.66478],[-75.78084,39.66703],[-75.78096,39.67055],[-75.77807,39.6712],[-75.77883,39.67241],[-75.78145,39.67374],[-75.78863,39.67151],[-75.78862,39.68074],[-75.78866,39.68191],[-75.7886,39.68566],[-75.78555,39.68553],[-75.78565,39.68425],[-75.78399,39.68426],[-75.783,39.68182],[-75.7799,39.68255],[-75.78215,39.68636],[-75.78329,39.68545],[-75.78476,39.68724],[-75.78786,39.68628],[-75.78858,39.68726],[-75.78857,39.68786],[-75.78469,39.68786],[-75.78534,39.68922],[-75.78438,39.69005],[-75.78499,39.69383],[-75.7844,39.6936],[-75.78476,39.69303],[-75.78317,39.6915],[-75.7807,39.69218],[-75.7836,39.69329],[-75.78362,39.69546],[-75.78844,39.69687],[-75.78839,39.70003],[-75.78839,39.70029],[-75.7884,39.70057],[-75.78246,39.69841],[-75.77763,39.69857],[-75.7741,39.69914],[-75.77364,39.69973],[-75.77256,39.70159],[-75.77297,39.70353],[-75.77086,39.70378],[-75.76996,39.70241],[-75.76685,39.70313],[-75.76633,39.70009],[-75.76822,39.69991],[-75.7667,39.6984],[-75.75921,39.69915],[-75.75897,39.69629],[-75.75423,39.69531],[-75.75333,39.69615],[-75.75246,39.69829],[-75.7499,39.69752],[-75.74655,39.7036],[-75.74464,39.70994],[-75.74251,39.71243],[-75.74134,39.71227],[-75.73954,39.71333],[-75.73993,39.71388],[-75.73935,39.71507],[-75.73861,39.71474],[-75.73753,39.71513],[-75.7387,39.71874],[-75.73571,39.71952],[-75.73505,39.71766],[-75.73747,39.71674],[-75.73694,39.71468],[-75.73817,39.7145],[-75.73687,39.71322],[-75.73443,39.70953],[-75.73618,39.70878],[-75.73307,39.70443],[-75.73932,39.7021],[-75.74298,39.69164],[-75.74496,39.69128],[-75.74486,39.69005],[-75.74359,39.69004],[-75.74261,39.69022],[-75.74205,39.69186],[-75.73874,39.69255],[-75.73791,39.692],[-75.73511,39.69939],[-75.73176,39.69815],[-75.7326,39.69683],[-75.73403,39.69443],[-75.73302,39.69267],[-75.73401,39.69241],[-75.72686,39.69287],[-75.72416,39.69246],[-75.72367,39.69252],[-75.72356,39.68719],[-75.72772,39.68687],[-75.72708,39.68183],[-75.73077,39.6809],[-75.72915,39.67747],[-75.72897,39.67705],[-75.72825,39.67334],[-75.73091,39.67312],[-75.73245,39.6706],[-75.7362,39.66465],[-75.73516,39.66405],[-75.73688,39.66351],[-75.73823,39.66142],[-75.73847,39.66138],[-75.73836,39.661],[-75.74272,39.65937],[-75.74681,39.65836],[-75.74661,39.6574],[-75.74656,39.65665],[-75.74969,39.65637],[-75.75,39.65667],[-75.75059,39.65623],[-75.74975,39.65337],[-75.74601,39.65155],[-75.74475,39.65379],[-75.73998,39.65417],[-75.73975,39.65261],[-75.73635,39.65284],[-75.73637,39.65325],[-75.73578,39.65299],[-75.73365,39.65326],[-75.73231,39.64924],[-75.73517,39.64873],[-75.74166,39.6476],[-75.74456,39.64827],[-75.74903,39.64928],[-75.75164,39.65172],[-75.75447,39.65138],[-75.75377,39.64999],[-75.75901,39.64732],[-75.75879,39.6468],[-75.75743,39.64631],[-75.75726,39.6438],[-75.76006,39.64361],[-75.75988,39.64531],[-75.76178,39.64368],[-75.76208,39.64536],[-75.76423,39.64408],[-75.76397,39.6455],[-75.76582,39.646],[-75.76608,39.64798],[-75.76075,39.64843],[-75.76127,39.65165],[-75.76055,39.6517],[-75.76076,39.65335],[-75.76325,39.65301],[-75.76349,39.65375],[-75.76853,39.65296],[-75.76878,39.65522],[-75.77085,39.65824],[-75.77419,39.65707],[-75.78033,39.65185],[-75.7807,39.65162],[-75.78069,39.6519],[-75.7808,39.65241],[-75.781,39.6529],[-75.78152,39.65357],[-75.78206,39.65407],[-75.7822,39.6543],[-75.78811,39.64887],[-75.78843,39.65431],[-75.78843,39.65432],[-75.78866,39.65821],[-75.78866,39.65957],[-75.78687,39.65996],[-75.78439,39.65828],[-75.777,39.66478]],[[-75.77303,39.67396],[-75.76877,39.67747],[-75.77398,39.67587],[-75.77303,39.67396]]]]}}]}