{"type":"FeatureCollection","features":[{"type":"Feature","properties":{"name":"Hele-On Ka Ho\u02bbokele (Rural Door-to-Door Service)","boundary_type":"county","source":"Census TIGER county","fidelity":"approximate","updated":"2026-09","units":"Hawaii County","note":"Not a single contiguous zone: covers rural areas scattered across the Island of Hawai\u02bbi that fall outside Hele-On's regular fixed routes, including Seaview/Kalapana, Upper Puna, Waimea, Hilo, Kailua-Kona, and Captain Cook districts (island spans Puna to North Kona/South Kona, ~4,000 sq mi). No zone-size or unit-list source found beyond this district list, so shown as Hawai\u02bbi County with approximate fidelity rather than the individual CDPs, whose union left the CSV pin (a general island-interior coordinate) far outside any single polygon. Source: https://www.heleonbus.hawaiicounty.gov/programs/hele-on-ka-ho-okele-rural-door-to-door-service","confidence":0.5},"geometry":{"type":"Polygon","coordinates":[[[-156.05666,19.73283],[-156.05309,19.7367],[-156.05452,19.7477],[-156.05069,19.75059],[-156.04941,19.75809],[-156.05069,19.76169],[-156.05045,19.76303],[-156.0502,19.76445],[-156.04988,19.76621],[-156.04963,19.76764],[-156.04949,19.76921],[-156.04948,19.76933],[-156.04925,19.7719],[-156.04681,19.77683],[-156.04066,19.7818],[-156.03792,19.78089],[-156.03677,19.7824],[-156.03631,19.783],[-156.03657,19.78357],[-156.03826,19.78724],[-156.03386,19.7901],[-156.02659,19.79257],[-156.02614,19.79272],[-156.0247,19.79557],[-156.02126,19.79591],[-156.02073,19.79653],[-156.01257,19.80609],[-156.0068,19.80992],[-156.00606,19.81361],[-156.00096,19.81469],[-156.00145,19.81781],[-155.99816,19.81861],[-155.99667,19.82172],[-155.99735,19.8254],[-155.98969,19.8304],[-155.98654,19.83106],[-155.98585,19.83208],[-155.98619,19.8349],[-155.98114,19.83943],[-155.97958,19.8432],[-155.97299,19.84803],[-155.96136,19.8523],[-155.94951,19.85297],[-155.9453,19.85344],[-155.94247,19.85029],[-155.93709,19.84957],[-155.9221,19.85717],[-155.92403,19.86546],[-155.92326,19.87049],[-155.91926,19.87456],[-155.91549,19.87525],[-155.91235,19.88407],[-155.90839,19.88516],[-155.90549,19.88826],[-155.90441,19.89329],[-155.90457,19.89369],[-155.90594,19.897],[-155.90095,19.90033],[-155.90115,19.90464],[-155.89853,19.90899],[-155.89085,19.91197],[-155.88823,19.91524],[-155.89052,19.91853],[-155.89134,19.9248],[-155.89068,19.92862],[-155.8864,19.93278],[-155.88197,19.93547],[-155.87784,19.93465],[-155.87834,19.94162],[-155.87428,19.94493],[-155.87119,19.94716],[-155.86325,19.95215],[-155.86299,19.95279],[-155.85896,19.96293],[-155.85289,19.96838],[-155.84742,19.96905],[-155.84196,19.97308],[-155.83673,19.97352],[-155.8324,19.97393],[-155.83199,19.98189],[-155.83195,19.98277],[-155.83108,19.98649],[-155.82664,19.99082],[-155.82719,19.99582],[-155.82839,20.00055],[-155.82592,20.01149],[-155.825,20.01577],[-155.82303,20.01902],[-155.82306,20.02494],[-155.82308,20.02763],[-155.8292,20.02932],[-155.82968,20.03147],[-155.82745,20.03254],[-155.82707,20.03425],[-155.82708,20.03426],[-155.83357,20.04183],[-155.83824,20.04727],[-155.83899,20.0502],[-155.8433,20.05317],[-155.84395,20.05646],[-155.84868,20.0609],[-155.85038,20.06251],[-155.85511,20.06759],[-155.8593,20.07449],[-155.86262,20.07516],[-155.8645,20.07643],[-155.86572,20.08052],[-155.87089,20.08652],[-155.87576,20.0951],[-155.87944,20.10297],[-155.88353,20.10619],[-155.88283,20.11177],[-155.89139,20.12551],[-155.89265,20.13808],[-155.896,20.14342],[-155.89508,20.14906],[-155.89992,20.17003],[-155.90184,20.1852],[-155.90437,20.19612],[-155.90136,20.2061],[-155.9028,20.21333],[-155.89887,20.22487],[-155.89938,20.23009],[-155.89228,20.24127],[-155.8892,20.2435],[-155.88817,20.24764],[-155.88757,20.25003],[-155.88627,20.25181],[-155.88258,20.25683],[-155.87655,20.26104],[-155.86821,20.26509],[-155.86072,20.26584],[-155.85071,20.26804],[-155.84754,20.26505],[-155.83704,20.26703],[-155.8338,20.26438],[-155.83056,20.26359],[-155.82773,20.2607],[-155.82533,20.25983],[-155.82299,20.25899],[-155.81867,20.25962],[-155.81757,20.25851],[-155.81729,20.2584],[-155.81521,20.25762],[-155.81045,20.25671],[-155.8073,20.25611],[-155.80685,20.25492],[-155.80089,20.25178],[-155.79758,20.24817],[-155.79231,20.24934],[-155.79016,20.24838],[-155.78747,20.24718],[-155.78177,20.24464],[-155.77879,20.24198],[-155.7764,20.24252],[-155.77591,20.24263],[-155.7743,20.24299],[-155.77129,20.24644],[-155.76479,20.2421],[-155.76288,20.23966],[-155.76218,20.23876],[-155.75719,20.23876],[-155.75302,20.23615],[-155.74887,20.23073],[-155.74423,20.22936],[-155.737,20.22277],[-155.731,20.22003],[-155.73136,20.21488],[-155.73413,20.21065],[-155.72492,20.20163],[-155.70585,20.19058],[-155.69881,20.18671],[-155.68525,20.17927],[-155.6645,20.171],[-155.65165,20.16536],[-155.64018,20.15541],[-155.63861,20.14734],[-155.63431,20.1444],[-155.62766,20.14388],[-155.62076,20.14261],[-155.61339,20.13725],[-155.6078,20.13799],[-155.60222,20.12995],[-155.59803,20.12454],[-155.58907,20.11919],[-155.58559,20.11966],[-155.57767,20.12073],[-155.56657,20.12721],[-155.55611,20.12922],[-155.54887,20.12672],[-155.53145,20.12071],[-155.51679,20.11523],[-155.49684,20.11223],[-155.48077,20.10668],[-155.4649,20.10103],[-155.43782,20.09268],[-155.43511,20.09145],[-155.41255,20.08123],[-155.40206,20.07579],[-155.39853,20.07119],[-155.39021,20.06695],[-155.38212,20.06389],[-155.36692,20.05779],[-155.36225,20.05534],[-155.35874,20.0535],[-155.35535,20.05172],[-155.35487,20.05147],[-155.35454,20.0513],[-155.35076,20.04931],[-155.34548,20.0491],[-155.34077,20.0444],[-155.33021,20.03852],[-155.29851,20.02423],[-155.29096,20.02107],[-155.28464,20.01984],[-155.28028,20.01899],[-155.2687,20.0124],[-155.26232,20.00697],[-155.26189,20.00583],[-155.26067,20.00583],[-155.25894,20.00431],[-155.25654,20.00352],[-155.2516,20.00066],[-155.25147,20.00047],[-155.24803,19.99506],[-155.24222,19.99419],[-155.24155,19.99409],[-155.24116,19.99403],[-155.23998,19.99314],[-155.24068,19.99069],[-155.23833,19.9874],[-155.23074,19.98467],[-155.22416,19.98068],[-155.21351,19.97511],[-155.21315,19.97484],[-155.20564,19.96944],[-155.20316,19.96735],[-155.20182,19.96621],[-155.20166,19.9643],[-155.19689,19.96014],[-155.19615,19.95564],[-155.1886,19.95479],[-155.17726,19.94779],[-155.17564,19.94536],[-155.16334,19.93632],[-155.15063,19.92371],[-155.14557,19.91957],[-155.14147,19.91728],[-155.13504,19.90976],[-155.13307,19.90662],[-155.12836,19.90367],[-155.12866,19.90048],[-155.12861,19.90046],[-155.12734,19.89991],[-155.12542,19.90053],[-155.11899,19.88825],[-155.11995,19.88564],[-155.11903,19.88313],[-155.11619,19.88104],[-155.11189,19.8802],[-155.1097,19.8787],[-155.11046,19.87641],[-155.11052,19.8762],[-155.10512,19.86969],[-155.10508,19.86967],[-155.09735,19.86657],[-155.09306,19.86485],[-155.09271,19.86471],[-155.08852,19.85946],[-155.08837,19.85896],[-155.08757,19.8563],[-155.08754,19.8562],[-155.08669,19.85337],[-155.08335,19.85266],[-155.08322,19.85263],[-155.08316,19.85251],[-155.08075,19.84778],[-155.0843,19.84369],[-155.08229,19.83594],[-155.08741,19.81872],[-155.09263,19.80933],[-155.08994,19.80535],[-155.08931,19.80441],[-155.0865,19.80347],[-155.08778,19.79721],[-155.08998,19.79429],[-155.08946,19.78875],[-155.08609,19.78354],[-155.08681,19.77806],[-155.08741,19.77355],[-155.08952,19.76999],[-155.08913,19.76744],[-155.08885,19.76562],[-155.09021,19.75646],[-155.09039,19.75529],[-155.09041,19.75515],[-155.09073,19.75297],[-155.09004,19.74104],[-155.09002,19.73462],[-155.08992,19.7344],[-155.08712,19.72801],[-155.08704,19.72795],[-155.08665,19.72764],[-155.08313,19.72483],[-155.08194,19.72388],[-155.07122,19.7243],[-155.07053,19.72433],[-155.07029,19.72702],[-155.06397,19.72892],[-155.06078,19.72634],[-155.05366,19.73258],[-155.0461,19.73264],[-155.04437,19.7347],[-155.04106,19.73865],[-155.03108,19.73883],[-155.0287,19.73597],[-155.02513,19.73597],[-155.02109,19.73328],[-155.01583,19.73544],[-155.01468,19.73843],[-155.00352,19.73633],[-155.00128,19.73461],[-154.99728,19.72858],[-154.99666,19.72784],[-154.99303,19.72347],[-154.99246,19.72202],[-154.99054,19.71711],[-154.98717,19.70852],[-154.9842,19.70451],[-154.98116,19.69412],[-154.97807,19.68898],[-154.97902,19.68115],[-154.98263,19.67314],[-154.98297,19.6585],[-154.97903,19.6523],[-154.98164,19.64864],[-154.98246,19.64393],[-154.98088,19.63827],[-154.97523,19.63225],[-154.97182,19.63085],[-154.96752,19.62908],[-154.96393,19.6276],[-154.95941,19.6229],[-154.95636,19.62301],[-154.95444,19.62444],[-154.94942,19.62403],[-154.94517,19.62122],[-154.94517,19.62117],[-154.94525,19.6183],[-154.94826,19.61196],[-154.94801,19.61042],[-154.94785,19.60942],[-154.94715,19.60514],[-154.94711,19.60486],[-154.94689,19.6047],[-154.94619,19.6042],[-154.93957,19.59944],[-154.93352,19.5961],[-154.93275,19.59568],[-154.92966,19.59381],[-154.92602,19.5916],[-154.92163,19.58311],[-154.912,19.57973],[-154.90629,19.5719],[-154.90263,19.56836],[-154.89887,19.56679],[-154.89325,19.56444],[-154.88838,19.5624],[-154.88739,19.56126],[-154.88383,19.55718],[-154.87967,19.55591],[-154.8768,19.55596],[-154.87468,19.55599],[-154.86684,19.54905],[-154.8501,19.54646],[-154.83738,19.53835],[-154.83246,19.53506],[-154.82505,19.53488],[-154.81486,19.52932],[-154.81135,19.52678],[-154.80956,19.52238],[-154.80695,19.5195],[-154.80688,19.51814],[-154.80677,19.51604],[-154.8117,19.51209],[-154.81118,19.50657],[-154.81691,19.4891],[-154.8191,19.48631],[-154.81935,19.48166],[-154.82026,19.47886],[-154.82681,19.47123],[-154.8314,19.46826],[-154.83523,19.46168],[-154.86497,19.4361],[-154.87183,19.4327],[-154.8737,19.43178],[-154.87952,19.42562],[-154.88569,19.42283],[-154.88919,19.41557],[-154.90914,19.40654],[-154.92388,19.39466],[-154.92859,19.39484],[-154.93403,19.38418],[-154.9489,19.37262],[-154.96122,19.36206],[-154.9656,19.35832],[-154.9662,19.35764],[-154.96941,19.35403],[-154.97187,19.34994],[-154.98213,19.34475],[-154.98912,19.34121],[-155.00479,19.33326],[-155.01213,19.33218],[-155.0165,19.32852],[-155.01733,19.32783],[-155.04042,19.32054],[-155.04859,19.31427],[-155.06197,19.31124],[-155.07122,19.31166],[-155.07837,19.30563],[-155.08853,19.29761],[-155.09798,19.29494],[-155.1123,19.28591],[-155.12016,19.27944],[-155.12984,19.27398],[-155.13605,19.27362],[-155.14237,19.27332],[-155.14921,19.26922],[-155.1571,19.26527],[-155.16299,19.26435],[-155.16988,19.26547],[-155.17487,19.26408],[-155.18472,19.26326],[-155.18949,19.26027],[-155.19193,19.25612],[-155.19436,19.25739],[-155.19779,19.25808],[-155.20527,19.25749],[-155.20776,19.25646],[-155.22206,19.26071],[-155.22472,19.26025],[-155.2329,19.2626],[-155.23429,19.26579],[-155.24314,19.26868],[-155.2491,19.26786],[-155.25563,19.27053],[-155.25885,19.26934],[-155.26253,19.2712],[-155.27521,19.26615],[-155.28536,19.26537],[-155.29324,19.2639],[-155.30463,19.25533],[-155.31084,19.24749],[-155.31788,19.24246],[-155.33399,19.23494],[-155.33886,19.23108],[-155.33896,19.22899],[-155.34205,19.22543],[-155.34419,19.21966],[-155.34636,19.21754],[-155.34704,19.21455],[-155.35798,19.20653],[-155.37392,19.20001],[-155.38614,19.19864],[-155.39422,19.19457],[-155.39916,19.18833],[-155.40306,19.1871],[-155.4071,19.18732],[-155.41469,19.18475],[-155.41794,19.18038],[-155.42422,19.17618],[-155.43008,19.16719],[-155.44315,19.15773],[-155.44604,19.15259],[-155.45007,19.14905],[-155.46385,19.14399],[-155.46941,19.14454],[-155.47714,19.14172],[-155.48387,19.13833],[-155.49666,19.13611],[-155.50126,19.13486],[-155.5049,19.13239],[-155.50604,19.13161],[-155.50999,19.129],[-155.50967,19.12163],[-155.51474,19.11866],[-155.51737,19.11328],[-155.52254,19.1132],[-155.52585,19.11147],[-155.53296,19.10265],[-155.54154,19.0905],[-155.54288,19.08581],[-155.54922,19.08543],[-155.55303,19.08033],[-155.55492,19.07779],[-155.55336,19.07286],[-155.55293,19.06474],[-155.55176,19.05174],[-155.55389,19.04552],[-155.5585,19.03748],[-155.56515,19.02873],[-155.56873,19.02609],[-155.57584,19.02365],[-155.58002,19.01805],[-155.5849,19.00422],[-155.59029,18.9991],[-155.59373,18.99525],[-155.59376,18.97778],[-155.59699,18.97466],[-155.59919,18.9684],[-155.60612,18.96886],[-155.60951,18.96603],[-155.61291,18.96881],[-155.61957,18.96769],[-155.62175,18.96271],[-155.62237,18.95764],[-155.62247,18.95745],[-155.62317,18.95612],[-155.62627,18.95028],[-155.62734,18.94826],[-155.62742,18.94812],[-155.63183,18.94547],[-155.63225,18.94521],[-155.63252,18.94257],[-155.63264,18.94139],[-155.63539,18.93881],[-155.63811,18.93625],[-155.64339,18.93509],[-155.64599,18.93323],[-155.6496,18.92728],[-155.65124,18.92575],[-155.65277,18.92432],[-155.65477,18.92245],[-155.65758,18.92093],[-155.66127,18.91893],[-155.66383,18.91755],[-155.66905,18.91647],[-155.66982,18.91566],[-155.67307,18.9122],[-155.67742,18.91109],[-155.67758,18.91105],[-155.67861,18.91091],[-155.68096,18.9106],[-155.68279,18.91036],[-155.68337,18.9139],[-155.68402,18.91793],[-155.68287,18.92457],[-155.68398,18.93419],[-155.68808,18.9395],[-155.6969,18.9463],[-155.70129,18.94772],[-155.70572,18.95019],[-155.70731,18.95415],[-155.71485,18.96031],[-155.71922,18.96102],[-155.72361,18.96644],[-155.72905,18.96757],[-155.73484,18.96996],[-155.74131,18.97015],[-155.75474,18.97621],[-155.75919,18.97726],[-155.76311,18.98301],[-155.77559,18.98994],[-155.78586,18.99803],[-155.78973,18.99925],[-155.80101,19.01011],[-155.80731,19.01025],[-155.82744,19.01608],[-155.83519,19.01833],[-155.84392,19.0196],[-155.85045,19.0194],[-155.85444,19.02286],[-155.86105,19.02466],[-155.86705,19.02978],[-155.87959,19.03353],[-155.88155,19.03664],[-155.88144,19.04657],[-155.88329,19.05207],[-155.88628,19.05576],[-155.8901,19.0602],[-155.89724,19.07101],[-155.9036,19.07757],[-155.90678,19.07989],[-155.90729,19.08218],[-155.90769,19.08397],[-155.91107,19.09606],[-155.91829,19.11481],[-155.91693,19.12764],[-155.91818,19.13437],[-155.91424,19.13994],[-155.91118,19.14606],[-155.91025,19.15123],[-155.91463,19.15267],[-155.91643,19.15662],[-155.91205,19.16557],[-155.90863,19.16859],[-155.90827,19.1719],[-155.90775,19.17679],[-155.91049,19.18131],[-155.90804,19.18673],[-155.90564,19.20256],[-155.89928,19.21028],[-155.90118,19.21542],[-155.90221,19.22309],[-155.90072,19.23239],[-155.89729,19.24022],[-155.90063,19.24746],[-155.89935,19.25658],[-155.89581,19.2628],[-155.89154,19.27649],[-155.89129,19.28453],[-155.8887,19.28904],[-155.88967,19.29354],[-155.88833,19.29655],[-155.89005,19.30069],[-155.88778,19.3068],[-155.88769,19.31325],[-155.89067,19.31854],[-155.88966,19.32422],[-155.88518,19.3294],[-155.88524,19.33882],[-155.88672,19.34555],[-155.89054,19.35585],[-155.89879,19.37798],[-155.91086,19.39651],[-155.91042,19.39993],[-155.90488,19.41032],[-155.905,19.41046],[-155.90909,19.41546],[-155.90962,19.41596],[-155.91435,19.42042],[-155.91357,19.42153],[-155.91215,19.42357],[-155.9131,19.42537],[-155.91719,19.42604],[-155.91977,19.43043],[-155.92141,19.4359],[-155.92023,19.44577],[-155.92226,19.44915],[-155.92192,19.45318],[-155.92777,19.45881],[-155.92249,19.46541],[-155.92142,19.47154],[-155.91976,19.47535],[-155.92261,19.47861],[-155.92412,19.48141],[-155.92998,19.48296],[-155.93331,19.48252],[-155.93376,19.47931],[-155.93379,19.47911],[-155.93725,19.47907],[-155.94104,19.48308],[-155.94652,19.48316],[-155.95042,19.48665],[-155.9482,19.49547],[-155.95185,19.50492],[-155.95755,19.51411],[-155.96017,19.515],[-155.96021,19.52016],[-155.95596,19.52515],[-155.95591,19.52905],[-155.95586,19.53263],[-155.96117,19.55085],[-155.96457,19.55189],[-155.96668,19.55398],[-155.96553,19.55894],[-155.96394,19.55997],[-155.96395,19.56042],[-155.96398,19.56228],[-155.96791,19.56825],[-155.968,19.57768],[-155.96642,19.58052],[-155.97102,19.5871],[-155.97139,19.58763],[-155.97198,19.59459],[-155.97522,19.5985],[-155.97591,19.59933],[-155.97643,19.59995],[-155.97434,19.60304],[-155.97379,19.60386],[-155.97511,19.60529],[-155.97886,19.60933],[-155.98591,19.61694],[-155.98698,19.62075],[-155.98556,19.62332],[-155.98681,19.62526],[-155.98721,19.62587],[-155.99131,19.63225],[-155.9913,19.63616],[-155.99288,19.63724],[-155.99417,19.63812],[-155.99566,19.63914],[-155.99655,19.63882],[-156.00079,19.63724],[-156.00224,19.63809],[-156.01427,19.64511],[-156.01671,19.64757],[-156.02402,19.64737],[-156.02898,19.6501],[-156.03244,19.656],[-156.03114,19.66028],[-156.03099,19.66705],[-156.0279,19.66839],[-156.02784,19.6689],[-156.02743,19.67215],[-156.02684,19.6762],[-156.03242,19.67958],[-156.0351,19.6841],[-156.0342,19.68712],[-156.03599,19.6901],[-156.03608,19.69025],[-156.03913,19.69249],[-156.04436,19.69288],[-156.04507,19.69408],[-156.04796,19.69894],[-156.0481,19.69963],[-156.04859,19.70206],[-156.04906,19.70442],[-156.04947,19.71437],[-156.05248,19.71867],[-156.06151,19.72801],[-156.06076,19.73055],[-156.05666,19.73283]]]}}]}