{"type":"FeatureCollection","features":[{"type":"Feature","properties":{"name":"CorridorRides","boundary_type":"counties","source":"Census TIGER county","fidelity":"approximate","updated":"2026-09","units":"Benton County; Iowa County; Johnson County; Jones County; Linn County; Washington County","note":"Six-county service; within Linn and Johnson counties, service within 3/4 mi of fixed bus routes restricted to elderly/disabled (paratransit); majority of area is general-public","confidence":0.75},"geometry":{"type":"Polygon","coordinates":[[[-91.94671,41.36659],[-91.9467,41.37021],[-91.94661,41.38112],[-91.94645,41.41013],[-91.94664,41.42463],[-91.94622,41.45377],[-91.94614,41.46106],[-91.94604,41.51075],[-92.03728,41.51048],[-92.03933,41.51063],[-92.04251,41.51041],[-92.05167,41.51044],[-92.06506,41.5104],[-92.06986,41.51038],[-92.07644,41.51036],[-92.07893,41.51035],[-92.08192,41.51034],[-92.15662,41.51016],[-92.18178,41.51004],[-92.20087,41.51002],[-92.2246,41.5099],[-92.28764,41.50983],[-92.29749,41.50979],[-92.29763,41.54604],[-92.29763,41.54966],[-92.29766,41.56039],[-92.29778,41.59666],[-92.29781,41.60153],[-92.29949,41.60154],[-92.29961,41.62684],[-92.29965,41.62892],[-92.29965,41.64235],[-92.29995,41.68904],[-92.29995,41.6951],[-92.2998,41.6957],[-92.2998,41.69589],[-92.29995,41.72533],[-92.29993,41.72797],[-92.29991,41.73217],[-92.29987,41.73613],[-92.29971,41.74575],[-92.29945,41.76161],[-92.29924,41.77245],[-92.29919,41.77609],[-92.29896,41.79021],[-92.2991,41.79254],[-92.29882,41.79795],[-92.29875,41.81214],[-92.29869,41.81951],[-92.29816,41.86278],[-92.29801,41.88482],[-92.29801,41.89191],[-92.29803,41.89858],[-92.29811,41.90716],[-92.29778,41.93527],[-92.29766,41.94964],[-92.29775,41.96427],[-92.29728,41.97049],[-92.29727,41.97854],[-92.29771,41.99294],[-92.29848,42.0362],[-92.2987,42.04337],[-92.29884,42.06511],[-92.29913,42.0795],[-92.29912,42.12327],[-92.29915,42.1378],[-92.29932,42.16312],[-92.29922,42.17046],[-92.29915,42.18124],[-92.29884,42.21077],[-92.29879,42.29753],[-92.22039,42.29742],[-92.19642,42.2974],[-92.18143,42.29748],[-92.09388,42.29733],[-92.08421,42.29732],[-92.06477,42.29726],[-92.0625,42.29725],[-92.05062,42.29723],[-91.99692,42.29757],[-91.99684,42.29757],[-91.99153,42.29765],[-91.96507,42.29728],[-91.95919,42.29753],[-91.94811,42.29749],[-91.90913,42.29793],[-91.88953,42.29821],[-91.87001,42.29847],[-91.83109,42.29906],[-91.71444,42.29654],[-91.59698,42.29641],[-91.55836,42.29632],[-91.5192,42.29622],[-91.47999,42.29616],[-91.4711,42.29617],[-91.45113,42.29621],[-91.40753,42.29634],[-91.40253,42.29636],[-91.39791,42.29636],[-91.36326,42.29644],[-91.31062,42.29643],[-91.30872,42.2961],[-91.27002,42.29624],[-91.26635,42.29611],[-91.25969,42.29629],[-91.24724,42.29618],[-91.24673,42.29588],[-91.23723,42.296],[-91.21372,42.29596],[-91.13008,42.29576],[-91.12667,42.29576],[-91.12541,42.2958],[-91.12098,42.2958],[-91.05288,42.29575],[-91.02345,42.29571],[-91.01494,42.29572],[-91.01372,42.29577],[-91.00782,42.29577],[-91.00417,42.29573],[-90.99792,42.29564],[-90.99335,42.29566],[-90.98852,42.29557],[-90.97562,42.29578],[-90.97485,42.29554],[-90.97451,42.29547],[-90.93443,42.29512],[-90.93192,42.29531],[-90.89802,42.29524],[-90.89827,42.20772],[-90.89827,42.20647],[-90.89835,42.17243],[-90.89841,42.17124],[-90.89865,42.13509],[-90.89823,42.12059],[-90.89836,42.06245],[-90.89837,42.03355],[-90.89841,41.96826],[-90.89848,41.94624],[-90.9179,41.94629],[-90.9765,41.94669],[-91.00534,41.94663],[-91.01498,41.9466],[-91.01993,41.9466],[-91.08833,41.94668],[-91.13217,41.94678],[-91.21022,41.94708],[-91.23449,41.94718],[-91.24911,41.9472],[-91.30767,41.9472],[-91.32775,41.94718],[-91.36563,41.94739],[-91.36588,41.94741],[-91.36601,41.91827],[-91.36612,41.8939],[-91.36622,41.86007],[-91.36608,41.86007],[-91.36605,41.8185],[-91.36604,41.81654],[-91.36602,41.78371],[-91.36599,41.77292],[-91.36607,41.7292],[-91.36607,41.68558],[-91.36627,41.68188],[-91.36628,41.68093],[-91.36628,41.67833],[-91.3663,41.66735],[-91.36632,41.66621],[-91.36639,41.65646],[-91.36642,41.61678],[-91.36645,41.59837],[-91.36672,41.56847],[-91.3668,41.56121],[-91.36768,41.51033],[-91.36804,41.45538],[-91.36809,41.45516],[-91.36852,41.42318],[-91.386,41.42327],[-91.39157,41.42363],[-91.41218,41.42361],[-91.44239,41.42358],[-91.45383,41.42396],[-91.46185,41.42423],[-91.46326,41.42422],[-91.47585,41.42414],[-91.47721,41.42386],[-91.48399,41.42385],[-91.484,41.41864],[-91.48467,41.33684],[-91.48476,41.30779],[-91.48491,41.29324],[-91.48509,41.28102],[-91.48531,41.25683],[-91.48533,41.25356],[-91.48535,41.25146],[-91.48537,41.24965],[-91.48582,41.22067],[-91.48594,41.20603],[-91.48572,41.1624],[-91.51497,41.16268],[-91.53953,41.16274],[-91.54462,41.16295],[-91.56348,41.1631],[-91.60085,41.16356],[-91.71023,41.16282],[-91.71024,41.16282],[-91.71604,41.16281],[-91.71829,41.1628],[-91.72076,41.16278],[-91.7447,41.16238],[-91.74607,41.1624],[-91.76386,41.16218],[-91.82118,41.16156],[-91.83033,41.16154],[-91.83154,41.16153],[-91.85,41.16164],[-91.86023,41.1617],[-91.90755,41.16268],[-91.9364,41.16335],[-91.94557,41.16358],[-91.94464,41.22203],[-91.94474,41.23627],[-91.94476,41.24038],[-91.94509,41.25139],[-91.94693,41.33758],[-91.94681,41.35208],[-91.94675,41.35932],[-91.94669,41.36426],[-91.94671,41.36659]]]}},{"type":"Feature","properties":{"name":"DART On Demand","boundary_type":"city","source":"Census TIGER place","fidelity":"approximate","updated":"2026-09","units":"Ankeny city","note":"No published zone acreage/sq-mi figure found (checked ridedart.com/dart-demand-ankeny and ridedart.com/services); zone is a bounded sub-area of Ankeny defined by streets (NE 62nd Ave south, SE Four Mile Dr east, 36th St north, SW Irvinedale Dr west), so city limits are used as an approximate containing-unit proxy, not an exact match. Planned expansion to Clive, Urbandale, and Altoona zones fall 2026. Source: https://www.ridedart.com/dart-demand-ankeny","confidence":0.8},"geometry":{"type":"Polygon","coordinates":[[[-93.6631,41.74624],[-93.66301,41.76078],[-93.65856,41.76078],[-93.64859,41.76078],[-93.64888,41.76804],[-93.63921,41.76803],[-93.63951,41.77683],[-93.62486,41.77682],[-93.62461,41.7681],[-93.61975,41.76813],[-93.61965,41.7645],[-93.60998,41.76446],[-93.60446,41.76477],[-93.60446,41.76611],[-93.6003,41.76611],[-93.60051,41.7768],[-93.60046,41.78404],[-93.60035,41.79126],[-93.58101,41.79138],[-93.58097,41.7987],[-93.57049,41.79862],[-93.5711,41.79347],[-93.57243,41.79102],[-93.57084,41.78857],[-93.57116,41.78227],[-93.57134,41.77682],[-93.57132,41.77682],[-93.57098,41.76873],[-93.57137,41.76806],[-93.56066,41.76802],[-93.56081,41.74629],[-93.54145,41.74632],[-93.54156,41.73184],[-93.56088,41.73182],[-93.56084,41.7383],[-93.56625,41.73831],[-93.56922,41.73736],[-93.5694,41.73787],[-93.57045,41.73787],[-93.57115,41.74275],[-93.57043,41.74636],[-93.565,41.74632],[-93.565,41.74993],[-93.57341,41.74997],[-93.57407,41.74835],[-93.57542,41.74553],[-93.57713,41.74161],[-93.57744,41.73992],[-93.57703,41.73547],[-93.5705,41.73545],[-93.57051,41.73341],[-93.56845,41.73341],[-93.56846,41.73183],[-93.57052,41.73184],[-93.57042,41.72827],[-93.5657,41.7282],[-93.56567,41.72458],[-93.57139,41.72459],[-93.57047,41.72325],[-93.57057,41.71737],[-93.56886,41.71736],[-93.56885,41.71372],[-93.56089,41.71372],[-93.55251,41.71372],[-93.55216,41.71116],[-93.55093,41.70831],[-93.5561,41.7083],[-93.55635,41.70959],[-93.55765,41.70656],[-93.56068,41.70656],[-93.56082,41.70705],[-93.56089,41.71003],[-93.56447,41.71004],[-93.56449,41.70649],[-93.56209,41.70648],[-93.56212,41.70287],[-93.56081,41.70286],[-93.55796,41.70275],[-93.55466,41.70289],[-93.55468,41.69923],[-93.55378,41.69561],[-93.54903,41.6956],[-93.54644,41.69383],[-93.54967,41.69198],[-93.55379,41.69196],[-93.5538,41.69105],[-93.5552,41.69105],[-93.55519,41.69318],[-93.56074,41.69319],[-93.56102,41.69268],[-93.56105,41.69058],[-93.56143,41.68834],[-93.56144,41.68831],[-93.56106,41.68487],[-93.56108,41.68388],[-93.55931,41.68389],[-93.55921,41.68245],[-93.56107,41.68246],[-93.56107,41.68228],[-93.55934,41.68196],[-93.55927,41.68153],[-93.55842,41.68135],[-93.55843,41.68088],[-93.55815,41.68087],[-93.5582,41.6801],[-93.56107,41.67968],[-93.56107,41.67911],[-93.55682,41.6793],[-93.55621,41.67299],[-93.55621,41.66936],[-93.56106,41.66931],[-93.56105,41.65533],[-93.56196,41.65486],[-93.56589,41.65489],[-93.56589,41.65365],[-93.56589,41.65353],[-93.57553,41.65212],[-93.57548,41.65349],[-93.57552,41.66198],[-93.57765,41.67077],[-93.57781,41.67322],[-93.58125,41.67328],[-93.58606,41.67323],[-93.5861,41.67686],[-93.58612,41.6805],[-93.591,41.68046],[-93.59097,41.6884],[-93.59332,41.68839],[-93.59102,41.69563],[-93.58605,41.69563],[-93.58604,41.70165],[-93.58776,41.70166],[-93.59003,41.70142],[-93.59115,41.70075],[-93.59113,41.69719],[-93.5926,41.69306],[-93.59354,41.69246],[-93.60064,41.69201],[-93.60064,41.69246],[-93.59903,41.69246],[-93.59889,41.69286],[-93.59889,41.69391],[-93.59958,41.69391],[-93.59958,41.69416],[-93.60065,41.69416],[-93.60069,41.69473],[-93.60356,41.69473],[-93.60463,41.69324],[-93.60189,41.69208],[-93.6019,41.68959],[-93.60738,41.68838],[-93.61559,41.68836],[-93.61544,41.69345],[-93.61654,41.69252],[-93.61915,41.69259],[-93.62016,41.69257],[-93.62093,41.69561],[-93.62255,41.6956],[-93.62462,41.69682],[-93.62436,41.69063],[-93.62854,41.69063],[-93.62854,41.69177],[-93.63185,41.69206],[-93.63321,41.69391],[-93.63449,41.69354],[-93.63447,41.69561],[-93.63704,41.69559],[-93.6382,41.69738],[-93.63885,41.69748],[-93.63885,41.69765],[-93.63819,41.69756],[-93.63797,41.70162],[-93.63797,41.70166],[-93.63797,41.70174],[-93.63797,41.70178],[-93.63796,41.70275],[-93.6387,41.70287],[-93.63944,41.69558],[-93.64903,41.69559],[-93.64903,41.69919],[-93.65301,41.69919],[-93.65257,41.70179],[-93.65046,41.70183],[-93.64899,41.70212],[-93.64892,41.70793],[-93.64866,41.70798],[-93.64742,41.70822],[-93.64611,41.71004],[-93.63921,41.71009],[-93.63959,41.71718],[-93.63918,41.71732],[-93.63922,41.72189],[-93.64199,41.72092],[-93.647,41.7209],[-93.64702,41.72451],[-93.65363,41.72448],[-93.65361,41.72825],[-93.65593,41.72824],[-93.65594,41.72577],[-93.65844,41.72618],[-93.65841,41.73165],[-93.66831,41.73171],[-93.66918,41.73621],[-93.6713,41.73824],[-93.67277,41.73942],[-93.67271,41.74624],[-93.6631,41.74624]],[[-93.64008,41.72994],[-93.64008,41.72852],[-93.63922,41.72851],[-93.63911,41.72983],[-93.63912,41.73018],[-93.63911,41.73171],[-93.6393,41.73223],[-93.64102,41.73223],[-93.64105,41.73176],[-93.64391,41.73174],[-93.64394,41.72994],[-93.64008,41.72994]],[[-93.60069,41.69735],[-93.60069,41.69822],[-93.60165,41.69823],[-93.60166,41.69736],[-93.60069,41.69735]]]}},{"type":"Feature","properties":{"name":"EASE (East Ames Service Extension)","boundary_type":"city","source":"Census TIGER place","fidelity":"approximate","updated":"2026-09","units":"Ames city","note":"East Ames on-demand zone within city limits; includes pickups at Ames City Hall for transfers","confidence":0.7},"geometry":{"type":"Polygon","coordinates":[[[-93.68623,42.02992],[-93.68603,42.02649],[-93.68838,42.02645],[-93.68837,42.02309],[-93.68469,42.02328],[-93.68473,42.02831],[-93.68604,42.02832],[-93.68605,42.03006],[-93.68829,42.03004],[-93.68822,42.03451],[-93.69599,42.03455],[-93.69708,42.03893],[-93.68356,42.03746],[-93.68356,42.03771],[-93.68352,42.03771],[-93.67145,42.03654],[-93.6715,42.03812],[-93.66895,42.03813],[-93.66892,42.04535],[-93.66401,42.04536],[-93.66399,42.04758],[-93.65912,42.04758],[-93.65908,42.04885],[-93.6592,42.05623],[-93.65628,42.05624],[-93.6571,42.05667],[-93.65809,42.05724],[-93.65922,42.05693],[-93.66103,42.05794],[-93.66677,42.05785],[-93.66815,42.06144],[-93.66414,42.06165],[-93.66415,42.06347],[-93.66899,42.06346],[-93.66902,42.06969],[-93.66678,42.06901],[-93.66672,42.07079],[-93.65937,42.07072],[-93.65934,42.06708],[-93.66094,42.06708],[-93.66094,42.06591],[-93.65934,42.0653],[-93.65932,42.06345],[-93.64772,42.06352],[-93.64314,42.0574],[-93.64731,42.06351],[-93.64897,42.06588],[-93.64942,42.06711],[-93.64949,42.07612],[-93.64485,42.0761],[-93.64486,42.07791],[-93.62692,42.07794],[-93.62703,42.07548],[-93.62551,42.07555],[-93.6255,42.07363],[-93.62218,42.07238],[-93.62339,42.06706],[-93.62394,42.06254],[-93.62395,42.06248],[-93.62404,42.06173],[-93.62201,42.06174],[-93.62185,42.0613],[-93.62015,42.06129],[-93.61979,42.06251],[-93.61975,42.06342],[-93.6158,42.06341],[-93.61575,42.06004],[-93.61573,42.05829],[-93.61788,42.05831],[-93.61633,42.05628],[-93.61428,42.0571],[-93.61369,42.05505],[-93.61524,42.05295],[-93.61227,42.05213],[-93.61217,42.05193],[-93.6121,42.0513],[-93.61196,42.05114],[-93.6116,42.05114],[-93.61077,42.05114],[-93.61073,42.04935],[-93.60997,42.04934],[-93.60346,42.04917],[-93.6034,42.04578],[-93.60104,42.04576],[-93.59611,42.04574],[-93.60058,42.04543],[-93.60057,42.03909],[-93.59606,42.03905],[-93.59683,42.03701],[-93.596,42.03503],[-93.59598,42.03448],[-93.59442,42.03444],[-93.59324,42.0344],[-93.58915,42.03447],[-93.58906,42.0361],[-93.58641,42.03609],[-93.58639,42.04173],[-93.58639,42.04891],[-93.58508,42.04889],[-93.58152,42.04891],[-93.58152,42.04902],[-93.58148,42.05423],[-93.57031,42.05409],[-93.57035,42.04174],[-93.56958,42.04175],[-93.56052,42.04181],[-93.56055,42.0346],[-93.55443,42.03463],[-93.55438,42.03062],[-93.55261,42.03063],[-93.53134,42.02956],[-93.53005,42.02949],[-93.52157,42.02902],[-93.52157,42.0287],[-93.52142,42.02313],[-93.52625,42.02311],[-93.52622,42.01226],[-93.53107,42.01224],[-93.53108,42.01592],[-93.54581,42.01582],[-93.5458,42.01433],[-93.54085,42.01435],[-93.54254,42.0124],[-93.54254,42.00899],[-93.55076,42.00898],[-93.55073,42.01581],[-93.57183,42.01563],[-93.57171,42.01267],[-93.57251,42.00985],[-93.57575,42.0078],[-93.58116,42.00734],[-93.5812,42.0071],[-93.58119,42.00664],[-93.57973,42.00673],[-93.57971,42.0052],[-93.58112,42.00518],[-93.58112,42.00408],[-93.58116,42.00393],[-93.58685,42.00506],[-93.59086,42.00582],[-93.59421,42.00563],[-93.59378,42.0039],[-93.59114,41.99887],[-93.59146,41.99739],[-93.59561,41.99739],[-93.5956,41.98668],[-93.59558,41.98603],[-93.61018,41.98601],[-93.61122,41.98601],[-93.61163,41.98932],[-93.61748,41.98927],[-93.6189,41.99017],[-93.61983,41.98779],[-93.61983,41.9793],[-93.62361,41.9793],[-93.62446,41.97494],[-93.62944,41.97599],[-93.62948,41.9804],[-93.62795,41.98037],[-93.62809,41.98655],[-93.6393,41.98656],[-93.6462,41.98658],[-93.64895,41.98319],[-93.64899,41.98659],[-93.65385,41.9866],[-93.65395,41.99382],[-93.66493,41.99386],[-93.6616,41.99564],[-93.6633,41.99564],[-93.66325,41.99852],[-93.65922,41.99848],[-93.6588,42.00002],[-93.65765,41.99842],[-93.65604,41.99883],[-93.6552,42.00078],[-93.65256,42.00359],[-93.64921,42.00563],[-93.64921,42.00646],[-93.65111,42.00646],[-93.65529,42.00647],[-93.65533,42.00349],[-93.65889,42.00347],[-93.65888,42.00287],[-93.65887,42.00281],[-93.65888,42.00235],[-93.65888,42.00106],[-93.66866,42.00118],[-93.66873,42.00697],[-93.67318,42.00715],[-93.67493,42.00747],[-93.67861,42.00857],[-93.69869,42.01458],[-93.69871,42.0155],[-93.69627,42.01553],[-93.69322,42.01556],[-93.69321,42.02282],[-93.69874,42.02277],[-93.69872,42.02997],[-93.68623,42.02992]],[[-93.65423,41.99708],[-93.65403,42.00062],[-93.65469,42.00081],[-93.65475,41.99846],[-93.65478,41.99705],[-93.65423,41.99708]],[[-93.63998,42.06701],[-93.64,42.06507],[-93.63754,42.0638],[-93.63754,42.06715],[-93.63998,42.06716],[-93.64,42.06902],[-93.64001,42.07077],[-93.64485,42.07073],[-93.64484,42.06713],[-93.63998,42.06701]]]}},{"type":"Feature","properties":{"name":"HIRTA On-Demand","boundary_type":"counties","source":"Census TIGER county","fidelity":"exact","updated":"2026-09","units":"Boone County; Dallas County; Jasper County; Madison County; Marion County; Story County; Warren County","note":"Door-to-door service across seven-county region; FTA ITS4US deployment site","confidence":1.0},"geometry":{"type":"Polygon","coordinates":[[[-94.24159,41.50368],[-94.24158,41.50917],[-94.24152,41.50964],[-94.24142,41.52184],[-94.24137,41.56162],[-94.24136,41.57605],[-94.24136,41.60097],[-94.28006,41.60131],[-94.28,41.61495],[-94.27999,41.61529],[-94.27997,41.62285],[-94.28,41.62578],[-94.27992,41.63735],[-94.27992,41.64569],[-94.2805,41.68833],[-94.28067,41.73171],[-94.28072,41.77657],[-94.2807,41.79098],[-94.28053,41.8344],[-94.28034,41.863],[-94.26067,41.86305],[-94.25111,41.86313],[-94.2503,41.86308],[-94.24929,41.86315],[-94.20263,41.86333],[-94.17386,41.86332],[-94.16443,41.86324],[-94.16438,41.88496],[-94.16452,41.92121],[-94.16456,41.95017],[-94.1645,41.97912],[-94.16456,42.02254],[-94.1646,42.0346],[-94.16468,42.06356],[-94.16472,42.09251],[-94.16476,42.12281],[-94.16484,42.14451],[-94.16491,42.15161],[-94.16479,42.18074],[-94.1647,42.20992],[-94.04782,42.20995],[-93.97978,42.20985],[-93.93158,42.20991],[-93.84494,42.20968],[-93.81573,42.2096],[-93.74715,42.20943],[-93.71786,42.20937],[-93.69839,42.20934],[-93.62019,42.20932],[-93.59102,42.20923],[-93.5813,42.20918],[-93.57141,42.20925],[-93.57061,42.20915],[-93.54424,42.20928],[-93.54306,42.20936],[-93.54198,42.20928],[-93.46304,42.2093],[-93.45369,42.20931],[-93.43423,42.20923],[-93.38556,42.20927],[-93.37586,42.20915],[-93.34661,42.20923],[-93.33886,42.2092],[-93.27551,42.20906],[-93.26579,42.20903],[-93.24611,42.20901],[-93.23201,42.20901],[-93.23172,42.20889],[-93.23154,42.12238],[-93.23169,42.03421],[-93.23176,41.9753],[-93.23176,41.97164],[-93.23175,41.96443],[-93.23172,41.94996],[-93.23176,41.92773],[-93.2318,41.9169],[-93.23184,41.86639],[-93.23186,41.86271],[-93.1162,41.86265],[-93.09684,41.86263],[-93.05795,41.86263],[-93.0573,41.86261],[-93.04825,41.86263],[-93.01916,41.86254],[-92.99978,41.86248],[-92.88322,41.86238],[-92.79506,41.86238],[-92.766,41.86237],[-92.76612,41.86182],[-92.76649,41.85577],[-92.76602,41.84132],[-92.76603,41.79052],[-92.76613,41.776],[-92.76618,41.75349],[-92.76629,41.73632],[-92.76633,41.72652],[-92.76667,41.72194],[-92.76639,41.7172],[-92.76636,41.69555],[-92.76644,41.69493],[-92.76643,41.68812],[-92.76657,41.63772],[-92.76653,41.62332],[-92.76676,41.60135],[-92.75707,41.60141],[-92.75666,41.53052],[-92.75651,41.50879],[-92.77138,41.50873],[-92.79542,41.50875],[-92.8676,41.50853],[-92.87142,41.50852],[-92.8713,41.46402],[-92.871,41.42188],[-92.87097,41.41482],[-92.87095,41.412],[-92.87092,41.40755],[-92.8709,41.40035],[-92.87089,41.39539],[-92.87088,41.39359],[-92.87084,41.38583],[-92.87061,41.34057],[-92.87063,41.33501],[-92.87075,41.30661],[-92.87082,41.29934],[-92.87083,41.29859],[-92.87089,41.27021],[-92.87084,41.26282],[-92.87068,41.25],[-92.8704,41.24837],[-92.8702,41.22628],[-92.86977,41.16107],[-92.87302,41.16107],[-92.87898,41.16085],[-92.98442,41.1608],[-92.99422,41.16083],[-93.09922,41.16087],[-93.18042,41.16087],[-93.1851,41.16088],[-93.21314,41.16076],[-93.25144,41.16077],[-93.32789,41.16066],[-93.33881,41.16058],[-93.34034,41.16058],[-93.42262,41.16062],[-93.42333,41.16063],[-93.44176,41.16054],[-93.4516,41.16055],[-93.46126,41.16058],[-93.46629,41.16067],[-93.54024,41.16119],[-93.54183,41.16131],[-93.54343,41.16122],[-93.55756,41.16127],[-93.59639,41.16155],[-93.67328,41.16179],[-93.67813,41.16179],[-93.68024,41.16171],[-93.7842,41.16208],[-93.7892,41.16204],[-93.79364,41.16167],[-93.80835,41.16116],[-93.86381,41.15804],[-93.87522,41.15777],[-93.88464,41.15711],[-93.8848,41.15717],[-93.88563,41.15724],[-93.89881,41.15661],[-93.91743,41.15666],[-93.91771,41.15653],[-93.97535,41.15673],[-94.01419,41.15676],[-94.07103,41.15674],[-94.0737,41.15667],[-94.09048,41.15677],[-94.12786,41.15684],[-94.14707,41.1568],[-94.166,41.15705],[-94.18166,41.15666],[-94.18491,41.15701],[-94.24164,41.15713],[-94.2417,41.24374],[-94.24156,41.3016],[-94.24139,41.3305],[-94.24143,41.33609],[-94.24147,41.33776],[-94.2415,41.34139],[-94.24147,41.35577],[-94.24148,41.35938],[-94.24147,41.37376],[-94.24145,41.38821],[-94.2413,41.41126],[-94.24153,41.41712],[-94.24172,41.42246],[-94.24152,41.4268],[-94.24145,41.46054],[-94.24159,41.50368]],[[-93.78077,41.51195],[-93.77953,41.51196],[-93.7705,41.51199],[-93.76568,41.51199],[-93.74158,41.512],[-93.73196,41.51209],[-93.70732,41.51207],[-93.6981,41.51198],[-93.67428,41.51206],[-93.65889,41.51206],[-93.65461,41.51206],[-93.64493,41.51209],[-93.63517,41.51207],[-93.62564,41.51205],[-93.61599,41.51197],[-93.60638,41.51191],[-93.5967,41.51184],[-93.58042,41.5117],[-93.57734,41.51165],[-93.55821,41.51148],[-93.54891,41.51132],[-93.54824,41.51131],[-93.54413,41.51116],[-93.5348,41.51081],[-93.51917,41.51014],[-93.51857,41.51012],[-93.51034,41.50982],[-93.49315,41.50919],[-93.48984,41.5091],[-93.48146,41.50886],[-93.4718,41.50858],[-93.46219,41.50807],[-93.44291,41.50763],[-93.44129,41.50759],[-93.4423,41.50614],[-93.44206,41.50457],[-93.44023,41.50255],[-93.4367,41.50228],[-93.43118,41.50491],[-93.42768,41.50505],[-93.42611,41.50584],[-93.42488,41.50749],[-93.41384,41.50742],[-93.41335,41.50412],[-93.41539,41.50031],[-93.41876,41.49805],[-93.42123,41.49688],[-93.42258,41.49499],[-93.42062,41.49253],[-93.41831,41.49199],[-93.41426,41.49236],[-93.41151,41.49351],[-93.40978,41.49501],[-93.40752,41.49901],[-93.40445,41.50161],[-93.40311,41.50205],[-93.40013,41.50201],[-93.3972,41.49985],[-93.39651,41.4981],[-93.39663,41.4963],[-93.3976,41.49383],[-93.39887,41.49256],[-93.40357,41.49105],[-93.40546,41.48977],[-93.4059,41.48844],[-93.40467,41.48674],[-93.39951,41.48615],[-93.39717,41.48636],[-93.39238,41.48839],[-93.39019,41.49024],[-93.38934,41.49224],[-93.38783,41.49377],[-93.38381,41.4948],[-93.37931,41.49465],[-93.37481,41.49329],[-93.3733,41.49065],[-93.37304,41.48676],[-93.37203,41.48607],[-93.36349,41.48658],[-93.35992,41.4878],[-93.35836,41.48976],[-93.35805,41.49302],[-93.35907,41.49634],[-93.35725,41.49802],[-93.35604,41.49816],[-93.35253,41.49689],[-93.35173,41.49341],[-93.34822,41.48668],[-93.34793,41.4843],[-93.34686,41.48283],[-93.34381,41.48184],[-93.34079,41.482],[-93.33933,41.48272],[-93.33506,41.4874],[-93.32957,41.48995],[-93.32841,41.49079],[-93.32848,41.49257],[-93.32861,41.50782],[-93.3289,41.53431],[-93.32885,41.58428],[-93.32868,41.60115],[-93.34868,41.601],[-93.34859,41.61918],[-93.34853,41.6417],[-93.34851,41.64792],[-93.34846,41.65881],[-93.34848,41.66604],[-93.34846,41.66824],[-93.34845,41.67175],[-93.34844,41.67325],[-93.34836,41.67683],[-93.34846,41.68074],[-93.34846,41.68096],[-93.34845,41.68442],[-93.34851,41.68841],[-93.34847,41.71732],[-93.34823,41.72029],[-93.34832,41.74647],[-93.34814,41.77664],[-93.34815,41.80558],[-93.34806,41.83448],[-93.34806,41.83476],[-93.34793,41.8631],[-93.46344,41.86321],[-93.47316,41.86317],[-93.48303,41.86311],[-93.49269,41.86312],[-93.57116,41.86321],[-93.58088,41.86322],[-93.60038,41.86321],[-93.61997,41.86321],[-93.67835,41.86337],[-93.68809,41.86337],[-93.69803,41.86337],[-93.70284,41.86335],[-93.70779,41.86336],[-93.73709,41.86339],[-93.77617,41.86347],[-93.81572,41.86342],[-93.8157,41.85011],[-93.81559,41.84945],[-93.81535,41.84569],[-93.81505,41.8071],[-93.81503,41.80425],[-93.81503,41.80398],[-93.81499,41.79861],[-93.81489,41.77693],[-93.81475,41.76833],[-93.81467,41.76111],[-93.81458,41.75211],[-93.81458,41.75205],[-93.8146,41.75082],[-93.8148,41.75028],[-93.81463,41.73193],[-93.81442,41.71847],[-93.81454,41.71746],[-93.81451,41.71017],[-93.81445,41.70292],[-93.81443,41.69568],[-93.81442,41.69361],[-93.81441,41.68843],[-93.81444,41.67658],[-93.81446,41.67294],[-93.81446,41.66565],[-93.81442,41.65297],[-93.81441,41.65111],[-93.81434,41.64385],[-93.81433,41.63298],[-93.81443,41.62942],[-93.81432,41.62206],[-93.8143,41.61487],[-93.81427,41.60973],[-93.81426,41.60769],[-93.81427,41.60317],[-93.81428,41.60046],[-93.80888,41.60046],[-93.80085,41.60044],[-93.79433,41.60041],[-93.79063,41.60043],[-93.7906,41.59207],[-93.7906,41.5896],[-93.79055,41.5844],[-93.79053,41.57734],[-93.79053,41.57536],[-93.79052,41.57126],[-93.79051,41.56369],[-93.79053,41.55906],[-93.79062,41.5438],[-93.79053,41.53549],[-93.79052,41.53539],[-93.79052,41.53339],[-93.79061,41.51192],[-93.78248,41.51195],[-93.78077,41.51195]]]}},{"type":"Feature","properties":{"name":"MIDAS Regional Transit","boundary_type":"counties","source":"Census TIGER county","fidelity":"exact","updated":"2026-09","units":"Calhoun County; Hamilton County; Humboldt County; Pocahontas County; Webster County; Wright County","note":"Six-county Region 5 service; general public confirmed on operator website; same-day available at premium fare","confidence":1.0},"geometry":{"type":"Polygon","coordinates":[[[-93.46263,42.4708],[-93.46284,42.44857],[-93.46291,42.42707],[-93.46289,42.38369],[-93.46298,42.325],[-93.46289,42.31049],[-93.46288,42.296],[-93.4631,42.2383],[-93.46304,42.2093],[-93.54198,42.20928],[-93.54306,42.20936],[-93.54424,42.20928],[-93.57061,42.20915],[-93.57141,42.20925],[-93.5813,42.20918],[-93.59102,42.20923],[-93.62019,42.20932],[-93.69839,42.20934],[-93.71786,42.20937],[-93.74715,42.20943],[-93.81573,42.2096],[-93.84494,42.20968],[-93.93158,42.20991],[-93.97978,42.20985],[-94.04782,42.20995],[-94.1647,42.20992],[-94.20361,42.20989],[-94.28127,42.20964],[-94.30066,42.20959],[-94.30101,42.20961],[-94.37869,42.20907],[-94.39756,42.20913],[-94.39753,42.20916],[-94.43637,42.2093],[-94.5131,42.20932],[-94.52282,42.20927],[-94.53248,42.20937],[-94.61014,42.20954],[-94.62859,42.20957],[-94.62881,42.2094],[-94.64507,42.20943],[-94.64826,42.20954],[-94.7449,42.20952],[-94.75026,42.20933],[-94.78385,42.20968],[-94.85841,42.20969],[-94.85823,42.29627],[-94.85815,42.29982],[-94.85806,42.3038],[-94.85798,42.31099],[-94.8579,42.31827],[-94.85783,42.32522],[-94.85775,42.33257],[-94.85759,42.34717],[-94.85712,42.38496],[-94.85699,42.4202],[-94.85699,42.42064],[-94.85695,42.42535],[-94.85695,42.42761],[-94.85693,42.42839],[-94.85669,42.474],[-94.91449,42.47419],[-94.91451,42.51779],[-94.91454,42.52508],[-94.91467,42.55706],[-94.91448,42.56031],[-94.91529,42.61828],[-94.91556,42.64713],[-94.91536,42.66529],[-94.91409,42.72696],[-94.91393,42.73444],[-94.91385,42.74883],[-94.91386,42.79244],[-94.91386,42.80695],[-94.91386,42.82178],[-94.91386,42.82907],[-94.91384,42.85537],[-94.91389,42.90396],[-94.91389,42.9097],[-94.79688,42.90913],[-94.79186,42.90913],[-94.7771,42.90913],[-94.76739,42.90913],[-94.67874,42.90887],[-94.67795,42.90886],[-94.65881,42.909],[-94.6196,42.9091],[-94.60981,42.90907],[-94.5999,42.90907],[-94.58027,42.909],[-94.5605,42.90893],[-94.55102,42.9088],[-94.5412,42.90874],[-94.53142,42.90861],[-94.52145,42.90849],[-94.44295,42.90807],[-94.40872,42.90809],[-94.40376,42.90809],[-94.32493,42.90801],[-94.31547,42.90803],[-94.24658,42.90817],[-94.2271,42.90824],[-94.21067,42.90818],[-94.20767,42.90817],[-94.18809,42.90819],[-94.15872,42.90826],[-94.1489,42.90829],[-94.10464,42.90825],[-94.08988,42.9082],[-94.08972,42.9082],[-94.06929,42.90808],[-93.98098,42.9078],[-93.97124,42.90776],[-93.96054,42.90782],[-93.93073,42.90799],[-93.89163,42.90831],[-93.88233,42.90842],[-93.88166,42.90841],[-93.87522,42.90831],[-93.87191,42.90849],[-93.85234,42.90855],[-93.75382,42.90859],[-93.73412,42.90802],[-93.72465,42.90858],[-93.7052,42.90852],[-93.68546,42.90846],[-93.61655,42.90854],[-93.52832,42.90861],[-93.49862,42.90851],[-93.4986,42.89961],[-93.49862,42.85612],[-93.49862,42.85594],[-93.49872,42.81966],[-93.49872,42.78936],[-93.49869,42.77121],[-93.49875,42.75317],[-93.49886,42.73133],[-93.49916,42.66654],[-93.49922,42.65199],[-93.4992,42.64464],[-93.49944,42.61384],[-93.49954,42.60851],[-93.49948,42.5577],[-93.4991,42.47098],[-93.46263,42.4708]]]}},{"type":"Feature","properties":{"name":"NTS (Neighborhood Transportation Service)","boundary_type":"places","source":"Census TIGER place","fidelity":"exact","updated":"2026-09","units":"Cedar Rapids city; Marion city; Hiawatha city","note":"Service covers three named cities in Linn County. Operates during hours when fixed-route buses don't run.","confidence":0.9},"geometry":{"type":"Polygon","coordinates":[[[-91.7743,41.97398],[-91.76647,41.97345],[-91.76647,41.97535],[-91.76478,41.97532],[-91.76478,41.97868],[-91.77455,41.97876],[-91.77454,41.98076],[-91.77451,41.98507],[-91.77266,41.98505],[-91.77265,41.986],[-91.7745,41.98602],[-91.7745,42.0006],[-91.77452,42.008],[-91.76963,42.00792],[-91.7696,42.00425],[-91.76171,42.00416],[-91.76079,42.00123],[-91.76041,42.0005],[-91.75817,41.99789],[-91.75902,41.99756],[-91.75898,41.9968],[-91.76471,41.99686],[-91.76475,42.00055],[-91.76954,42.00057],[-91.76964,41.98234],[-91.7599,41.98227],[-91.7599,41.98332],[-91.75722,41.9833],[-91.75722,41.98226],[-91.75503,41.98225],[-91.75502,41.9786],[-91.75014,41.97854],[-91.75011,41.97583],[-91.74807,41.97581],[-91.74807,41.97715],[-91.74752,41.97714],[-91.74752,41.97851],[-91.7442,41.97847],[-91.74034,41.97848],[-91.74033,41.98213],[-91.74248,41.98213],[-91.74248,41.98477],[-91.73543,41.98304],[-91.73386,41.98209],[-91.73394,41.9837],[-91.73543,41.98438],[-91.73546,41.99146],[-91.73178,41.99097],[-91.73357,41.99248],[-91.73374,41.99506],[-91.7314,41.99507],[-91.73139,41.99628],[-91.72979,41.9966],[-91.72975,41.99352],[-91.72813,41.99352],[-91.72818,41.99688],[-91.72483,41.99793],[-91.71839,42.00212],[-91.7183,41.99655],[-91.71608,41.99653],[-91.71609,42.0048],[-91.7161,42.00649],[-91.71991,42.00383],[-91.72412,42.00023],[-91.72887,41.99826],[-91.73107,41.99787],[-91.73287,41.99768],[-91.73363,41.99801],[-91.73539,41.9994],[-91.73788,42.00201],[-91.73863,42.00303],[-91.73905,42.00362],[-91.74118,42.00481],[-91.7434,42.00649],[-91.74458,42.00763],[-91.74508,42.00789],[-91.74593,42.00838],[-91.74504,42.01007],[-91.74326,42.01038],[-91.74327,42.01245],[-91.74152,42.01317],[-91.73972,42.01483],[-91.73515,42.01483],[-91.73507,42.01866],[-91.73253,42.02083],[-91.73103,42.02143],[-91.72546,42.02192],[-91.72559,42.01476],[-91.72442,42.01475],[-91.72443,42.0155],[-91.72185,42.01548],[-91.72176,42.01831],[-91.72083,42.0183],[-91.7209,42.01474],[-91.71618,42.01473],[-91.71617,42.01604],[-91.71618,42.02197],[-91.71939,42.02204],[-91.71938,42.02441],[-91.71825,42.02553],[-91.7167,42.02583],[-91.71615,42.02656],[-91.71615,42.02561],[-91.71205,42.02555],[-91.71208,42.02805],[-91.71457,42.02828],[-91.71513,42.0283],[-91.71827,42.0257],[-91.72082,42.02573],[-91.72169,42.02446],[-91.72082,42.02404],[-91.72114,42.02208],[-91.72366,42.02163],[-91.72537,42.02314],[-91.72558,42.02843],[-91.72504,42.02851],[-91.71964,42.02926],[-91.71378,42.02921],[-91.71292,42.03045],[-91.71349,42.03045],[-91.71297,42.03284],[-91.71277,42.03528],[-91.7133,42.03546],[-91.72115,42.03916],[-91.7267,42.04092],[-91.72612,42.04389],[-91.73101,42.04388],[-91.73104,42.04193],[-91.73348,42.04248],[-91.73336,42.04798],[-91.73094,42.04797],[-91.72608,42.048],[-91.72603,42.04436],[-91.72113,42.04437],[-91.72114,42.04996],[-91.72301,42.05],[-91.7235,42.05023],[-91.72349,42.05165],[-91.72114,42.05167],[-91.72136,42.06822],[-91.7204,42.06824],[-91.71695,42.06542],[-91.7169,42.06103],[-91.7169,42.06084],[-91.71404,42.0608],[-91.71406,42.05899],[-91.71381,42.05899],[-91.71177,42.05897],[-91.71204,42.06147],[-91.70849,42.05924],[-91.70522,42.05892],[-91.70515,42.06237],[-91.70503,42.06252],[-91.70507,42.06255],[-91.70558,42.06288],[-91.70524,42.06619],[-91.71643,42.06635],[-91.71644,42.07364],[-91.71275,42.07359],[-91.7128,42.07235],[-91.71072,42.0717],[-91.70671,42.07161],[-91.70663,42.07609],[-91.71647,42.07641],[-91.71651,42.08099],[-91.70663,42.08079],[-91.70666,42.0844],[-91.70189,42.0843],[-91.70208,42.08794],[-91.70665,42.08804],[-91.70665,42.08911],[-91.70913,42.08918],[-91.70912,42.09175],[-91.70794,42.09171],[-91.70666,42.09289],[-91.70673,42.10266],[-91.70258,42.10251],[-91.70188,42.10098],[-91.70168,42.10029],[-91.70148,42.09614],[-91.70393,42.09526],[-91.70394,42.0924],[-91.7014,42.09248],[-91.70127,42.08793],[-91.70057,42.08173],[-91.70021,42.08067],[-91.70048,42.07818],[-91.69997,42.07704],[-91.70055,42.07615],[-91.70008,42.07343],[-91.70049,42.06969],[-91.70063,42.06969],[-91.70024,42.06612],[-91.69696,42.06607],[-91.69702,42.06284],[-91.69219,42.06283],[-91.69219,42.06322],[-91.68735,42.06321],[-91.68743,42.05876],[-91.67484,42.05872],[-91.67282,42.05871],[-91.67279,42.06136],[-91.66966,42.06136],[-91.66961,42.06273],[-91.67278,42.06275],[-91.67278,42.0628],[-91.67277,42.06413],[-91.67279,42.06597],[-91.66789,42.06362],[-91.66792,42.05872],[-91.66638,42.0587],[-91.66308,42.05867],[-91.66306,42.06231],[-91.65821,42.0623],[-91.65784,42.06259],[-91.65784,42.06319],[-91.65816,42.06685],[-91.65328,42.06681],[-91.65329,42.06423],[-91.64903,42.06419],[-91.64794,42.06337],[-91.64593,42.06354],[-91.64593,42.06305],[-91.64594,42.06197],[-91.64447,42.06119],[-91.64201,42.05989],[-91.63856,42.05877],[-91.63854,42.06217],[-91.63872,42.07667],[-91.63319,42.07656],[-91.63344,42.07534],[-91.63233,42.07655],[-91.62897,42.0765],[-91.62899,42.06218],[-91.63426,42.06211],[-91.63422,42.05871],[-91.63608,42.05804],[-91.62876,42.05559],[-91.6262,42.0547],[-91.6262,42.05607],[-91.62877,42.05639],[-91.62878,42.05839],[-91.619,42.05828],[-91.61896,42.06017],[-91.61408,42.06014],[-91.61402,42.06174],[-91.61739,42.06285],[-91.6176,42.06908],[-91.61901,42.06918],[-91.62389,42.06925],[-91.62878,42.06932],[-91.62876,42.08022],[-91.60925,42.08007],[-91.6092,42.07281],[-91.60553,42.07279],[-91.60551,42.06917],[-91.59939,42.06918],[-91.5994,42.07016],[-91.59731,42.07016],[-91.59732,42.07107],[-91.59539,42.07183],[-91.5966,42.0727],[-91.59661,42.07422],[-91.58996,42.07402],[-91.58903,42.07699],[-91.59338,42.07713],[-91.59375,42.07988],[-91.5994,42.08007],[-91.5994,42.08089],[-91.59751,42.08155],[-91.59409,42.08039],[-91.59502,42.08357],[-91.57918,42.08311],[-91.57918,42.083],[-91.5743,42.08295],[-91.57436,42.08661],[-91.55971,42.0865],[-91.55969,42.0792],[-91.5505,42.07929],[-91.5494,42.08291],[-91.54508,42.0829],[-91.54513,42.07567],[-91.54788,42.07564],[-91.54788,42.07699],[-91.55053,42.07699],[-91.5505,42.07203],[-91.55493,42.07202],[-91.55493,42.07472],[-91.55811,42.07472],[-91.55816,42.07065],[-91.56037,42.07069],[-91.56032,42.07563],[-91.57283,42.07572],[-91.57284,42.07439],[-91.57126,42.07434],[-91.57131,42.07288],[-91.57425,42.07231],[-91.57921,42.07234],[-91.57923,42.07216],[-91.57675,42.07214],[-91.57676,42.07126],[-91.57426,42.07124],[-91.57605,42.07114],[-91.57718,42.06858],[-91.58034,42.06859],[-91.58129,42.06605],[-91.58265,42.06584],[-91.58127,42.06517],[-91.57935,42.06688],[-91.57803,42.06594],[-91.57668,42.06701],[-91.57436,42.06632],[-91.57439,42.06492],[-91.55985,42.06476],[-91.55987,42.05027],[-91.555,42.05022],[-91.55495,42.05747],[-91.55041,42.05746],[-91.55,42.05018],[-91.54523,42.05013],[-91.54522,42.04928],[-91.54274,42.04926],[-91.53546,42.05],[-91.53549,42.04271],[-91.54034,42.0428],[-91.54037,42.03915],[-91.53798,42.0391],[-91.53797,42.03616],[-91.53066,42.0378],[-91.53066,42.03535],[-91.52569,42.03527],[-91.52544,42.03527],[-91.52542,42.03171],[-91.53156,42.03185],[-91.53033,42.02683],[-91.53042,42.01956],[-91.53774,42.01955],[-91.53914,42.0204],[-91.54022,42.01955],[-91.54022,42.01597],[-91.55024,42.01608],[-91.55027,42.01992],[-91.55035,42.02694],[-91.55968,42.02711],[-91.55967,42.02042],[-91.56149,42.0204],[-91.56451,42.0202],[-91.56451,42.01618],[-91.573,42.01634],[-91.573,42.02401],[-91.57429,42.02516],[-91.57915,42.02777],[-91.57915,42.02773],[-91.57914,42.02011],[-91.57913,42.01708],[-91.58068,42.01672],[-91.58072,42.01457],[-91.58401,42.0146],[-91.58398,42.01291],[-91.58782,42.0131],[-91.59373,42.01349],[-91.59373,42.01317],[-91.59373,42.0131],[-91.59371,42.01154],[-91.59916,42.01172],[-91.59917,42.00966],[-91.60407,42.00965],[-91.61881,42.00951],[-91.61881,42.0093],[-91.61881,42.00899],[-91.61881,42.00894],[-91.61879,42.00854],[-91.61782,42.00853],[-91.61783,42.00897],[-91.61735,42.00817],[-91.61623,42.0071],[-91.61576,42.00411],[-91.61861,42.00375],[-91.61866,41.99773],[-91.61624,41.99773],[-91.61624,41.9968],[-91.61393,41.99681],[-91.61394,41.99572],[-91.61121,41.99515],[-91.61119,41.99273],[-91.61513,41.9941],[-91.6176,41.99504],[-91.61798,41.99292],[-91.6165,41.99288],[-91.61668,41.99188],[-91.61857,41.99188],[-91.61578,41.99138],[-91.61381,41.99139],[-91.6138,41.99267],[-91.61095,41.99216],[-91.61002,41.99233],[-91.61096,41.99515],[-91.60566,41.99516],[-91.60413,41.99405],[-91.60052,41.99713],[-91.60055,41.99553],[-91.59915,41.99569],[-91.59823,41.99638],[-91.59543,41.99526],[-91.59407,41.99862],[-91.59574,41.99865],[-91.59552,42.00598],[-91.59356,42.00589],[-91.59367,42.00248],[-91.58777,42.0021],[-91.58639,42.00128],[-91.58583,41.99785],[-91.58416,41.99783],[-91.5842,41.99571],[-91.59087,41.99575],[-91.59254,41.99295],[-91.59527,41.99473],[-91.59813,41.99588],[-91.59914,41.99512],[-91.60037,41.99511],[-91.6,41.99396],[-91.6023,41.99083],[-91.60301,41.98955],[-91.6033,41.98872],[-91.60403,41.98871],[-91.60404,41.989],[-91.60527,41.98898],[-91.60527,41.9883],[-91.60402,41.9883],[-91.60402,41.98781],[-91.60357,41.98782],[-91.60369,41.98742],[-91.59914,41.98781],[-91.59911,41.98414],[-91.59551,41.98336],[-91.59662,41.98127],[-91.59411,41.98122],[-91.59409,41.98276],[-91.5911,41.98152],[-91.59156,41.98091],[-91.59411,41.98106],[-91.59618,41.98044],[-91.59567,41.97798],[-91.59909,41.97757],[-91.5991,41.97732],[-91.59959,41.97733],[-91.59959,41.97688],[-91.60031,41.97689],[-91.6003,41.97322],[-91.60154,41.97323],[-91.60153,41.97579],[-91.60075,41.9758],[-91.60075,41.97687],[-91.60399,41.97686],[-91.60393,41.97323],[-91.60634,41.97339],[-91.60639,41.97686],[-91.60698,41.97686],[-91.60694,41.97322],[-91.60758,41.97603],[-91.60876,41.97603],[-91.60875,41.96959],[-91.60576,41.96958],[-91.60576,41.97323],[-91.60395,41.97198],[-91.60394,41.96958],[-91.60091,41.96959],[-91.59914,41.96839],[-91.59914,41.96867],[-91.59425,41.96859],[-91.59426,41.96589],[-91.59918,41.96591],[-91.61837,41.96591],[-91.61866,41.94821],[-91.61425,41.94888],[-91.61158,41.94967],[-91.60765,41.95156],[-91.59925,41.95691],[-91.58865,41.9635],[-91.58674,41.96435],[-91.58402,41.96504],[-91.58088,41.96523],[-91.58123,41.96734],[-91.5795,41.96763],[-91.57802,41.96556],[-91.57443,41.9642],[-91.57007,41.96163],[-91.56616,41.96109],[-91.56086,41.95969],[-91.55493,41.95877],[-91.55482,41.95789],[-91.5541,41.95597],[-91.55069,41.95188],[-91.5564,41.94908],[-91.56015,41.95194],[-91.56306,41.95453],[-91.56346,41.95488],[-91.56382,41.95519],[-91.56419,41.95441],[-91.56513,41.95424],[-91.56581,41.95661],[-91.56968,41.95911],[-91.5709,41.96017],[-91.57148,41.96057],[-91.57301,41.96062],[-91.57981,41.96073],[-91.57979,41.96183],[-91.58477,41.96194],[-91.58587,41.96197],[-91.59107,41.95918],[-91.59504,41.95748],[-91.59917,41.9547],[-91.60736,41.94805],[-91.60962,41.94633],[-91.61286,41.94525],[-91.61852,41.9454],[-91.61852,41.94459],[-91.61279,41.94388],[-91.61019,41.94479],[-91.60707,41.94664],[-91.59921,41.95275],[-91.59925,41.94752],[-91.59425,41.94746],[-91.59396,41.94059],[-91.59644,41.9406],[-91.59647,41.93674],[-91.59895,41.93675],[-91.59891,41.93339],[-91.6086,41.93337],[-91.6088,41.94499],[-91.61475,41.94305],[-91.61849,41.94317],[-91.61836,41.93345],[-91.61348,41.93341],[-91.61343,41.92982],[-91.60856,41.92982],[-91.60853,41.92674],[-91.59896,41.92657],[-91.59381,41.92676],[-91.59383,41.93094],[-91.58894,41.9311],[-91.58893,41.92977],[-91.58407,41.92977],[-91.58399,41.92544],[-91.59373,41.92488],[-91.59887,41.92565],[-91.60357,41.92528],[-91.61573,41.92589],[-91.61812,41.92593],[-91.61758,41.92411],[-91.60996,41.92137],[-91.61031,41.91975],[-91.60842,41.91931],[-91.60837,41.91533],[-91.61367,41.91533],[-91.61373,41.92133],[-91.61189,41.92176],[-91.61825,41.9241],[-91.61843,41.92576],[-91.61951,41.92599],[-91.62933,41.92618],[-91.63242,41.92582],[-91.63028,41.9191],[-91.62675,41.91904],[-91.6199,41.91175],[-91.63567,41.91195],[-91.6372,41.91283],[-91.63719,41.90473],[-91.64991,41.90494],[-91.64994,41.90342],[-91.65327,41.90346],[-91.65147,41.90124],[-91.64958,41.90125],[-91.64956,41.89764],[-91.65168,41.89767],[-91.65163,41.89043],[-91.65405,41.89048],[-91.654,41.88681],[-91.65157,41.88678],[-91.65154,41.88313],[-91.66122,41.88327],[-91.66134,41.89058],[-91.66623,41.89061],[-91.66608,41.88334],[-91.6617,41.88328],[-91.66165,41.87999],[-91.66604,41.88005],[-91.66599,41.8761],[-91.66784,41.87613],[-91.66847,41.87768],[-91.66971,41.87766],[-91.66933,41.87171],[-91.66838,41.86985],[-91.6675,41.86983],[-91.66719,41.86657],[-91.66845,41.86522],[-91.67055,41.86525],[-91.66946,41.86158],[-91.67672,41.8617],[-91.6768,41.86531],[-91.68522,41.86542],[-91.68524,41.86905],[-91.6758,41.86895],[-91.67584,41.87468],[-91.67313,41.87472],[-91.67088,41.87535],[-91.67088,41.87616],[-91.67585,41.87622],[-91.67586,41.87726],[-91.68054,41.87753],[-91.68052,41.87624],[-91.68532,41.87631],[-91.68546,41.88446],[-91.69032,41.88453],[-91.69007,41.8727],[-91.695,41.87274],[-91.69494,41.86912],[-91.70474,41.86923],[-91.70477,41.87653],[-91.70965,41.87659],[-91.70974,41.88019],[-91.71484,41.88025],[-91.72939,41.88019],[-91.72933,41.87658],[-91.73419,41.87658],[-91.73425,41.88015],[-91.744,41.88013],[-91.74405,41.88377],[-91.75878,41.88376],[-91.75886,41.88744],[-91.74906,41.88742],[-91.74913,41.89104],[-91.73451,41.8911],[-91.73482,41.90564],[-91.74178,41.9056],[-91.74186,41.90875],[-91.74465,41.90874],[-91.74476,41.91407],[-91.7342,41.91733],[-91.73022,41.9196],[-91.73023,41.9202],[-91.73027,41.92249],[-91.73046,41.92304],[-91.72866,41.92348],[-91.72811,41.92386],[-91.72534,41.92387],[-91.72537,41.9255],[-91.72541,41.92749],[-91.71961,41.92752],[-91.71548,41.92754],[-91.71523,41.93058],[-91.71522,41.93251],[-91.71523,41.93327],[-91.72469,41.93058],[-91.72552,41.93177],[-91.72565,41.93709],[-91.72813,41.93706],[-91.72888,41.93835],[-91.72556,41.93833],[-91.72557,41.93904],[-91.72443,41.93903],[-91.72442,41.93832],[-91.71935,41.93805],[-91.72049,41.93905],[-91.73066,41.94166],[-91.73059,41.93835],[-91.73547,41.93833],[-91.73529,41.93104],[-91.74026,41.93101],[-91.74041,41.93099],[-91.74322,41.93098],[-91.74332,41.93831],[-91.74046,41.93831],[-91.7405,41.94084],[-91.73554,41.94085],[-91.73557,41.94197],[-91.73214,41.94198],[-91.73186,41.9428],[-91.74105,41.94532],[-91.74557,41.94657],[-91.74556,41.94556],[-91.742,41.94381],[-91.74056,41.94382],[-91.74052,41.94199],[-91.74692,41.94231],[-91.74692,41.9424],[-91.74722,41.94282],[-91.74727,41.94279],[-91.756,41.93919],[-91.75545,41.94038],[-91.7555,41.94191],[-91.75776,41.94192],[-91.7577,41.93827],[-91.76493,41.93836],[-91.765,41.94196],[-91.76017,41.94193],[-91.7603,41.94947],[-91.75898,41.94946],[-91.75856,41.95038],[-91.76552,41.95255],[-91.77008,41.95548],[-91.77169,41.95686],[-91.75508,41.95674],[-91.75514,41.96038],[-91.75992,41.96043],[-91.75989,41.96411],[-91.76401,41.96415],[-91.76723,41.96418],[-91.76715,41.97144],[-91.76966,41.97147],[-91.76967,41.96419],[-91.7699,41.96419],[-91.77275,41.96412],[-91.77458,41.96553],[-91.77454,41.97398],[-91.77454,41.97508],[-91.7771,41.9751],[-91.77455,41.97843],[-91.77368,41.97849],[-91.7743,41.97398]],[[-91.68783,42.03448],[-91.68783,42.03428],[-91.68771,42.03412],[-91.68734,42.03412],[-91.68735,42.03489],[-91.68738,42.0349],[-91.68772,42.03489],[-91.68771,42.03449],[-91.68783,42.03448]],[[-91.73011,41.98906],[-91.72863,41.98905],[-91.72864,41.9904],[-91.72827,41.99031],[-91.72827,41.98905],[-91.72581,41.98916],[-91.72581,41.98974],[-91.72702,41.99003],[-91.73057,41.9916],[-91.73057,41.99081],[-91.73011,41.99072],[-91.73011,41.98906]],[[-91.7044,42.02014],[-91.70455,42.02178],[-91.70713,42.02183],[-91.70711,42.02086],[-91.70616,42.02032],[-91.7044,42.02014]],[[-91.70505,42.01731],[-91.70519,42.01893],[-91.70428,42.0195],[-91.70614,42.01923],[-91.70707,42.01867],[-91.70704,42.01722],[-91.70639,42.01813],[-91.70505,42.01731]],[[-91.70249,42.01774],[-91.70449,42.0176],[-91.7042,42.01652],[-91.70704,42.01629],[-91.70701,42.01455],[-91.70493,42.01452],[-91.70249,42.01774]],[[-91.60664,41.98192],[-91.60665,41.98248],[-91.60885,41.98247],[-91.6081,41.981],[-91.60563,41.98192],[-91.60664,41.98192]]]}},{"type":"Feature","properties":{"name":"Peoplerides","boundary_type":"counties","source":"Census TIGER county","fidelity":"exact","updated":"2026-09","units":"Hardin County; Marshall County; Poweshiek County; Tama County","note":"Four-county service; Marshalltown paratransit requires prior approval; Medicaid trips via MTM broker","confidence":1.0},"geometry":{"type":"Polygon","coordinates":[[[-92.76644,41.69493],[-92.76636,41.69555],[-92.76639,41.7172],[-92.76667,41.72194],[-92.76633,41.72652],[-92.76629,41.73632],[-92.76618,41.75349],[-92.76613,41.776],[-92.76603,41.79052],[-92.76602,41.84132],[-92.76649,41.85577],[-92.76612,41.86182],[-92.766,41.86237],[-92.79506,41.86238],[-92.88322,41.86238],[-92.99978,41.86248],[-93.01916,41.86254],[-93.04825,41.86263],[-93.0573,41.86261],[-93.05795,41.86263],[-93.09684,41.86263],[-93.1162,41.86265],[-93.23186,41.86271],[-93.23184,41.86639],[-93.2318,41.9169],[-93.23176,41.92773],[-93.23172,41.94996],[-93.23175,41.96443],[-93.23176,41.97164],[-93.23176,41.9753],[-93.23169,42.03421],[-93.23154,42.12238],[-93.23172,42.20889],[-93.23201,42.20901],[-93.24611,42.20901],[-93.26579,42.20903],[-93.27551,42.20906],[-93.33886,42.2092],[-93.34661,42.20923],[-93.37586,42.20915],[-93.38556,42.20927],[-93.43423,42.20923],[-93.45369,42.20931],[-93.46304,42.2093],[-93.4631,42.2383],[-93.46288,42.296],[-93.46289,42.31049],[-93.46298,42.325],[-93.46289,42.38369],[-93.46291,42.42707],[-93.46284,42.44857],[-93.46263,42.4708],[-93.4991,42.47098],[-93.49948,42.5577],[-93.48076,42.55764],[-93.47867,42.55762],[-93.41991,42.55754],[-93.40543,42.55731],[-93.39695,42.5574],[-93.39078,42.55763],[-93.38089,42.55756],[-93.36065,42.5575],[-93.32115,42.55738],[-93.31137,42.55734],[-93.26215,42.55711],[-93.19356,42.55695],[-93.15442,42.55678],[-93.14458,42.55674],[-93.06611,42.55678],[-93.04678,42.55678],[-93.04165,42.55679],[-93.04065,42.55679],[-93.027,42.55681],[-93.02679,42.52879],[-93.02711,42.47078],[-93.0029,42.47064],[-93.00285,42.46496],[-93.00259,42.46359],[-93.0029,42.46069],[-93.0025,42.39784],[-93.00237,42.38345],[-93.00225,42.36839],[-93.00227,42.3538],[-93.00212,42.31782],[-93.00208,42.29621],[-93.00202,42.28171],[-93.00193,42.26718],[-93.00187,42.25628],[-93.00167,42.20927],[-92.885,42.21],[-92.87415,42.21006],[-92.86933,42.21007],[-92.7772,42.21006],[-92.76746,42.21014],[-92.76792,42.27526],[-92.76795,42.27882],[-92.76809,42.29668],[-92.75766,42.2967],[-92.72861,42.29681],[-92.70922,42.29681],[-92.65093,42.29689],[-92.5723,42.29688],[-92.53351,42.297],[-92.49467,42.29714],[-92.46553,42.29719],[-92.41695,42.29728],[-92.29879,42.29753],[-92.29884,42.21077],[-92.29915,42.18124],[-92.29922,42.17046],[-92.29932,42.16312],[-92.29915,42.1378],[-92.29912,42.12327],[-92.29913,42.0795],[-92.29884,42.06511],[-92.2987,42.04337],[-92.29848,42.0362],[-92.29771,41.99294],[-92.29727,41.97854],[-92.29728,41.97049],[-92.29775,41.96427],[-92.29766,41.94964],[-92.29778,41.93527],[-92.29811,41.90716],[-92.29803,41.89858],[-92.29801,41.89191],[-92.29801,41.88482],[-92.29816,41.86278],[-92.29869,41.81951],[-92.29875,41.81214],[-92.29882,41.79795],[-92.2991,41.79254],[-92.29896,41.79021],[-92.29919,41.77609],[-92.29924,41.77245],[-92.29945,41.76161],[-92.29971,41.74575],[-92.29987,41.73613],[-92.29991,41.73217],[-92.29993,41.72797],[-92.29995,41.72533],[-92.2998,41.69589],[-92.2998,41.6957],[-92.29995,41.6951],[-92.29995,41.68904],[-92.29965,41.64235],[-92.29965,41.62892],[-92.29961,41.62684],[-92.29949,41.60154],[-92.29781,41.60153],[-92.29778,41.59666],[-92.29766,41.56039],[-92.29763,41.54966],[-92.29763,41.54604],[-92.29749,41.50979],[-92.34564,41.50968],[-92.35539,41.50965],[-92.41199,41.50955],[-92.43128,41.50948],[-92.46016,41.50941],[-92.46017,41.50941],[-92.46405,41.50941],[-92.4746,41.5094],[-92.4794,41.50938],[-92.48662,41.50935],[-92.50836,41.50927],[-92.52677,41.50924],[-92.55595,41.50915],[-92.56562,41.50912],[-92.60358,41.50916],[-92.64225,41.50914],[-92.64432,41.50915],[-92.65117,41.50891],[-92.65657,41.50912],[-92.75651,41.50879],[-92.75666,41.53052],[-92.75707,41.60141],[-92.76676,41.60135],[-92.76653,41.62332],[-92.76657,41.63772],[-92.76643,41.68812],[-92.76644,41.69493]]]}},{"type":"Feature","properties":{"name":"Region 8 Regional Transit Authority (RTA) On-Demand","boundary_type":"counties","source":"Census TIGER county","fidelity":"approximate","updated":"2026-09","units":"Delaware County; Dubuque County; Jackson County","note":"Delaware and Jackson counties are full-county service. Dubuque County unit is approximate only: RTA8 explicitly excludes the City of Dubuque, which is served instead by a separate city transit provider (The Jule); RTA8 covers the rest (rural/small-town) Dubuque County. The resolver has no county-minus-city subtraction, so the Dubuque County polygon here includes the excluded city area. Source: https://rta8.org/ and https://www.eciatrans.org/rpa8/transit.php (RPA8/DMATS split between RTA8 and The Jule).","confidence":0.7},"geometry":{"type":"Polygon","coordinates":[[[-90.89827,42.20647],[-90.89827,42.20772],[-90.89802,42.29524],[-90.93192,42.29531],[-90.93443,42.29512],[-90.97451,42.29547],[-90.97485,42.29554],[-90.97562,42.29578],[-90.98852,42.29557],[-90.99335,42.29566],[-90.99792,42.29564],[-91.00417,42.29573],[-91.00782,42.29577],[-91.01372,42.29577],[-91.01494,42.29572],[-91.02345,42.29571],[-91.05288,42.29575],[-91.12098,42.2958],[-91.12541,42.2958],[-91.12667,42.29576],[-91.13008,42.29576],[-91.21372,42.29596],[-91.23723,42.296],[-91.24673,42.29588],[-91.24724,42.29618],[-91.25969,42.29629],[-91.26635,42.29611],[-91.27002,42.29624],[-91.30872,42.2961],[-91.31062,42.29643],[-91.36326,42.29644],[-91.39791,42.29636],[-91.40253,42.29636],[-91.40753,42.29634],[-91.45113,42.29621],[-91.4711,42.29617],[-91.47999,42.29616],[-91.5192,42.29622],[-91.55836,42.29632],[-91.59698,42.29641],[-91.59755,42.35471],[-91.59783,42.37653],[-91.59784,42.38399],[-91.59742,42.46433],[-91.5974,42.46924],[-91.60851,42.46928],[-91.60856,42.49842],[-91.60871,42.51844],[-91.60871,42.52029],[-91.60874,42.52381],[-91.60891,42.54568],[-91.60897,42.54934],[-91.60905,42.55644],[-91.60706,42.64397],[-91.54461,42.64424],[-91.54222,42.64441],[-91.49829,42.6441],[-91.48799,42.64402],[-91.48245,42.64402],[-91.47748,42.64402],[-91.4726,42.64404],[-91.46843,42.64407],[-91.41101,42.64438],[-91.41097,42.64438],[-91.39278,42.64457],[-91.38884,42.64464],[-91.37898,42.64481],[-91.36919,42.64491],[-91.36718,42.64495],[-91.2508,42.64558],[-91.20152,42.64575],[-91.20121,42.64575],[-91.201,42.64576],[-91.19976,42.64576],[-91.13277,42.64584],[-91.12791,42.64585],[-91.11342,42.64603],[-91.11129,42.64591],[-91.01494,42.64634],[-90.96628,42.64619],[-90.9365,42.64603],[-90.89741,42.64571],[-90.8973,42.65298],[-90.8969,42.67526],[-90.88743,42.67247],[-90.88117,42.67132],[-90.86712,42.66873],[-90.8525,42.66482],[-90.84391,42.66307],[-90.8327,42.66166],[-90.82815,42.66091],[-90.80542,42.65716],[-90.79702,42.65577],[-90.78823,42.65389],[-90.78093,42.65318],[-90.77937,42.65303],[-90.77875,42.65297],[-90.76949,42.65144],[-90.76253,42.64968],[-90.76039,42.64913],[-90.74368,42.64556],[-90.73113,42.64344],[-90.72021,42.64076],[-90.7092,42.63608],[-90.7063,42.63417],[-90.70267,42.63076],[-90.70086,42.62644],[-90.70009,42.62246],[-90.694,42.61451],[-90.69203,42.61037],[-90.69104,42.60762],[-90.688,42.5992],[-90.68777,42.59461],[-90.68697,42.59177],[-90.68549,42.58961],[-90.67937,42.5815],[-90.67705,42.57921],[-90.67475,42.57782],[-90.67273,42.5766],[-90.66828,42.57318],[-90.66153,42.568],[-90.66142,42.56757],[-90.65913,42.5579],[-90.65413,42.5499],[-90.64703,42.54436],[-90.64403,42.53986],[-90.64256,42.53347],[-90.64167,42.52962],[-90.63598,42.51871],[-90.63599,42.51545],[-90.63599,42.51541],[-90.64284,42.50848],[-90.64786,42.50246],[-90.65593,42.4917],[-90.65593,42.49168],[-90.65653,42.4892],[-90.65633,42.4836],[-90.65403,42.4785],[-90.64673,42.4719],[-90.64305,42.46977],[-90.6409,42.46852],[-90.62433,42.4589],[-90.60633,42.4515],[-90.59042,42.44749],[-90.5853,42.44561],[-90.58213,42.44444],[-90.57074,42.4417],[-90.56797,42.44039],[-90.56525,42.43874],[-90.56044,42.4329],[-90.5588,42.42852],[-90.55817,42.42098],[-90.55755,42.41926],[-90.55502,42.41614],[-90.54807,42.41311],[-90.52731,42.40626],[-90.51752,42.40302],[-90.50683,42.39879],[-90.50667,42.39872],[-90.50013,42.39554],[-90.49577,42.39241],[-90.49033,42.38709],[-90.48715,42.38514],[-90.48462,42.38453],[-90.48015,42.38462],[-90.47728,42.38379],[-90.47412,42.38173],[-90.47381,42.38146],[-90.47027,42.37836],[-90.46767,42.37413],[-90.46479,42.36945],[-90.46262,42.36725],[-90.45272,42.3593],[-90.44632,42.35704],[-90.44387,42.35522],[-90.43055,42.33686],[-90.42924,42.33579],[-90.42536,42.33261],[-90.42135,42.33047],[-90.41903,42.32851],[-90.4184,42.32765],[-90.41653,42.32511],[-90.41594,42.3227],[-90.4162,42.32131],[-90.41712,42.31994],[-90.42007,42.31768],[-90.42105,42.31611],[-90.4203,42.31169],[-90.42045,42.30537],[-90.42396,42.29448],[-90.42433,42.29333],[-90.42691,42.29072],[-90.4306,42.28445],[-90.43073,42.28421],[-90.43088,42.27823],[-90.42572,42.26919],[-90.4241,42.26636],[-90.42238,42.26058],[-90.42218,42.2599],[-90.41933,42.25447],[-90.41631,42.25168],[-90.41522,42.25094],[-90.41047,42.24775],[-90.40065,42.23929],[-90.39588,42.23313],[-90.39487,42.22948],[-90.39475,42.22906],[-90.39111,42.22547],[-90.37513,42.21481],[-90.36514,42.21053],[-90.36041,42.20758],[-90.35696,42.20544],[-90.33817,42.20332],[-90.32827,42.20105],[-90.31777,42.19379],[-90.31733,42.19365],[-90.30689,42.19029],[-90.29844,42.18758],[-90.29615,42.18635],[-90.28217,42.17885],[-90.26908,42.1745],[-90.25546,42.17182],[-90.25013,42.17147],[-90.23492,42.16543],[-90.22424,42.16003],[-90.21611,42.15673],[-90.20948,42.15268],[-90.20742,42.14911],[-90.20637,42.1455],[-90.20536,42.13908],[-90.2014,42.13094],[-90.19734,42.12816],[-90.1947,42.12725],[-90.19045,42.12578],[-90.18747,42.12542],[-90.17097,42.1252],[-90.16753,42.12248],[-90.16289,42.11672],[-90.16188,42.11378],[-90.16149,42.10971],[-90.16116,42.10637],[-90.1615,42.09891],[-90.1634,42.08761],[-90.16803,42.07657],[-90.16836,42.07578],[-90.1659,42.06423],[-90.16555,42.06264],[-90.16538,42.05474],[-90.16529,42.05097],[-90.16448,42.04211],[-90.16345,42.04041],[-90.15883,42.03777],[-90.15422,42.03307],[-90.2086,42.03328],[-90.21859,42.0332],[-90.26248,42.0334],[-90.31574,42.03357],[-90.36067,42.03355],[-90.3743,42.03344],[-90.39882,42.03335],[-90.40392,42.03334],[-90.40626,42.03334],[-90.42342,42.03341],[-90.43248,42.03345],[-90.44219,42.0335],[-90.52942,42.03296],[-90.54866,42.03284],[-90.57787,42.03274],[-90.62417,42.0329],[-90.62653,42.03276],[-90.65212,42.03275],[-90.65608,42.03284],[-90.65619,42.03284],[-90.66526,42.03282],[-90.70399,42.03287],[-90.72378,42.03293],[-90.73355,42.03293],[-90.74323,42.03293],[-90.753,42.03283],[-90.75781,42.03283],[-90.77227,42.03272],[-90.78197,42.03285],[-90.82082,42.033],[-90.83064,42.03335],[-90.85974,42.0334],[-90.89837,42.03355],[-90.89836,42.06245],[-90.89823,42.12059],[-90.89865,42.13509],[-90.89841,42.17124],[-90.89835,42.17243],[-90.89827,42.20647]]]}},{"type":"Feature","properties":{"name":"RIDES (Region 3 Regional Transit Authority)","boundary_type":"counties","source":"Census TIGER county","fidelity":"exact","updated":"2026-09","units":"Buena Vista County; Clay County; Dickinson County; Emmet County; Lyon County; O'Brien County; Osceola County; Palo Alto County; Sioux County","note":"Nine-county NW Iowa service; general public confirmed on operator website","confidence":1.0},"geometry":{"type":"Polygon","coordinates":[[[-94.91386,42.82907],[-94.91386,42.82178],[-94.91386,42.80695],[-94.91386,42.79244],[-94.91385,42.74883],[-94.91393,42.73444],[-94.91409,42.72696],[-94.91536,42.66529],[-94.91556,42.64713],[-94.91529,42.61828],[-94.91448,42.56031],[-95.01286,42.56093],[-95.03271,42.56102],[-95.10126,42.5611],[-95.15102,42.561],[-95.19025,42.56106],[-95.24912,42.56095],[-95.25027,42.56106],[-95.26966,42.5609],[-95.27945,42.56084],[-95.30888,42.5608],[-95.33361,42.56101],[-95.33827,42.56105],[-95.34809,42.56117],[-95.34988,42.56119],[-95.35306,42.56124],[-95.38801,42.56174],[-95.38799,42.56905],[-95.38799,42.57637],[-95.38806,42.59087],[-95.38818,42.6478],[-95.38804,42.6623],[-95.38787,42.69129],[-95.3875,42.7343],[-95.38756,42.74877],[-95.38778,42.82188],[-95.38815,42.86538],[-95.38819,42.90169],[-95.38818,42.9099],[-95.41324,42.91001],[-95.42028,42.90985],[-95.42763,42.90994],[-95.50479,42.91003],[-95.50518,42.91003],[-95.56393,42.9101],[-95.62304,42.91031],[-95.70201,42.90982],[-95.74104,42.90971],[-95.78061,42.90959],[-95.85938,42.9091],[-95.8988,42.90942],[-95.97737,42.90977],[-95.99706,42.91015],[-96.01678,42.91015],[-96.076,42.91],[-96.07884,42.90991],[-96.09584,42.91],[-96.19494,42.90934],[-96.21376,42.9094],[-96.25328,42.90941],[-96.33192,42.90938],[-96.38146,42.90929],[-96.45038,42.90939],[-96.47991,42.90919],[-96.50969,42.90904],[-96.51952,42.90913],[-96.53735,42.90879],[-96.53741,42.90903],[-96.53784,42.91071],[-96.54023,42.91867],[-96.54163,42.92068],[-96.54169,42.92258],[-96.5411,42.9245],[-96.52554,42.93551],[-96.52351,42.93578],[-96.52118,42.93485],[-96.52056,42.93277],[-96.51938,42.93199],[-96.51826,42.93185],[-96.51689,42.93251],[-96.5162,42.93377],[-96.51642,42.93544],[-96.52012,42.93818],[-96.51999,42.93976],[-96.51489,42.94367],[-96.51075,42.9444],[-96.50947,42.94515],[-96.50807,42.94853],[-96.50486,42.95466],[-96.50031,42.95939],[-96.50313,42.96819],[-96.50503,42.97084],[-96.50615,42.97135],[-96.51069,42.97126],[-96.51592,42.97289],[-96.52025,42.97764],[-96.52077,42.98038],[-96.51672,42.98146],[-96.51652,42.98167],[-96.51224,42.98594],[-96.5122,42.98882],[-96.51289,42.99142],[-96.50999,42.99513],[-96.50734,42.99652],[-96.50273,42.99707],[-96.50154,42.99733],[-96.50021,42.99762],[-96.49861,42.99797],[-96.49842,42.99801],[-96.49782,42.99814],[-96.4967,42.99881],[-96.49434,43.00182],[-96.49269,43.00509],[-96.49167,43.00971],[-96.49359,43.01309],[-96.49442,43.01455],[-96.49557,43.01568],[-96.49919,43.01921],[-96.50321,43.0198],[-96.51099,43.0247],[-96.5118,43.0258],[-96.51308,43.02844],[-96.51292,43.02996],[-96.5108,43.0319],[-96.50915,43.03668],[-96.50914,43.0373],[-96.5116,43.03993],[-96.51387,43.03981],[-96.51575,43.03939],[-96.51732,43.04025],[-96.51843,43.04207],[-96.51026,43.04992],[-96.50892,43.04999],[-96.50524,43.04873],[-96.50175,43.04863],[-96.49036,43.05079],[-96.48928,43.05128],[-96.48884,43.05148],[-96.48815,43.05401],[-96.48672,43.0555],[-96.4769,43.06238],[-96.47316,43.06355],[-96.46995,43.06209],[-96.46821,43.06186],[-96.46309,43.06298],[-96.46085,43.06403],[-96.4582,43.06755],[-96.45521,43.07505],[-96.45419,43.08338],[-96.45413,43.08389],[-96.45409,43.0842],[-96.45453,43.08683],[-96.45534,43.08813],[-96.46264,43.08961],[-96.46285,43.09142],[-96.46052,43.09494],[-96.45188,43.10047],[-96.44813,43.10445],[-96.43933,43.11392],[-96.43659,43.12084],[-96.43961,43.12196],[-96.4408,43.12313],[-96.44164,43.12469],[-96.44271,43.12884],[-96.44343,43.13383],[-96.45036,43.14224],[-96.45554,43.14416],[-96.45885,43.14336],[-96.45998,43.14352],[-96.4651,43.14751],[-96.46654,43.15028],[-96.46738,43.15961],[-96.46731,43.16319],[-96.46729,43.16407],[-96.4664,43.17074],[-96.4664,43.17078],[-96.4649,43.18203],[-96.46515,43.18297],[-96.46715,43.1845],[-96.4688,43.18453],[-96.46942,43.18472],[-96.47239,43.18564],[-96.47383,43.1898],[-96.47378,43.19877],[-96.47078,43.2051],[-96.47063,43.20723],[-96.47216,43.20953],[-96.47491,43.21735],[-96.47557,43.22105],[-96.4767,43.22201],[-96.48502,43.22412],[-96.48526,43.22418],[-96.49153,43.22389],[-96.49645,43.22365],[-96.50076,43.22077],[-96.51246,43.21856],[-96.51927,43.21769],[-96.52096,43.21824],[-96.52208,43.22096],[-96.52686,43.22407],[-96.53574,43.22764],[-96.54009,43.2257],[-96.5449,43.22593],[-96.54818,43.22691],[-96.55494,43.22678],[-96.55631,43.22614],[-96.55732,43.22478],[-96.55899,43.22413],[-96.56044,43.22422],[-96.5685,43.23155],[-96.56919,43.23343],[-96.57119,43.23896],[-96.56525,43.24424],[-96.55919,43.24515],[-96.55296,43.24728],[-96.55203,43.25112],[-96.55256,43.25738],[-96.55259,43.25777],[-96.55322,43.25914],[-96.55496,43.26],[-96.55697,43.2591],[-96.5601,43.25928],[-96.56416,43.26024],[-96.56858,43.26266],[-96.5768,43.26831],[-96.5829,43.26769],[-96.58522,43.26888],[-96.58632,43.27432],[-96.58353,43.27688],[-96.58294,43.27654],[-96.58288,43.27459],[-96.5809,43.2748],[-96.57857,43.2776],[-96.57782,43.27994],[-96.57883,43.28423],[-96.58071,43.28902],[-96.57958,43.29345],[-96.58116,43.29509],[-96.58409,43.29295],[-96.58701,43.29181],[-96.58884,43.29359],[-96.58892,43.29367],[-96.58849,43.29634],[-96.58565,43.29671],[-96.58295,43.29812],[-96.58035,43.2982],[-96.57356,43.29917],[-96.57165,43.29819],[-96.57071,43.2967],[-96.56911,43.29554],[-96.56429,43.2948],[-96.56352,43.2948],[-96.55525,43.2948],[-96.55309,43.29286],[-96.54931,43.29371],[-96.54104,43.29556],[-96.53039,43.30003],[-96.52739,43.30685],[-96.526,43.31],[-96.52556,43.31247],[-96.52882,43.31656],[-96.5331,43.32859],[-96.53491,43.33647],[-96.5319,43.33869],[-96.52705,43.34413],[-96.52457,43.3469],[-96.52429,43.34721],[-96.52448,43.34815],[-96.52551,43.34833],[-96.52663,43.35183],[-96.52722,43.36226],[-96.52734,43.36811],[-96.52647,43.36831],[-96.5222,43.37195],[-96.52132,43.37461],[-96.5213,43.37595],[-96.52157,43.38564],[-96.52404,43.39476],[-96.52545,43.39632],[-96.52915,43.39773],[-96.53012,43.39755],[-96.53012,43.39641],[-96.53116,43.39561],[-96.53712,43.39506],[-96.55301,43.40412],[-96.55759,43.40679],[-96.56273,43.41278],[-96.5685,43.41722],[-96.57358,43.41923],[-96.57079,43.42376],[-96.56963,43.42753],[-96.57022,43.4286],[-96.57518,43.43176],[-96.58196,43.43221],[-96.58788,43.43169],[-96.58955,43.43218],[-96.58962,43.4322],[-96.5929,43.43317],[-96.59425,43.43415],[-96.60045,43.44565],[-96.60261,43.44965],[-96.60062,43.45123],[-96.60043,43.4531],[-96.60004,43.45708],[-96.594,43.45883],[-96.59355,43.4615],[-96.59333,43.46283],[-96.58793,43.46488],[-96.58539,43.46495],[-96.58247,43.46705],[-96.5846,43.46961],[-96.58514,43.47114],[-96.5837,43.4743],[-96.58413,43.47556],[-96.58674,43.47739],[-96.58655,43.4785],[-96.581,43.48138],[-96.58238,43.4834],[-96.5833,43.48317],[-96.58627,43.48351],[-96.58721,43.48492],[-96.58619,43.48581],[-96.58692,43.48767],[-96.58455,43.48883],[-96.58505,43.48989],[-96.58627,43.4911],[-96.59004,43.49191],[-96.59045,43.4943],[-96.59168,43.49437],[-96.59472,43.49331],[-96.5984,43.49507],[-96.59918,43.49601],[-96.59893,43.50044],[-96.59893,43.50046],[-96.57395,43.50045],[-96.53167,43.50041],[-96.52127,43.5004],[-96.45326,43.50039],[-96.44676,43.50038],[-96.40022,43.50032],[-96.33206,43.50041],[-96.32966,43.50041],[-96.29239,43.50035],[-96.2737,43.50033],[-96.25255,43.50029],[-96.2292,43.50026],[-96.21401,43.50024],[-96.19269,43.50022],[-96.17241,43.5002],[-96.15445,43.50018],[-96.12389,43.50015],[-96.0962,43.50013],[-96.05316,43.50011],[-95.97829,43.50007],[-95.97247,43.50006],[-95.93373,43.50006],[-95.86646,43.50006],[-95.86095,43.50005],[-95.83335,43.50002],[-95.8156,43.5],[-95.77399,43.49995],[-95.7497,43.49992],[-95.74145,43.49992],[-95.69578,43.49991],[-95.68415,43.49991],[-95.6491,43.4999],[-95.64316,43.4999],[-95.625,43.49989],[-95.62326,43.49989],[-95.57414,43.49994],[-95.56513,43.49995],[-95.52173,43.49999],[-95.5049,43.50002],[-95.49716,43.50003],[-95.48903,43.50005],[-95.46048,43.50047],[-95.45443,43.50046],[-95.43585,43.50043],[-95.4338,43.50011],[-95.39506,43.50022],[-95.39459,43.50022],[-95.38779,43.50023],[-95.36481,43.50026],[-95.33531,43.50038],[-95.32479,43.50042],[-95.3062,43.50049],[-95.26901,43.50047],[-95.25097,43.50046],[-95.25076,43.50041],[-95.24484,43.5012],[-95.21493,43.50086],[-95.21128,43.50082],[-95.20128,43.50085],[-95.17992,43.50092],[-95.17916,43.50092],[-95.16741,43.501],[-95.15494,43.50045],[-95.15128,43.5005],[-95.12393,43.50089],[-95.09399,43.50094],[-95.07223,43.50099],[-95.05418,43.50098],[-95.03256,43.50097],[-95.01019,43.50096],[-94.99444,43.50094],[-94.97435,43.50093],[-94.92478,43.50088],[-94.91457,43.50087],[-94.88442,43.50093],[-94.85456,43.50095],[-94.8079,43.50099],[-94.79793,43.50098],[-94.74454,43.5009],[-94.73418,43.50089],[-94.7003,43.50084],[-94.67847,43.50081],[-94.61422,43.50074],[-94.61335,43.50074],[-94.56729,43.50036],[-94.56652,43.50035],[-94.56084,43.50036],[-94.5058,43.50046],[-94.49239,43.50044],[-94.44285,43.50038],[-94.44272,43.49982],[-94.44238,43.4305],[-94.44235,43.3997],[-94.44271,43.36004],[-94.44275,43.34184],[-94.44269,43.32734],[-94.44314,43.25501],[-94.44275,43.16889],[-94.44269,43.15509],[-94.44259,43.08286],[-94.4426,43.05272],[-94.44262,43.03108],[-94.44277,42.99505],[-94.44277,42.99497],[-94.44288,42.98043],[-94.44295,42.96955],[-94.44297,42.96594],[-94.44305,42.9515],[-94.44305,42.95149],[-94.44307,42.94427],[-94.44314,42.9095],[-94.44295,42.90807],[-94.52145,42.90849],[-94.53142,42.90861],[-94.5412,42.90874],[-94.55102,42.9088],[-94.5605,42.90893],[-94.58027,42.909],[-94.5999,42.90907],[-94.60981,42.90907],[-94.6196,42.9091],[-94.65881,42.909],[-94.67795,42.90886],[-94.67874,42.90887],[-94.76739,42.90913],[-94.7771,42.90913],[-94.79186,42.90913],[-94.79688,42.90913],[-94.91389,42.9097],[-94.91389,42.90396],[-94.91384,42.85537],[-94.91386,42.82907]]]}},{"type":"Feature","properties":{"name":"River Bend Transit","boundary_type":"counties","source":"Census TIGER county","fidelity":"exact","updated":"2026-09","units":"Cedar County; Clinton County; Muscatine County; Scott County","note":"Iowa Quad Cities region; regional consolidated transit system est. 1978","confidence":1.0},"geometry":{"type":"Polygon","coordinates":[[[-91.36804,41.45538],[-91.36768,41.51033],[-91.3668,41.56121],[-91.36672,41.56847],[-91.36645,41.59837],[-91.36642,41.61678],[-91.36639,41.65646],[-91.36632,41.66621],[-91.3663,41.66735],[-91.36628,41.67833],[-91.36628,41.68093],[-91.36627,41.68188],[-91.36607,41.68558],[-91.36607,41.7292],[-91.36599,41.77292],[-91.36602,41.78371],[-91.36604,41.81654],[-91.36605,41.8185],[-91.36608,41.86007],[-91.36622,41.86007],[-91.36612,41.8939],[-91.36601,41.91827],[-91.36588,41.94741],[-91.36563,41.94739],[-91.32775,41.94718],[-91.30767,41.9472],[-91.24911,41.9472],[-91.23449,41.94718],[-91.21022,41.94708],[-91.13217,41.94678],[-91.08833,41.94668],[-91.01993,41.9466],[-91.01498,41.9466],[-91.00534,41.94663],[-90.9765,41.94669],[-90.9179,41.94629],[-90.89848,41.94624],[-90.89841,41.96826],[-90.89837,42.03355],[-90.85974,42.0334],[-90.83064,42.03335],[-90.82082,42.033],[-90.78197,42.03285],[-90.77227,42.03272],[-90.75781,42.03283],[-90.753,42.03283],[-90.74323,42.03293],[-90.73355,42.03293],[-90.72378,42.03293],[-90.70399,42.03287],[-90.66526,42.03282],[-90.65619,42.03284],[-90.65608,42.03284],[-90.65212,42.03275],[-90.62653,42.03276],[-90.62417,42.0329],[-90.57787,42.03274],[-90.54866,42.03284],[-90.52942,42.03296],[-90.44219,42.0335],[-90.43248,42.03345],[-90.42342,42.03341],[-90.40626,42.03334],[-90.40392,42.03334],[-90.39882,42.03335],[-90.3743,42.03344],[-90.36067,42.03355],[-90.31574,42.03357],[-90.26248,42.0334],[-90.21859,42.0332],[-90.2086,42.03328],[-90.15422,42.03307],[-90.15158,42.03063],[-90.15092,42.02944],[-90.14973,42.02656],[-90.14911,42.02268],[-90.14861,42.02137],[-90.1481,42.02001],[-90.14378,42.01488],[-90.14117,42.00893],[-90.14013,42.00361],[-90.14006,42.00325],[-90.14061,41.996],[-90.14603,41.98814],[-90.14622,41.98133],[-90.14675,41.98065],[-90.1486,41.97827],[-90.15383,41.97412],[-90.15456,41.973],[-90.16214,41.96129],[-90.16413,41.95618],[-90.16487,41.94951],[-90.16494,41.94886],[-90.16385,41.94493],[-90.16065,41.94085],[-90.1569,41.93818],[-90.15498,41.93586],[-90.15266,41.93306],[-90.1516,41.931],[-90.15184,41.92892],[-90.15336,41.91559],[-90.15351,41.90967],[-90.15358,41.90661],[-90.15399,41.90561],[-90.15702,41.89802],[-90.16506,41.88378],[-90.16638,41.88183],[-90.16786,41.87965],[-90.16874,41.87835],[-90.17004,41.87644],[-90.17151,41.87091],[-90.1724,41.86755],[-90.17247,41.86726],[-90.17276,41.86615],[-90.17281,41.86463],[-90.17301,41.8574],[-90.17489,41.85393],[-90.17505,41.85363],[-90.17906,41.84795],[-90.18035,41.84613],[-90.1814,41.84465],[-90.18179,41.84354],[-90.1819,41.84322],[-90.18333,41.83786],[-90.18334,41.83785],[-90.18376,41.83624],[-90.18397,41.83307],[-90.18172,41.8226],[-90.18064,41.81198],[-90.18095,41.80935],[-90.18197,41.80707],[-90.18797,41.80316],[-90.20847,41.79761],[-90.20949,41.79734],[-90.21012,41.79717],[-90.21689,41.79534],[-90.22226,41.79313],[-90.24238,41.78296],[-90.24666,41.7808],[-90.24863,41.77981],[-90.25862,41.77529],[-90.26329,41.77211],[-90.27863,41.76736],[-90.27971,41.76658],[-90.30278,41.75003],[-90.31071,41.74221],[-90.31522,41.73426],[-90.31636,41.72888],[-90.31767,41.72269],[-90.31742,41.71833],[-90.31332,41.70949],[-90.31289,41.70753],[-90.31277,41.70243],[-90.31319,41.69965],[-90.31343,41.69808],[-90.31469,41.69483],[-90.31731,41.69167],[-90.31992,41.68972],[-90.33022,41.68395],[-90.33248,41.68215],[-90.33386,41.6804],[-90.33452,41.67956],[-90.33586,41.67045],[-90.3367,41.66471],[-90.33673,41.66453],[-90.33978,41.65657],[-90.34015,41.6556],[-90.34345,41.64696],[-90.34333,41.64086],[-90.34094,41.61434],[-90.34068,41.6114],[-90.33953,41.59863],[-90.33989,41.59718],[-90.34107,41.59246],[-90.34153,41.59063],[-90.34323,41.58783],[-90.35189,41.58443],[-90.35614,41.58277],[-90.36413,41.57963],[-90.36467,41.57954],[-90.371,41.57843],[-90.37878,41.57708],[-90.38133,41.57663],[-90.39793,41.57223],[-90.40573,41.56862],[-90.41283,41.56533],[-90.41299,41.56521],[-90.41583,41.56293],[-90.41989,41.55742],[-90.42223,41.55423],[-90.42453,41.55299],[-90.42517,41.55265],[-90.42723,41.55153],[-90.43273,41.54953],[-90.4339,41.54843],[-90.43843,41.54413],[-90.44358,41.53807],[-90.44523,41.53613],[-90.46143,41.52353],[-90.47433,41.51973],[-90.47529,41.51964],[-90.48949,41.51828],[-90.48993,41.51823],[-90.50063,41.51803],[-90.50361,41.51839],[-90.51313,41.51953],[-90.51319,41.51955],[-90.5325,41.52479],[-90.53303,41.52493],[-90.53723,41.52557],[-90.54093,41.52613],[-90.55493,41.52439],[-90.55623,41.52423],[-90.56629,41.51811],[-90.56724,41.51753],[-90.57114,41.51633],[-90.58041,41.51531],[-90.58161,41.51518],[-90.58204,41.51513],[-90.59104,41.51283],[-90.59453,41.51134],[-90.59524,41.51103],[-90.60214,41.50603],[-90.60424,41.49703],[-90.60573,41.49457],[-90.60594,41.49423],[-90.60861,41.49228],[-90.61854,41.48503],[-90.63067,41.47957],[-90.63254,41.47873],[-90.64024,41.47333],[-90.65024,41.46503],[-90.65584,41.46213],[-90.66624,41.46063],[-90.66894,41.46068],[-90.67644,41.46083],[-90.68145,41.45939],[-90.69095,41.45664],[-90.70116,41.45474],[-90.72333,41.45227],[-90.72354,41.45225],[-90.73754,41.45013],[-90.75014,41.44963],[-90.77167,41.45076],[-90.77758,41.45126],[-90.7816,41.45201],[-90.78628,41.45289],[-90.80728,41.45447],[-90.82474,41.45447],[-90.83741,41.45562],[-90.84656,41.45514],[-90.8536,41.45391],[-90.85755,41.45275],[-90.86728,41.44821],[-90.87131,41.44591],[-90.87978,41.44107],[-90.89047,41.43559],[-90.89079,41.43543],[-90.8915,41.43512],[-90.89959,41.43154],[-90.90047,41.43115],[-90.91935,41.42559],[-90.92434,41.42286],[-90.93002,41.4214],[-90.94979,41.42416],[-90.9532,41.42507],[-90.96666,41.43005],[-90.97517,41.43398],[-90.97981,41.43432],[-90.9849,41.43387],[-91.00585,41.42614],[-91.00957,41.42546],[-91.01198,41.42502],[-91.02146,41.42417],[-91.02779,41.4236],[-91.03475,41.42093],[-91.03713,41.42002],[-91.03987,41.41852],[-91.04399,41.4159],[-91.04506,41.41487],[-91.04589,41.41408],[-91.04782,41.4109],[-91.04922,41.40484],[-91.05033,41.40005],[-91.0507,41.39327],[-91.05101,41.38756],[-91.05158,41.38528],[-91.0527,41.38394],[-91.06372,41.37071],[-91.06506,41.3691],[-91.06652,41.36525],[-91.07155,41.33965],[-91.07194,41.33359],[-91.08594,41.33385],[-91.11969,41.33424],[-91.13856,41.33443],[-91.15179,41.33445],[-91.22994,41.33517],[-91.24392,41.3354],[-91.25381,41.33555],[-91.262,41.33559],[-91.32635,41.33572],[-91.33788,41.33587],[-91.3514,41.33608],[-91.36933,41.33606],[-91.36869,41.40162],[-91.36852,41.42318],[-91.36809,41.45516],[-91.36804,41.45538]]]}},{"type":"Feature","properties":{"name":"Southern Iowa Trolley","boundary_type":"counties","source":"Census TIGER county","fidelity":"exact","updated":"2026-09","units":"Adair County; Adams County; Clarke County; Decatur County; Ringgold County; Taylor County; Union County","note":"Seven-county SW Iowa service; in-town service in Corning, Creston, Greenfield, Leon, Mt. Ayr, Osceola plus connectors; Bedford available on request","confidence":1.0},"geometry":{"type":"Polygon","coordinates":[[[-93.55695,40.81221],[-93.55639,40.78144],[-93.55649,40.7806],[-93.55619,40.76813],[-93.55632,40.75418],[-93.5566,40.72505],[-93.55664,40.71075],[-93.55661,40.7035],[-93.55657,40.69627],[-93.55677,40.63849],[-93.5569,40.58024],[-93.55894,40.58019],[-93.5608,40.5803],[-93.56524,40.58014],[-93.56581,40.58007],[-93.56619,40.58012],[-93.59735,40.5795],[-93.62316,40.57899],[-93.6331,40.5788],[-93.65621,40.57835],[-93.65927,40.57833],[-93.66191,40.57835],[-93.66884,40.57824],[-93.66912,40.57824],[-93.67125,40.57821],[-93.6771,40.57813],[-93.69033,40.57787],[-93.69986,40.57781],[-93.72244,40.57764],[-93.72835,40.57755],[-93.73726,40.57754],[-93.73801,40.57754],[-93.74276,40.57752],[-93.74785,40.57766],[-93.75022,40.57772],[-93.77023,40.57762],[-93.77434,40.57758],[-93.78687,40.57749],[-93.80137,40.57738],[-93.81548,40.57728],[-93.81872,40.57709],[-93.82528,40.577],[-93.84093,40.57679],[-93.85366,40.57661],[-93.88905,40.57613],[-93.89833,40.57601],[-93.89932,40.57594],[-93.90086,40.57587],[-93.90088,40.57587],[-93.91396,40.57567],[-93.93569,40.57533],[-93.93632,40.57528],[-93.9371,40.57542],[-93.93745,40.57539],[-93.93863,40.57528],[-93.93986,40.57519],[-93.96386,40.57475],[-93.97677,40.57463],[-93.98743,40.57444],[-94.00332,40.57414],[-94.01549,40.57391],[-94.03413,40.57359],[-94.07214,40.57302],[-94.08022,40.5729],[-94.08046,40.5729],[-94.08919,40.57281],[-94.09108,40.5729],[-94.11854,40.5727],[-94.13013,40.57262],[-94.23224,40.57191],[-94.23403,40.57189],[-94.24315,40.57183],[-94.28735,40.57152],[-94.29481,40.57134],[-94.31072,40.57152],[-94.32476,40.57148],[-94.33656,40.57147],[-94.33671,40.57145],[-94.3462,40.57141],[-94.35831,40.57136],[-94.35839,40.57136],[-94.38941,40.57122],[-94.42972,40.57104],[-94.4432,40.571],[-94.46009,40.57095],[-94.46066,40.57094],[-94.47065,40.57083],[-94.47121,40.57082],[-94.48928,40.57071],[-94.53388,40.57074],[-94.53706,40.57076],[-94.53785,40.57076],[-94.53832,40.57076],[-94.54183,40.57081],[-94.54215,40.57081],[-94.5474,40.57082],[-94.58577,40.57094],[-94.594,40.57097],[-94.63203,40.57119],[-94.67013,40.57164],[-94.6826,40.57179],[-94.68835,40.57186],[-94.69781,40.57198],[-94.71492,40.5722],[-94.71666,40.5722],[-94.74552,40.57259],[-94.77399,40.57298],[-94.79989,40.57336],[-94.80147,40.57339],[-94.81119,40.57353],[-94.81998,40.57371],[-94.82376,40.57394],[-94.89677,40.57474],[-94.8968,40.57474],[-94.90145,40.57488],[-94.9149,40.57507],[-94.91482,40.59918],[-94.91473,40.62063],[-94.91477,40.62784],[-94.91474,40.63155],[-94.91471,40.64968],[-94.91468,40.65089],[-94.91457,40.65696],[-94.91443,40.6641],[-94.91471,40.66602],[-94.91365,40.70368],[-94.91356,40.70729],[-94.91312,40.72729],[-94.92853,40.7274],[-94.92828,40.74918],[-94.92894,40.75074],[-94.92866,40.8136],[-94.92861,40.82092],[-94.92893,40.82387],[-94.92873,40.83541],[-94.92892,40.8429],[-94.9289,40.87008],[-94.92876,40.88985],[-94.92852,40.90045],[-94.92846,40.90065],[-94.9286,40.90177],[-94.92806,40.98022],[-94.92804,40.98621],[-94.92818,40.9884],[-94.92773,41.00559],[-94.92786,41.00849],[-94.92784,41.02997],[-94.92768,41.06602],[-94.92768,41.07232],[-94.92746,41.09952],[-94.92758,41.10147],[-94.92763,41.1444],[-94.92763,41.1446],[-94.92761,41.15172],[-94.92759,41.15851],[-94.9107,41.15842],[-94.90986,41.15847],[-94.8724,41.15845],[-94.85321,41.15846],[-94.81495,41.15839],[-94.75748,41.15819],[-94.70498,41.1579],[-94.70059,41.15808],[-94.70059,41.2006],[-94.70054,41.24428],[-94.70044,41.24489],[-94.70013,41.30114],[-94.7003,41.30388],[-94.7001,41.33104],[-94.70018,41.34546],[-94.7007,41.41758],[-94.70057,41.4825],[-94.70053,41.48973],[-94.70048,41.49705],[-94.70062,41.50067],[-94.70063,41.50415],[-94.6817,41.50409],[-94.65782,41.50408],[-94.62903,41.50396],[-94.62423,41.504],[-94.5859,41.50394],[-94.52857,41.50362],[-94.52851,41.50368],[-94.52805,41.50383],[-94.52386,41.5038],[-94.52343,41.50366],[-94.51759,41.50365],[-94.51411,41.50385],[-94.48817,41.50382],[-94.47109,41.50381],[-94.41433,41.50375],[-94.35676,41.50366],[-94.35671,41.50366],[-94.33765,41.50364],[-94.32796,41.50373],[-94.3089,41.50369],[-94.29433,41.50368],[-94.28005,41.50366],[-94.27275,41.50357],[-94.24159,41.50368],[-94.24145,41.46054],[-94.24152,41.4268],[-94.24172,41.42246],[-94.24153,41.41712],[-94.2413,41.41126],[-94.24145,41.38821],[-94.24147,41.37376],[-94.24148,41.35938],[-94.24147,41.35577],[-94.2415,41.34139],[-94.24147,41.33776],[-94.24143,41.33609],[-94.24139,41.3305],[-94.24156,41.3016],[-94.2417,41.24374],[-94.24164,41.15713],[-94.18491,41.15701],[-94.18166,41.15666],[-94.166,41.15705],[-94.14707,41.1568],[-94.12786,41.15684],[-94.09048,41.15677],[-94.0737,41.15667],[-94.07103,41.15674],[-94.01419,41.15676],[-93.97535,41.15673],[-93.91771,41.15653],[-93.91743,41.15666],[-93.89881,41.15661],[-93.88563,41.15724],[-93.8848,41.15717],[-93.88464,41.15711],[-93.87522,41.15777],[-93.86381,41.15804],[-93.80835,41.16116],[-93.79364,41.16167],[-93.7892,41.16204],[-93.7842,41.16208],[-93.68024,41.16171],[-93.67813,41.16179],[-93.67328,41.16179],[-93.59639,41.16155],[-93.55756,41.16127],[-93.55725,41.15386],[-93.55723,41.1175],[-93.55717,41.11687],[-93.55707,41.0737],[-93.55665,41.00441],[-93.55659,40.99685],[-93.55683,40.99355],[-93.55668,40.98625],[-93.5567,40.98609],[-93.55691,40.95651],[-93.5568,40.9547],[-93.55673,40.91972],[-93.55654,40.89829],[-93.55695,40.81236],[-93.55695,40.81221]]]}},{"type":"Feature","properties":{"name":"SWITA (Southwest Iowa Transit Agency)","boundary_type":"counties","source":"Census TIGER county","fidelity":"exact","updated":"2026-09","units":"Cass County; Fremont County; Harrison County; Mills County; Montgomery County; Page County; Pottawattamie County; Shelby County","note":"Eight-county SW Iowa service; on-demand 6am-5pm weekdays","confidence":1.0},"geometry":{"type":"Polygon","coordinates":[[[-94.9289,40.87008],[-94.92892,40.8429],[-94.92873,40.83541],[-94.92893,40.82387],[-94.92861,40.82092],[-94.92866,40.8136],[-94.92894,40.75074],[-94.92828,40.74918],[-94.92853,40.7274],[-94.91312,40.72729],[-94.91356,40.70729],[-94.91365,40.70368],[-94.91471,40.66602],[-94.91443,40.6641],[-94.91457,40.65696],[-94.91468,40.65089],[-94.91471,40.64968],[-94.91474,40.63155],[-94.91477,40.62784],[-94.91473,40.62063],[-94.91482,40.59918],[-94.9149,40.57507],[-94.95327,40.57564],[-94.95513,40.57567],[-94.96649,40.57584],[-94.99166,40.57569],[-95.02182,40.57616],[-95.02184,40.57616],[-95.03068,40.57629],[-95.04023,40.57644],[-95.06892,40.57688],[-95.07974,40.57701],[-95.09761,40.57717],[-95.10721,40.57712],[-95.1103,40.57716],[-95.11066,40.57721],[-95.11222,40.57723],[-95.12083,40.57741],[-95.14511,40.57774],[-95.1545,40.57786],[-95.16401,40.57802],[-95.16406,40.57802],[-95.20226,40.57853],[-95.21141,40.57865],[-95.21159,40.57865],[-95.21166,40.57866],[-95.21271,40.57868],[-95.21333,40.57869],[-95.21745,40.57876],[-95.21878,40.57878],[-95.22152,40.57883],[-95.22474,40.57886],[-95.23086,40.57891],[-95.25901,40.57917],[-95.33559,40.57987],[-95.3578,40.5801],[-95.37389,40.5805],[-95.37392,40.5805],[-95.41541,40.58101],[-95.43108,40.58117],[-95.45506,40.5814],[-95.46932,40.58154],[-95.48814,40.58172],[-95.49916,40.58183],[-95.52539,40.58209],[-95.52668,40.58214],[-95.53318,40.58225],[-95.54531,40.58246],[-95.55496,40.58263],[-95.57405,40.58296],[-95.61088,40.58349],[-95.61107,40.58349],[-95.63807,40.58414],[-95.64184,40.58423],[-95.6522,40.58427],[-95.68744,40.58438],[-95.6875,40.58438],[-95.74644,40.58494],[-95.76564,40.58521],[-95.75889,40.58897],[-95.75315,40.59284],[-95.75005,40.59705],[-95.74886,40.59996],[-95.74863,40.60335],[-95.74968,40.60684],[-95.75127,40.60906],[-95.75292,40.6102],[-95.75804,40.61376],[-95.76441,40.61709],[-95.76682,40.61878],[-95.76893,40.62126],[-95.77008,40.62443],[-95.77032,40.63149],[-95.77044,40.63529],[-95.77132,40.63939],[-95.77283,40.6425],[-95.77418,40.64445],[-95.77625,40.64746],[-95.78191,40.65327],[-95.78657,40.65725],[-95.78948,40.65939],[-95.79549,40.66238],[-95.80431,40.66489],[-95.81415,40.66557],[-95.82291,40.66724],[-95.83073,40.67058],[-95.83083,40.67062],[-95.83218,40.6712],[-95.83559,40.67322],[-95.83774,40.6745],[-95.8428,40.6775],[-95.84483,40.67987],[-95.84495,40.68014],[-95.8451,40.68049],[-95.84603,40.68261],[-95.84793,40.6942],[-95.84923,40.69689],[-95.84983,40.69815],[-95.85261,40.70226],[-95.85308,40.70266],[-95.85938,40.70806],[-95.86317,40.70957],[-95.87048,40.71248],[-95.87528,40.71412],[-95.87701,40.71429],[-95.88318,40.71758],[-95.88535,40.72109],[-95.88891,40.73186],[-95.8887,40.73629],[-95.88669,40.7421],[-95.88364,40.74783],[-95.87903,40.75308],[-95.87333,40.75762],[-95.86998,40.75964],[-95.86169,40.76287],[-95.85278,40.76563],[-95.84662,40.76862],[-95.84282,40.77109],[-95.83888,40.77455],[-95.8369,40.77648],[-95.83523,40.77915],[-95.83416,40.78302],[-95.83422,40.78378],[-95.83452,40.78778],[-95.83581,40.79063],[-95.84374,40.80378],[-95.84488,40.80915],[-95.84534,40.81132],[-95.84493,40.81465],[-95.84485,40.81531],[-95.84392,40.81769],[-95.8386,40.82617],[-95.8373,40.83116],[-95.83719,40.83535],[-95.84131,40.8456],[-95.84177,40.84628],[-95.84708,40.85417],[-95.84849,40.85861],[-95.84855,40.86002],[-95.84859,40.86106],[-95.84778,40.86433],[-95.84694,40.86574],[-95.84407,40.86925],[-95.84252,40.87027],[-95.84045,40.87132],[-95.83873,40.87219],[-95.82499,40.875],[-95.81959,40.87744],[-95.81593,40.87985],[-95.81208,40.88424],[-95.81071,40.88668],[-95.80947,40.89123],[-95.80977,40.89545],[-95.81089,40.89791],[-95.81346,40.90169],[-95.8143,40.90294],[-95.81871,40.90682],[-95.8307,40.915],[-95.83304,40.91724],[-95.83644,40.92164],[-95.83777,40.92471],[-95.83843,40.9274],[-95.83974,40.93278],[-95.84027,40.93994],[-95.83938,40.94406],[-95.83795,40.95062],[-95.83299,40.95871],[-95.82983,40.96386],[-95.82833,40.97238],[-95.82907,40.97569],[-95.8303,40.97833],[-95.83354,40.98266],[-95.83891,40.98648],[-95.84017,40.98719],[-95.84435,40.98952],[-95.85255,40.99174],[-95.86012,40.99524],[-95.86349,40.99734],[-95.86681,41.00106],[-95.86683,41.00109],[-95.86729,41.0016],[-95.8692,41.00595],[-95.86949,41.0094],[-95.86837,41.0127],[-95.86588,41.0174],[-95.85992,41.0254],[-95.8591,41.0316],[-95.85965,41.03569],[-95.86046,41.03789],[-95.86178,41.03943],[-95.86981,41.0452],[-95.87949,41.0533],[-95.88185,41.05721],[-95.88241,41.06041],[-95.88137,41.0652],[-95.8781,41.06959],[-95.87344,41.07311],[-95.87063,41.07523],[-95.86546,41.08037],[-95.86384,41.08351],[-95.86259,41.0884],[-95.86327,41.09376],[-95.86545,41.10127],[-95.86548,41.10239],[-95.86588,41.11743],[-95.86589,41.1179],[-95.86869,41.1247],[-95.8699,41.12629],[-95.87503,41.13303],[-95.87889,41.1381],[-95.87919,41.13866],[-95.88209,41.144],[-95.88339,41.1509],[-95.88349,41.1549],[-95.88347,41.15493],[-95.88129,41.1599],[-95.88094,41.16027],[-95.87629,41.16515],[-95.87191,41.16812],[-95.86964,41.16883],[-95.86734,41.16873],[-95.86507,41.1678],[-95.85279,41.1654],[-95.84619,41.1667],[-95.84189,41.1711],[-95.84132,41.17477],[-95.84129,41.175],[-95.84172,41.17585],[-95.84314,41.17871],[-95.84409,41.1806],[-95.85019,41.1848],[-95.85679,41.1871],[-95.86479,41.1883],[-95.87355,41.18754],[-95.90969,41.1844],[-95.91459,41.1851],[-95.91829,41.1867],[-95.92082,41.18892],[-95.92319,41.191],[-95.92331,41.1912],[-95.92599,41.1957],[-95.92748,41.20217],[-95.92749,41.2022],[-95.92495,41.21098],[-95.92489,41.2112],[-95.92466,41.21148],[-95.91509,41.223],[-95.91259,41.227],[-95.91096,41.2316],[-95.91095,41.23163],[-95.91089,41.2318],[-95.91089,41.23189],[-95.91089,41.234],[-95.91139,41.238],[-95.91391,41.24322],[-95.91637,41.2483],[-95.91709,41.24979],[-95.92129,41.2585],[-95.92141,41.25971],[-95.92141,41.25973],[-95.92189,41.2646],[-95.92039,41.2684],[-95.91879,41.2697],[-95.91399,41.2714],[-95.91454,41.27177],[-95.91823,41.27428],[-95.92869,41.2814],[-95.92959,41.28508],[-95.92959,41.2851],[-95.92959,41.2923],[-95.92749,41.2984],[-95.92237,41.30032],[-95.92029,41.3011],[-95.90589,41.3009],[-95.90429,41.2996],[-95.90429,41.29759],[-95.90429,41.2935],[-95.90876,41.28587],[-95.9093,41.28494],[-95.91249,41.2795],[-95.90385,41.27423],[-95.90249,41.2734],[-95.89096,41.27798],[-95.88239,41.2814],[-95.87689,41.2851],[-95.87289,41.2895],[-95.87288,41.28952],[-95.87273,41.29022],[-95.87149,41.2958],[-95.87469,41.3071],[-95.87819,41.3125],[-95.88309,41.3167],[-95.88869,41.3191],[-95.89929,41.3212],[-95.91275,41.32027],[-95.91379,41.3202],[-95.92209,41.3211],[-95.92569,41.3222],[-95.92694,41.32281],[-95.93929,41.3289],[-95.93937,41.32895],[-95.94323,41.33159],[-95.94689,41.3341],[-95.95309,41.3399],[-95.95669,41.3455],[-95.95669,41.34561],[-95.9567,41.3458],[-95.95679,41.3492],[-95.95489,41.3518],[-95.95219,41.3535],[-95.94099,41.3575],[-95.93549,41.3606],[-95.93099,41.3647],[-95.93095,41.36481],[-95.92879,41.3701],[-95.92929,41.3749],[-95.93519,41.38439],[-95.93693,41.39098],[-95.93749,41.3931],[-95.93689,41.39639],[-95.93078,41.40618],[-95.92972,41.41133],[-95.92989,41.41515],[-95.93123,41.41903],[-95.9323,41.42212],[-95.93317,41.42943],[-95.93219,41.43191],[-95.9307,41.43389],[-95.9239,41.43974],[-95.92183,41.44206],[-95.92058,41.4443],[-95.91986,41.44792],[-95.92028,41.45157],[-95.92253,41.45577],[-95.92571,41.45938],[-95.93292,41.4638],[-95.9368,41.46519],[-95.94197,41.46626],[-95.94646,41.46617],[-95.95702,41.46281],[-95.96233,41.46281],[-95.96548,41.46351],[-95.97345,41.46732],[-95.98296,41.46978],[-95.99102,41.47037],[-96.00471,41.47234],[-96.00883,41.47404],[-96.01176,41.47621],[-96.01639,41.48156],[-96.01661,41.48191],[-96.01954,41.48662],[-96.01982,41.48803],[-96.01922,41.4893],[-96.01599,41.49266],[-96.00733,41.49763],[-95.9979,41.50479],[-95.99617,41.50696],[-95.99394,41.50976],[-95.99283,41.512],[-95.9926,41.51417],[-95.99267,41.51729],[-95.99389,41.52341],[-95.99997,41.53948],[-96.00511,41.54325],[-96.01388,41.54532],[-96.01915,41.54514],[-96.02349,41.54344],[-96.02666,41.54037],[-96.02689,41.53947],[-96.02931,41.52798],[-96.0317,41.52218],[-96.03444,41.52105],[-96.03367,41.51712],[-96.0344,41.51445],[-96.03488,41.5117],[-96.0366,41.50905],[-96.0381,41.50799],[-96.0407,41.50708],[-96.04812,41.50727],[-96.05369,41.50886],[-96.05793,41.51149],[-96.06364,41.51616],[-96.06863,41.51911],[-96.0692,41.51961],[-96.07416,41.52395],[-96.07992,41.5259],[-96.08265,41.52597],[-96.08981,41.53164],[-96.09201,41.53391],[-96.0965,41.54519],[-96.09659,41.5454],[-96.09585,41.55088],[-96.09427,41.5561],[-96.09361,41.55827],[-96.09182,41.56109],[-96.0884,41.56437],[-96.08479,41.56783],[-96.08241,41.57123],[-96.08118,41.57427],[-96.08115,41.57729],[-96.08184,41.58041],[-96.08197,41.58065],[-96.08342,41.58334],[-96.08577,41.58575],[-96.08868,41.58752],[-96.1015,41.59158],[-96.10446,41.59317],[-96.10754,41.59548],[-96.10939,41.59687],[-96.10961,41.59714],[-96.11383,41.60228],[-96.11465,41.6037],[-96.11583,41.60576],[-96.11756,41.61],[-96.1181,41.61349],[-96.11795,41.61736],[-96.11623,41.62157],[-96.11415,41.62398],[-96.1007,41.63551],[-96.09773,41.63963],[-96.09505,41.64736],[-96.09525,41.65028],[-96.09541,41.65274],[-96.09793,41.65868],[-96.09984,41.66103],[-96.11148,41.66855],[-96.11498,41.67122],[-96.11812,41.6744],[-96.12098,41.67786],[-96.12173,41.68274],[-96.12171,41.68299],[-96.1214,41.68852],[-96.1209,41.68958],[-96.12016,41.69115],[-96.11775,41.69422],[-96.11197,41.69777],[-96.10512,41.69992],[-96.09058,41.69743],[-96.08243,41.69816],[-96.07949,41.69975],[-96.07595,41.70166],[-96.07306,41.705],[-96.07232,41.70686],[-96.07249,41.70879],[-96.07338,41.71067],[-96.07515,41.71326],[-96.07968,41.71796],[-96.0876,41.72218],[-96.09299,41.72427],[-96.10261,41.72802],[-96.10558,41.73165],[-96.10633,41.73459],[-96.10642,41.73789],[-96.10462,41.74421],[-96.10277,41.74634],[-96.09751,41.74908],[-96.09742,41.7491],[-96.09169,41.75042],[-96.08467,41.75331],[-96.07991,41.75789],[-96.0783,41.7616],[-96.07832,41.76196],[-96.07894,41.77135],[-96.07754,41.77782],[-96.0732,41.78301],[-96.06641,41.78891],[-96.06454,41.793],[-96.06488,41.79623],[-96.06733,41.80063],[-96.06966,41.80351],[-96.07555,41.80781],[-96.08103,41.81014],[-96.09383,41.81278],[-96.09827,41.81421],[-96.10375,41.81715],[-96.10759,41.82068],[-96.10935,41.82373],[-96.11081,41.82817],[-96.11086,41.82941],[-96.11091,41.83082],[-96.10925,41.83609],[-96.10791,41.84034],[-96.10803,41.8444],[-96.11025,41.84885],[-96.11396,41.8531],[-96.1162,41.85487],[-96.12321,41.85858],[-96.13062,41.86081],[-96.13525,41.86313],[-96.13901,41.8663],[-96.1375,41.86631],[-96.05962,41.86471],[-96.02131,41.86376],[-96.02013,41.86384],[-95.9831,41.86349],[-95.96358,41.86353],[-95.90558,41.8634],[-95.8963,41.86356],[-95.88732,41.86343],[-95.88641,41.86349],[-95.81855,41.86336],[-95.78944,41.8633],[-95.78664,41.86337],[-95.78134,41.86325],[-95.75027,41.86327],[-95.67277,41.86315],[-95.59765,41.8633],[-95.59607,41.8633],[-95.596,41.8633],[-95.55728,41.86345],[-95.45966,41.86316],[-95.44053,41.86324],[-95.42906,41.86327],[-95.40895,41.86331],[-95.4022,41.86354],[-95.40152,41.86352],[-95.37322,41.86385],[-95.36366,41.86385],[-95.36233,41.86383],[-95.3538,41.86395],[-95.34907,41.864],[-95.34419,41.864],[-95.32484,41.86412],[-95.32481,41.8641],[-95.32374,41.86421],[-95.30551,41.86413],[-95.20902,41.86371],[-95.09286,41.86337],[-95.09304,41.79844],[-95.0933,41.77694],[-95.0932,41.70277],[-95.09316,41.68835],[-95.09279,41.66725],[-95.09265,41.65973],[-95.09252,41.60205],[-95.06478,41.60215],[-95.05508,41.60216],[-95.04075,41.60215],[-95.04074,41.51929],[-95.04077,41.50469],[-94.94563,41.5046],[-94.92638,41.50452],[-94.89777,41.50449],[-94.86874,41.50459],[-94.83507,41.5044],[-94.81583,41.50442],[-94.77728,41.50429],[-94.70063,41.50415],[-94.70062,41.50067],[-94.70048,41.49705],[-94.70053,41.48973],[-94.70057,41.4825],[-94.7007,41.41758],[-94.70018,41.34546],[-94.7001,41.33104],[-94.7003,41.30388],[-94.70013,41.30114],[-94.70044,41.24489],[-94.70054,41.24428],[-94.70059,41.2006],[-94.70059,41.15808],[-94.70498,41.1579],[-94.75748,41.15819],[-94.81495,41.15839],[-94.85321,41.15846],[-94.8724,41.15845],[-94.90986,41.15847],[-94.9107,41.15842],[-94.92759,41.15851],[-94.92761,41.15172],[-94.92763,41.1446],[-94.92763,41.1444],[-94.92758,41.10147],[-94.92746,41.09952],[-94.92768,41.07232],[-94.92768,41.06602],[-94.92784,41.02997],[-94.92786,41.00849],[-94.92773,41.00559],[-94.92818,40.9884],[-94.92804,40.98621],[-94.92806,40.98022],[-94.9286,40.90177],[-94.92846,40.90065],[-94.92852,40.90045],[-94.92876,40.88985],[-94.9289,40.87008]]]}},{"type":"Feature","properties":{"name":"Trip Connect (Johnson County)","boundary_type":"places","source":"Census TIGER place","fidelity":"approximate","updated":"2026-09","units":"Iowa City city; Coralville city; University Heights city; North Liberty city; Tiffin city","note":"Service is explicitly within city limits of Iowa City, Coralville, University Heights, North Liberty, and Tiffin, plus pickup/dropoff at other locations north of I-80 in Johnson County (evening service, 5pm-midnight) \u2014 not the full county (1,615 km\u00b2), which would overstate coverage south of I-80. The unincorporated north-of-I-80 area outside these five cities is not separately mappable with available resolver boundary_types, so this uses the five named cities as an approximate proxy that captures the core of the service area. Pilot ended June 30, 2026. Source: https://www.johnsoncountyiowa.gov/node/14198 and https://www.johnsoncountyiowa.gov/sites/default/files/2025-01/Trip%20Connect%20Flyer.pdf","confidence":0.7},"geometry":{"type":"MultiPolygon","coordinates":[[[[-91.61528,41.67034],[-91.61684,41.67146],[-91.61707,41.67163],[-91.61787,41.67343],[-91.613,41.67525],[-91.60933,41.67523],[-91.60931,41.68246],[-91.61778,41.68256],[-91.61787,41.69051],[-91.61948,41.69042],[-91.62771,41.69137],[-91.62768,41.687],[-91.63434,41.68699],[-91.63742,41.68698],[-91.65192,41.68714],[-91.65193,41.69369],[-91.6609,41.6934],[-91.66268,41.6928],[-91.66164,41.69085],[-91.66166,41.68815],[-91.66391,41.68823],[-91.66395,41.68722],[-91.67133,41.68726],[-91.67136,41.69355],[-91.67621,41.69429],[-91.67,41.69465],[-91.66654,41.69572],[-91.66655,41.69815],[-91.66898,41.69817],[-91.66901,41.70345],[-91.68592,41.70301],[-91.68592,41.70879],[-91.69082,41.71049],[-91.69081,41.71286],[-91.68597,41.71283],[-91.68601,41.70936],[-91.6811,41.70893],[-91.68108,41.71646],[-91.66715,41.71636],[-91.66708,41.71684],[-91.66654,41.71848],[-91.66647,41.71997],[-91.67062,41.72002],[-91.67102,41.7204],[-91.67115,41.72366],[-91.66157,41.72354],[-91.66156,41.7272],[-91.65177,41.72706],[-91.65181,41.72344],[-91.64694,41.72339],[-91.64688,41.73049],[-91.64173,41.73059],[-91.61754,41.73052],[-91.61749,41.73315],[-91.62474,41.73325],[-91.62479,41.73067],[-91.62727,41.73066],[-91.62724,41.73415],[-91.63945,41.73421],[-91.6395,41.73071],[-91.64171,41.73072],[-91.64191,41.7379],[-91.64177,41.74775],[-91.64141,41.74947],[-91.63986,41.75194],[-91.63696,41.7525],[-91.63964,41.75271],[-91.64144,41.75519],[-91.64142,41.75976],[-91.62714,41.75971],[-91.6271,41.76333],[-91.62223,41.76328],[-91.6222,41.76694],[-91.61829,41.767],[-91.62044,41.77057],[-91.62021,41.77198],[-91.61732,41.77196],[-91.61713,41.77196],[-91.61151,41.7719],[-91.61151,41.77044],[-91.6081,41.77038],[-91.60772,41.7668],[-91.60027,41.76663],[-91.59777,41.76706],[-91.5978,41.77024],[-91.58826,41.77013],[-91.58685,41.76959],[-91.58716,41.76653],[-91.5921,41.76657],[-91.59218,41.76199],[-91.5938,41.76202],[-91.59383,41.76084],[-91.59577,41.76088],[-91.59581,41.75918],[-91.59106,41.75924],[-91.59054,41.75927],[-91.59042,41.75202],[-91.57464,41.75189],[-91.57365,41.7508],[-91.57587,41.7496],[-91.57576,41.74468],[-91.5711,41.74465],[-91.571,41.73909],[-91.56619,41.73899],[-91.5661,41.73383],[-91.57276,41.7336],[-91.57276,41.73071],[-91.57481,41.7307],[-91.57576,41.73236],[-91.57574,41.73363],[-91.57683,41.73364],[-91.57682,41.73485],[-91.58053,41.73489],[-91.58052,41.73439],[-91.58032,41.73422],[-91.58048,41.73371],[-91.59026,41.73381],[-91.59019,41.73017],[-91.59326,41.73018],[-91.59332,41.72653],[-91.5876,41.7265],[-91.58758,41.72505],[-91.58583,41.72505],[-91.58571,41.72289],[-91.58995,41.72287],[-91.59132,41.72086],[-91.59182,41.71963],[-91.59138,41.72042],[-91.58963,41.71849],[-91.59002,41.71764],[-91.58507,41.71624],[-91.58022,41.71622],[-91.58027,41.72293],[-91.57779,41.72645],[-91.57217,41.72702],[-91.57354,41.72817],[-91.57081,41.72815],[-91.57093,41.73358],[-91.56616,41.73312],[-91.56212,41.73058],[-91.56117,41.72915],[-91.56097,41.72286],[-91.5613,41.71947],[-91.56371,41.71848],[-91.56556,41.71997],[-91.57051,41.72555],[-91.57065,41.72264],[-91.57231,41.72265],[-91.57391,41.72411],[-91.57816,41.72394],[-91.57777,41.7173],[-91.57536,41.71726],[-91.57524,41.71178],[-91.56558,41.71167],[-91.56558,41.71349],[-91.56312,41.71351],[-91.56374,41.71162],[-91.55565,41.7115],[-91.55087,41.71161],[-91.55064,41.71054],[-91.55014,41.70947],[-91.55006,41.70869],[-91.55031,41.70788],[-91.55168,41.70789],[-91.55093,41.70613],[-91.54911,41.70619],[-91.5491,41.70428],[-91.5507,41.70428],[-91.55072,41.70147],[-91.55179,41.70059],[-91.55713,41.70068],[-91.56012,41.70073],[-91.5625,41.70075],[-91.56246,41.70032],[-91.56248,41.69907],[-91.56417,41.69618],[-91.56629,41.69341],[-91.56378,41.6894],[-91.56381,41.6861],[-91.55745,41.68604],[-91.55843,41.69274],[-91.55737,41.69445],[-91.55478,41.69572],[-91.54963,41.69456],[-91.54736,41.69402],[-91.54665,41.69112],[-91.54398,41.68893],[-91.54564,41.68771],[-91.5457,41.68595],[-91.5341,41.68751],[-91.5245,41.68744],[-91.52157,41.68737],[-91.51193,41.68714],[-91.51204,41.69299],[-91.51151,41.69334],[-91.51156,41.69591],[-91.50592,41.69586],[-91.50387,41.69586],[-91.50239,41.69585],[-91.5024,41.69661],[-91.49274,41.69662],[-91.49267,41.69559],[-91.49539,41.69297],[-91.48237,41.69299],[-91.48219,41.69298],[-91.48184,41.69297],[-91.48183,41.69259],[-91.48161,41.68553],[-91.48162,41.68504],[-91.48183,41.66911],[-91.47739,41.67001],[-91.47743,41.66747],[-91.47928,41.66749],[-91.47902,41.66353],[-91.47707,41.66407],[-91.47713,41.66318],[-91.47532,41.66311],[-91.47526,41.664],[-91.47273,41.6639],[-91.47264,41.6639],[-91.4726,41.66749],[-91.47501,41.66759],[-91.47499,41.67099],[-91.46772,41.67104],[-91.46779,41.66744],[-91.47065,41.66747],[-91.47072,41.66387],[-91.46305,41.66377],[-91.46311,41.65382],[-91.46429,41.65384],[-91.46432,41.65204],[-91.46316,41.65203],[-91.46313,41.65203],[-91.4632,41.64786],[-91.46517,41.64788],[-91.46594,41.64653],[-91.46598,41.64654],[-91.46609,41.64604],[-91.46547,41.64523],[-91.46542,41.64402],[-91.46805,41.64404],[-91.46801,41.6472],[-91.47079,41.64809],[-91.47001,41.64944],[-91.47088,41.64972],[-91.47083,41.65389],[-91.47273,41.65391],[-91.47281,41.64873],[-91.47613,41.64971],[-91.4769,41.64973],[-91.47953,41.64976],[-91.47954,41.64679],[-91.48287,41.64679],[-91.48285,41.6372],[-91.47296,41.63324],[-91.47295,41.63506],[-91.46331,41.63483],[-91.46335,41.62907],[-91.46675,41.63043],[-91.46688,41.62863],[-91.46585,41.62766],[-91.46755,41.62772],[-91.46771,41.62415],[-91.47299,41.62437],[-91.47299,41.63021],[-91.47543,41.63021],[-91.47545,41.62798],[-91.47967,41.62798],[-91.48086,41.62745],[-91.48286,41.62833],[-91.48373,41.6287],[-91.48897,41.63093],[-91.48901,41.62898],[-91.49011,41.62899],[-91.49015,41.6206],[-91.49256,41.62057],[-91.49258,41.61693],[-91.49742,41.61688],[-91.49748,41.61322],[-91.50235,41.61316],[-91.50235,41.60588],[-91.50679,41.60587],[-91.50679,41.60417],[-91.50578,41.59857],[-91.50602,41.59857],[-91.50703,41.60416],[-91.50703,41.60587],[-91.51192,41.60586],[-91.5119,41.62047],[-91.50387,41.62047],[-91.50324,41.6197],[-91.50221,41.62051],[-91.50217,41.62771],[-91.50703,41.62773],[-91.51181,41.62774],[-91.51181,41.62763],[-91.51188,41.62114],[-91.51573,41.62112],[-91.51631,41.62178],[-91.51549,41.62309],[-91.51449,41.62309],[-91.51447,41.62773],[-91.5269,41.6277],[-91.52679,41.62751],[-91.52261,41.6199],[-91.52618,41.6192],[-91.53358,41.61928],[-91.53373,41.62138],[-91.53547,41.62139],[-91.53719,41.62347],[-91.53643,41.6251],[-91.53331,41.62752],[-91.5336,41.62776],[-91.53704,41.62517],[-91.53768,41.62407],[-91.54092,41.62409],[-91.54112,41.61592],[-91.53814,41.61591],[-91.53792,41.61316],[-91.54249,41.61319],[-91.54405,41.61914],[-91.54426,41.62344],[-91.5462,41.6234],[-91.54622,41.62389],[-91.54423,41.62394],[-91.54333,41.62945],[-91.54251,41.63068],[-91.54472,41.63132],[-91.5492,41.63133],[-91.54908,41.63572],[-91.55189,41.63748],[-91.55318,41.63761],[-91.55984,41.63587],[-91.55994,41.63297],[-91.55731,41.63231],[-91.55515,41.6324],[-91.55519,41.63142],[-91.56495,41.63163],[-91.56157,41.62776],[-91.56982,41.62787],[-91.56975,41.62995],[-91.57057,41.63139],[-91.57477,41.62901],[-91.57487,41.62943],[-91.57474,41.62948],[-91.57451,41.63428],[-91.57198,41.63689],[-91.57311,41.63877],[-91.57429,41.63916],[-91.57426,41.64042],[-91.57424,41.64095],[-91.57636,41.64245],[-91.57715,41.64246],[-91.58397,41.64253],[-91.6029,41.64266],[-91.60902,41.64002],[-91.60889,41.64267],[-91.61036,41.64267],[-91.60988,41.65355],[-91.61842,41.65357],[-91.61832,41.65718],[-91.60977,41.65714],[-91.60955,41.66647],[-91.61528,41.67034]],[[-91.46814,41.65201],[-91.46942,41.65067],[-91.46815,41.65073],[-91.46758,41.65073],[-91.46759,41.65201],[-91.46814,41.65201]]],[[[-91.64289,41.74518],[-91.65158,41.74528],[-91.65154,41.74892],[-91.6515,41.75258],[-91.64493,41.7525],[-91.64298,41.74968],[-91.64289,41.74518]]]]}}]}