{"type":"FeatureCollection","features":[{"type":"Feature","properties":{"name":"GIFT On-Demand","boundary_type":"city","source":"Census TIGER place","fidelity":"exact","updated":"2026-09","units":"Idaho Falls city","note":"Service explicitly described as City of Idaho Falls, citywide microtransit coverage.","confidence":1.0},"geometry":{"type":"MultiPolygon","coordinates":[[[[-112.09769,43.50406],[-112.0967,43.50721],[-112.0962,43.51125],[-112.09348,43.51119],[-112.0935,43.51028],[-112.09175,43.51028],[-112.09077,43.50985],[-112.08791,43.50989],[-112.08688,43.51013],[-112.08629,43.51112],[-112.083,43.51108],[-112.0781,43.5111],[-112.07812,43.51833],[-112.07318,43.51832],[-112.0732,43.52191],[-112.06825,43.52192],[-112.06781,43.52553],[-112.06824,43.52553],[-112.06821,43.53216],[-112.06526,43.53215],[-112.06327,43.52902],[-112.06301,43.53186],[-112.05839,43.52689],[-112.05779,43.52571],[-112.05621,43.52571],[-112.05496,43.52557],[-112.05397,43.52383],[-112.05249,43.52213],[-112.0517,43.52382],[-112.047,43.52383],[-112.04696,43.52554],[-112.05288,43.52553],[-112.0534,43.52638],[-112.0531,43.53645],[-112.04317,43.53646],[-112.04227,43.53755],[-112.04316,43.54061],[-112.04315,43.5437],[-112.04148,43.54372],[-112.04153,43.54654],[-112.04317,43.54653],[-112.04319,43.54878],[-112.04036,43.54878],[-112.04038,43.54997],[-112.0432,43.55],[-112.04319,43.55328],[-112.03523,43.55339],[-112.03522,43.55497],[-112.03186,43.5558],[-112.03009,43.55577],[-112.03056,43.55346],[-112.02381,43.55354],[-112.02381,43.55135],[-112.01372,43.55144],[-112.01369,43.55054],[-112.01794,43.54996],[-112.0238,43.54991],[-112.02379,43.54903],[-112.02758,43.54864],[-112.03048,43.55091],[-112.02429,43.54546],[-112.02419,43.54098],[-112.02654,43.54097],[-112.02664,43.53907],[-112.03008,43.53902],[-112.03232,43.53657],[-112.03376,43.53656],[-112.03366,43.53298],[-112.02867,43.53305],[-112.02877,43.53661],[-112.02415,43.53667],[-112.02369,43.53279],[-112.02367,43.52888],[-112.02409,43.52804],[-112.02662,43.52583],[-112.03187,43.5269],[-112.03262,43.52575],[-112.03268,43.52201],[-112.03017,43.52169],[-112.02854,43.52264],[-112.02858,43.51921],[-112.02648,43.51944],[-112.02369,43.52045],[-112.02363,43.52588],[-112.02338,43.52584],[-112.0234,43.5251],[-112.02234,43.52525],[-112.02035,43.52525],[-112.01827,43.52308],[-112.01617,43.52219],[-112.01364,43.52578],[-112.01019,43.5258],[-112.01019,43.52379],[-112.01364,43.52378],[-112.01367,43.51981],[-112.01235,43.51923],[-112.01342,43.51691],[-112.01219,43.51761],[-112.00958,43.51681],[-112.00883,43.51545],[-112.00788,43.51737],[-112.00863,43.51861],[-112.00382,43.51848],[-112.00373,43.51937],[-112.00249,43.51858],[-111.99916,43.51852],[-112.00039,43.51725],[-111.99971,43.51427],[-111.99809,43.51427],[-111.99759,43.51141],[-111.99667,43.51854],[-111.98888,43.51859],[-111.98892,43.51251],[-111.9865,43.51256],[-111.98648,43.51509],[-111.98393,43.51508],[-111.98377,43.51138],[-111.98393,43.51136],[-111.98403,43.51099],[-111.98731,43.51118],[-111.98733,43.50941],[-111.98895,43.50942],[-111.98896,43.50767],[-111.99393,43.50761],[-111.99405,43.50407],[-111.99632,43.50425],[-111.99669,43.50601],[-111.99669,43.50511],[-111.99896,43.50511],[-111.99894,43.50402],[-111.9839,43.50408],[-111.97425,43.50408],[-111.97633,43.50104],[-111.97934,43.49993],[-111.98282,43.49646],[-111.98388,43.49647],[-111.98398,43.48687],[-111.98427,43.48212],[-111.98397,43.46791],[-111.98402,43.45771],[-111.98401,43.45711],[-111.9881,43.45718],[-111.98827,43.45337],[-111.98392,43.45338],[-111.98388,43.44613],[-111.98391,43.43991],[-111.98568,43.4389],[-111.98893,43.43892],[-111.98892,43.43686],[-111.99764,43.43181],[-112.00387,43.43188],[-112.00377,43.43902],[-111.99884,43.43897],[-111.9988,43.44619],[-112.0036,43.44619],[-112.00363,43.44884],[-112.00087,43.4497],[-111.99879,43.44973],[-111.99879,43.44781],[-111.99381,43.44878],[-111.99122,43.45337],[-112.00376,43.45345],[-112.00385,43.45554],[-112.00143,43.45558],[-112.00147,43.45711],[-111.99385,43.45707],[-111.99392,43.46066],[-112.00377,43.46086],[-112.00406,43.46088],[-112.00406,43.46398],[-112.00772,43.46341],[-112.00775,43.46088],[-112.01231,43.46091],[-112.01192,43.45968],[-112.01392,43.46029],[-112.01797,43.45788],[-112.02163,43.45788],[-112.02142,43.45902],[-112.02383,43.45941],[-112.02376,43.45686],[-112.02869,43.45692],[-112.02845,43.45574],[-112.02373,43.45572],[-112.02372,43.45532],[-112.02538,43.45535],[-112.02542,43.45438],[-112.02865,43.45363],[-112.02366,43.45357],[-112.02366,43.45263],[-112.02261,43.4526],[-112.01854,43.45202],[-112.01861,43.44628],[-112.02373,43.44631],[-112.02461,43.4451],[-112.02871,43.44512],[-112.02869,43.44642],[-112.03348,43.4465],[-112.03342,43.44719],[-112.03372,43.44642],[-112.03368,43.44037],[-112.03442,43.43923],[-112.04353,43.4393],[-112.04358,43.43195],[-112.0636,43.4321],[-112.06359,43.433],[-112.06852,43.433],[-112.06848,43.43945],[-112.07341,43.43945],[-112.07342,43.4432],[-112.07465,43.44368],[-112.07415,43.44548],[-112.06773,43.45375],[-112.08243,43.4537],[-112.08028,43.45715],[-112.07792,43.46193],[-112.07708,43.46327],[-112.07305,43.46478],[-112.07312,43.46745],[-112.08332,43.46745],[-112.08857,43.46465],[-112.09036,43.46606],[-112.09033,43.46794],[-112.09296,43.46793],[-112.09295,43.47227],[-112.08768,43.47389],[-112.08474,43.47446],[-112.08472,43.47301],[-112.08306,43.47267],[-112.0788,43.47401],[-112.07789,43.47468],[-112.08291,43.47534],[-112.0829,43.47619],[-112.07828,43.47558],[-112.07652,43.47729],[-112.08044,43.47798],[-112.07976,43.47906],[-112.08299,43.47907],[-112.08295,43.48108],[-112.08794,43.4804],[-112.08764,43.48243],[-112.09293,43.48237],[-112.09268,43.49673],[-112.09778,43.49663],[-112.09716,43.50128],[-112.09769,43.50406]],[[-112.03442,43.53297],[-112.04091,43.53289],[-112.04316,43.5348],[-112.0432,43.53285],[-112.0409,43.53285],[-112.04322,43.53202],[-112.04324,43.52926],[-112.03728,43.52929],[-112.03367,43.53297],[-112.03366,43.53298],[-112.03442,43.53297]],[[-112.01994,43.52308],[-112.02341,43.52309],[-112.0234,43.52093],[-112.01985,43.52092],[-112.0174,43.52044],[-112.01668,43.52177],[-112.01826,43.52182],[-112.01827,43.52283],[-112.01827,43.52308],[-112.01994,43.52308]],[[-112.02924,43.45364],[-112.02931,43.45733],[-112.03114,43.45734],[-112.03113,43.45627],[-112.0336,43.45645],[-112.03359,43.45369],[-112.0336,43.45203],[-112.03068,43.45202],[-112.03067,43.45365],[-112.03049,43.45365],[-112.02864,43.45224],[-112.02865,43.45363],[-112.02924,43.45364]],[[-112.088,43.47155],[-112.08728,43.47155],[-112.08728,43.47293],[-112.08877,43.47286],[-112.08866,43.47155],[-112.088,43.47155]],[[-112.08296,43.49131],[-112.08102,43.49128],[-112.08102,43.4921],[-112.08013,43.49224],[-112.08005,43.49486],[-112.08293,43.49483],[-112.08293,43.496],[-112.0858,43.49041],[-112.08296,43.49039],[-112.08296,43.49131]],[[-112.07927,43.49671],[-112.07924,43.4983],[-112.08215,43.49831],[-112.08209,43.4967],[-112.07927,43.49671]],[[-112.07549,43.48235],[-112.07509,43.48234],[-112.07318,43.48305],[-112.07294,43.4848],[-112.07313,43.48592],[-112.07414,43.48592],[-112.07682,43.48427],[-112.07728,43.48403],[-112.0772,43.48234],[-112.07549,43.48235]],[[-112.07248,43.48025],[-112.0758,43.47875],[-112.07315,43.47817],[-112.06789,43.48231],[-112.0673,43.48246],[-112.06576,43.48349],[-112.06575,43.48587],[-112.07009,43.4859],[-112.07032,43.48374],[-112.07225,43.48375],[-112.07225,43.48479],[-112.07313,43.4823],[-112.0748,43.48233],[-112.07621,43.48173],[-112.07622,43.48087],[-112.07248,43.48025]],[[-112.07561,43.46998],[-112.07316,43.47118],[-112.07318,43.47283],[-112.07577,43.47399],[-112.076,43.4741],[-112.07561,43.46998]],[[-112.07273,43.4738],[-112.07104,43.47498],[-112.07113,43.47556],[-112.07316,43.47613],[-112.07317,43.47382],[-112.07273,43.4738]],[[-112.06829,43.4721],[-112.06594,43.4757],[-112.06335,43.47705],[-112.06332,43.4782],[-112.0682,43.48093],[-112.07214,43.47804],[-112.06841,43.47646],[-112.06829,43.4721]],[[-112.06836,43.47207],[-112.06836,43.47376],[-112.06922,43.47376],[-112.072,43.47197],[-112.072,43.47173],[-112.06836,43.47207]],[[-112.06402,43.45855],[-112.06323,43.45958],[-112.06795,43.45958],[-112.068,43.45855],[-112.06402,43.45855]],[[-112.05347,43.45359],[-112.05352,43.4466],[-112.04743,43.44655],[-112.04888,43.44492],[-112.04354,43.44394],[-112.04354,43.4436],[-112.03871,43.44467],[-112.04001,43.44646],[-112.04,43.44906],[-112.03752,43.44906],[-112.03834,43.45375],[-112.03857,43.45375],[-112.03861,43.4574],[-112.0435,43.45743],[-112.04346,43.4609],[-112.04574,43.46088],[-112.0457,43.45896],[-112.04538,43.45744],[-112.05139,43.45747],[-112.0473,43.4647],[-112.04713,43.46818],[-112.04845,43.46818],[-112.04846,43.46471],[-112.05347,43.46473],[-112.05346,43.46794],[-112.05525,43.46807],[-112.05526,43.46517],[-112.05676,43.46517],[-112.05677,43.46451],[-112.05757,43.4639],[-112.05864,43.46433],[-112.06339,43.45837],[-112.06338,43.45783],[-112.06038,43.45779],[-112.06033,43.45778],[-112.06033,43.45504],[-112.06281,43.45505],[-112.06282,43.4575],[-112.0635,43.45751],[-112.0635,43.45802],[-112.06673,43.45388],[-112.05347,43.45359]],[[-112.05511,43.44662],[-112.06349,43.44669],[-112.0648,43.44323],[-112.0635,43.44322],[-112.06505,43.43574],[-112.06157,43.43944],[-112.05861,43.43939],[-112.05852,43.43764],[-112.05388,43.43769],[-112.04864,43.43685],[-112.04863,43.43929],[-112.05046,43.4393],[-112.0499,43.44296],[-112.05354,43.44301],[-112.05353,43.44354],[-112.05352,43.4466],[-112.05511,43.44662]],[[-112.06419,43.48237],[-112.06347,43.48275],[-112.06341,43.48408],[-112.06631,43.4823],[-112.06423,43.48231],[-112.06419,43.48237]],[[-112.06183,43.47193],[-112.06115,43.47211],[-112.06191,43.47268],[-112.06102,43.47332],[-112.06342,43.47361],[-112.06343,43.4719],[-112.06183,43.47193]],[[-112.05867,43.48961],[-112.05791,43.49083],[-112.05634,43.49086],[-112.05584,43.48975],[-112.05525,43.49129],[-112.05958,43.49109],[-112.05961,43.48959],[-112.05867,43.48961]],[[-112.05546,43.47779],[-112.05328,43.48039],[-112.05369,43.48031],[-112.05834,43.47945],[-112.05833,43.47765],[-112.05546,43.47779]],[[-112.04583,43.47196],[-112.04686,43.47219],[-112.04702,43.47423],[-112.04959,43.47427],[-112.04957,43.47197],[-112.04583,43.47196]],[[-112.04325,43.52052],[-112.04171,43.51952],[-112.04172,43.51805],[-112.04162,43.51952],[-112.03859,43.5196],[-112.03846,43.52272],[-112.04329,43.52288],[-112.04332,43.5215],[-112.047,43.52078],[-112.04325,43.52052]],[[-112.04346,43.46104],[-112.04344,43.46439],[-112.04417,43.46438],[-112.04452,43.46273],[-112.04576,43.46103],[-112.04346,43.46104]],[[-112.04415,43.53148],[-112.04331,43.53233],[-112.04329,43.53428],[-112.04554,43.53429],[-112.04556,43.53148],[-112.04415,43.53148]],[[-112.04327,43.52554],[-112.04325,43.52705],[-112.04484,43.52706],[-112.04486,43.52554],[-112.04327,43.52554]],[[-112.03855,43.52566],[-112.03858,43.52739],[-112.04114,43.52733],[-112.0411,43.5256],[-112.03855,43.52566]],[[-112.03652,43.51845],[-112.03357,43.5185],[-112.03351,43.52144],[-112.03351,43.52164],[-112.03926,43.51687],[-112.04018,43.51531],[-112.03957,43.51508],[-112.03652,43.51845]],[[-112.03346,43.52573],[-112.03352,43.52936],[-112.03656,43.52932],[-112.03653,43.52793],[-112.03601,43.5272],[-112.03729,43.52671],[-112.03727,43.52569],[-112.03346,43.52573]],[[-112.03267,43.55344],[-112.03271,43.55391],[-112.03288,43.55468],[-112.03374,43.55468],[-112.03374,43.55444],[-112.03445,43.55443],[-112.03445,43.55339],[-112.03267,43.55344]],[[-112.02258,43.46099],[-112.0176,43.46097],[-112.01619,43.46195],[-112.01632,43.46097],[-112.01395,43.46092],[-112.01687,43.46456],[-112.02386,43.4646],[-112.02384,43.46049],[-112.02258,43.46099]],[[-112.02186,43.51261],[-112.01868,43.51224],[-112.01892,43.5183],[-112.02168,43.51694],[-112.02345,43.51534],[-112.02113,43.51576],[-112.0235,43.51178],[-112.02154,43.51458],[-112.02186,43.51261]],[[-111.99971,43.5074],[-111.99798,43.50824],[-111.99795,43.5111],[-111.99988,43.51036],[-112.00056,43.50963],[-111.99971,43.5074]],[[-111.99108,43.46425],[-111.98907,43.46424],[-111.98915,43.46733],[-111.99114,43.46734],[-111.9911,43.46539],[-111.99108,43.46425]]],[[[-112.0509,43.55329],[-112.04746,43.55819],[-112.04436,43.55895],[-112.04319,43.55665],[-112.04321,43.55373],[-112.04319,43.55328],[-112.04736,43.55332],[-112.04773,43.55179],[-112.04984,43.55024],[-112.05141,43.54942],[-112.05099,43.55135],[-112.052,43.55301],[-112.05828,43.55306],[-112.05823,43.55322],[-112.0509,43.55329]]]]}},{"type":"Feature","properties":{"name":"VRT On-Demand (Nampa/Caldwell)","boundary_type":"places","source":"Census TIGER place","fidelity":"approximate","updated":"2026-09","units":"Nampa city; Caldwell city","note":"Service described as 'Nampa, Caldwell, and surrounding Canyon County'; encoded as two primary cities with surrounding areas. May extend beyond city limits within Canyon County.","confidence":0.85},"geometry":{"type":"MultiPolygon","coordinates":[[[[-116.64482,43.60475],[-116.64417,43.60112],[-116.63646,43.60124],[-116.63769,43.60286],[-116.63713,43.60487],[-116.63289,43.60495],[-116.63288,43.60133],[-116.62791,43.60133],[-116.62791,43.59907],[-116.63001,43.59905],[-116.62797,43.59627],[-116.62798,43.59039],[-116.62879,43.59039],[-116.63291,43.59383],[-116.63292,43.59136],[-116.63796,43.59217],[-116.63793,43.59032],[-116.64295,43.59024],[-116.64299,43.59387],[-116.64319,43.59496],[-116.64797,43.5949],[-116.64617,43.59385],[-116.64607,43.5902],[-116.64868,43.59017],[-116.64871,43.59136],[-116.64954,43.59376],[-116.65294,43.59369],[-116.65294,43.60099],[-116.64794,43.60106],[-116.64794,43.60386],[-116.64482,43.60475]]],[[[-116.6836,43.60792],[-116.69289,43.60782],[-116.69288,43.61144],[-116.68773,43.6115],[-116.68287,43.60924],[-116.68286,43.60434],[-116.69289,43.60416],[-116.69287,43.6051],[-116.68723,43.60517],[-116.68727,43.60722],[-116.6836,43.60727],[-116.6836,43.60792]]],[[[-116.66554,43.63369],[-116.66302,43.63372],[-116.66301,43.63275],[-116.66555,43.63273],[-116.66554,43.63369]]],[[[-116.71307,43.63592],[-116.71309,43.63338],[-116.72177,43.63332],[-116.72312,43.63694],[-116.71815,43.637],[-116.71811,43.63588],[-116.71307,43.63592]]],[[[-116.71075,43.6733],[-116.70822,43.67332],[-116.70366,43.6734],[-116.7032,43.67474],[-116.70257,43.67741],[-116.70245,43.67752],[-116.70237,43.6776],[-116.70829,43.68164],[-116.70813,43.68409],[-116.70556,43.68414],[-116.70315,43.6828],[-116.70314,43.68418],[-116.69809,43.68419],[-116.69812,43.68191],[-116.6957,43.6802],[-116.69309,43.6803],[-116.69309,43.67955],[-116.68933,43.6805],[-116.68629,43.68167],[-116.68544,43.68265],[-116.68461,43.68642],[-116.68612,43.68896],[-116.68748,43.69248],[-116.68727,43.69392],[-116.685,43.69396],[-116.68436,43.69469],[-116.68357,43.69575],[-116.68091,43.69707],[-116.67821,43.69779],[-116.67831,43.69393],[-116.67759,43.69216],[-116.67399,43.69179],[-116.67341,43.69065],[-116.67334,43.68766],[-116.67064,43.68555],[-116.66779,43.68364],[-116.66822,43.67902],[-116.6657,43.67721],[-116.66569,43.67551],[-116.6632,43.67551],[-116.6632,43.67701],[-116.66069,43.67726],[-116.66071,43.67964],[-116.65858,43.67965],[-116.65857,43.67727],[-116.65813,43.67414],[-116.65764,43.67362],[-116.65293,43.67366],[-116.64568,43.67377],[-116.6418,43.67206],[-116.6418,43.67381],[-116.64222,43.67381],[-116.64227,43.67535],[-116.6399,43.6758],[-116.63988,43.67383],[-116.63307,43.67392],[-116.63304,43.67262],[-116.62831,43.67266],[-116.6283,43.67398],[-116.62831,43.67649],[-116.6275,43.67758],[-116.61333,43.67763],[-116.61332,43.67588],[-116.61187,43.6765],[-116.60484,43.67674],[-116.60303,43.67257],[-116.60433,43.67313],[-116.60833,43.67304],[-116.60833,43.67152],[-116.61331,43.67152],[-116.61332,43.66439],[-116.61831,43.66505],[-116.61831,43.66313],[-116.61535,43.66316],[-116.61414,43.66034],[-116.61523,43.65948],[-116.61328,43.65807],[-116.61328,43.65628],[-116.60737,43.65628],[-116.60848,43.65835],[-116.60851,43.66143],[-116.60776,43.66318],[-116.60329,43.66319],[-116.60333,43.65691],[-116.60144,43.65692],[-116.60145,43.65952],[-116.59334,43.65954],[-116.59333,43.6632],[-116.5981,43.66319],[-116.59837,43.66575],[-116.59923,43.6655],[-116.60335,43.674],[-116.59329,43.67397],[-116.59333,43.6666],[-116.58593,43.66678],[-116.58593,43.66376],[-116.58842,43.66321],[-116.58842,43.66211],[-116.58581,43.66188],[-116.58344,43.66293],[-116.5834,43.65594],[-116.59335,43.65593],[-116.59523,43.65641],[-116.59331,43.65215],[-116.60331,43.65225],[-116.6034,43.65015],[-116.60487,43.64862],[-116.60707,43.6499],[-116.60711,43.64861],[-116.61267,43.64859],[-116.61325,43.6494],[-116.61523,43.64986],[-116.61524,43.64858],[-116.62303,43.64856],[-116.62321,43.6512],[-116.62669,43.65118],[-116.62449,43.65018],[-116.62448,43.64855],[-116.62322,43.64856],[-116.6232,43.64334],[-116.6232,43.64256],[-116.62318,43.63763],[-116.62422,43.63674],[-116.62052,43.63404],[-116.61321,43.63404],[-116.61322,43.63937],[-116.61094,43.63939],[-116.61107,43.63946],[-116.6129,43.63996],[-116.61322,43.63997],[-116.61323,43.6413],[-116.60325,43.64133],[-116.60329,43.64863],[-116.59831,43.64864],[-116.59828,43.64528],[-116.59495,43.64135],[-116.59713,43.64134],[-116.59531,43.63944],[-116.59317,43.63836],[-116.59416,43.63695],[-116.59414,43.63469],[-116.59316,43.63408],[-116.59315,43.63046],[-116.58859,43.63047],[-116.58863,43.6316],[-116.59028,43.6341],[-116.57845,43.63413],[-116.57844,43.63047],[-116.57381,43.63046],[-116.57318,43.62952],[-116.57315,43.62322],[-116.57582,43.62321],[-116.57466,43.62174],[-116.57403,43.62082],[-116.57314,43.62042],[-116.57314,43.61962],[-116.56567,43.61963],[-116.56566,43.61596],[-116.56315,43.61702],[-116.55947,43.61679],[-116.55941,43.61963],[-116.56067,43.61964],[-116.5607,43.62687],[-116.5632,43.62688],[-116.5632,43.63048],[-116.56159,43.63048],[-116.5632,43.63234],[-116.56321,43.63414],[-116.56823,43.63413],[-116.56824,43.63426],[-116.56824,43.63509],[-116.57133,43.63456],[-116.57136,43.63702],[-116.57802,43.63738],[-116.57987,43.63897],[-116.58298,43.64001],[-116.58329,43.64137],[-116.57553,43.64139],[-116.57552,43.64036],[-116.57327,43.64037],[-116.57329,43.64145],[-116.56328,43.6414],[-116.56334,43.64866],[-116.55336,43.64863],[-116.55336,43.65584],[-116.54325,43.65588],[-116.54335,43.65027],[-116.54721,43.64946],[-116.54852,43.64868],[-116.55336,43.64791],[-116.55337,43.64677],[-116.54831,43.6468],[-116.54829,43.64502],[-116.55048,43.64502],[-116.55336,43.64656],[-116.5532,43.63415],[-116.55322,43.63195],[-116.55003,43.63196],[-116.55003,43.63045],[-116.54321,43.63048],[-116.54164,43.62906],[-116.53916,43.62845],[-116.53387,43.62844],[-116.53325,43.62536],[-116.53571,43.62536],[-116.53325,43.62252],[-116.53326,43.61959],[-116.53314,43.61959],[-116.53315,43.61634],[-116.53517,43.61635],[-116.53316,43.61443],[-116.53316,43.61597],[-116.52816,43.61596],[-116.52895,43.61775],[-116.53067,43.61773],[-116.53065,43.6196],[-116.53106,43.6196],[-116.53152,43.6223],[-116.52986,43.6223],[-116.52986,43.6196],[-116.52229,43.61961],[-116.52225,43.62215],[-116.52318,43.62684],[-116.51311,43.62684],[-116.51311,43.62573],[-116.51131,43.62686],[-116.50355,43.62685],[-116.50352,43.6305],[-116.49354,43.63048],[-116.49353,43.63182],[-116.49042,43.63106],[-116.4904,43.63415],[-116.48853,43.63415],[-116.48855,43.63053],[-116.48364,43.63042],[-116.48353,43.62677],[-116.49356,43.62685],[-116.49357,43.62574],[-116.50356,43.62575],[-116.50358,43.62322],[-116.4936,43.62322],[-116.49361,43.62138],[-116.49862,43.62138],[-116.5009,43.62249],[-116.50092,43.61959],[-116.5036,43.6196],[-116.50356,43.6123],[-116.49523,43.61172],[-116.49358,43.61172],[-116.4936,43.61227],[-116.4811,43.61219],[-116.48109,43.61032],[-116.49357,43.61042],[-116.49352,43.60497],[-116.48358,43.60493],[-116.4836,43.60265],[-116.48104,43.60268],[-116.48104,43.60129],[-116.47352,43.60124],[-116.47353,43.59762],[-116.47731,43.59763],[-116.49357,43.59937],[-116.49357,43.59894],[-116.50354,43.59926],[-116.50354,43.59774],[-116.50543,43.59774],[-116.50543,43.59413],[-116.50852,43.59412],[-116.50853,43.59163],[-116.50994,43.59163],[-116.50994,43.59412],[-116.51166,43.59412],[-116.51171,43.59165],[-116.5132,43.59164],[-116.51319,43.58932],[-116.51622,43.58942],[-116.51637,43.58686],[-116.51317,43.58686],[-116.51315,43.58593],[-116.51567,43.58593],[-116.51566,43.58501],[-116.51646,43.58501],[-116.51644,43.58412],[-116.51484,43.58412],[-116.51485,43.58322],[-116.51311,43.58322],[-116.51309,43.58141],[-116.5181,43.5814],[-116.51808,43.58051],[-116.51308,43.58047],[-116.51307,43.57958],[-116.51767,43.57958],[-116.51419,43.57777],[-116.51304,43.57761],[-116.51302,43.57686],[-116.51056,43.57687],[-116.51055,43.57597],[-116.51036,43.57597],[-116.51035,43.57521],[-116.513,43.57412],[-116.513,43.57405],[-116.51548,43.57405],[-116.5169,43.57588],[-116.52298,43.57588],[-116.52295,43.57153],[-116.51954,43.57225],[-116.51956,43.5741],[-116.51795,43.5741],[-116.5175,43.57226],[-116.51296,43.56902],[-116.51299,43.57145],[-116.51142,43.57084],[-116.50815,43.57083],[-116.5082,43.56866],[-116.51296,43.56869],[-116.5129,43.56137],[-116.51972,43.56166],[-116.52286,43.56329],[-116.52284,43.56139],[-116.52549,43.56139],[-116.52525,43.56412],[-116.52382,43.56412],[-116.52586,43.56539],[-116.52693,43.5641],[-116.52591,43.56139],[-116.53168,43.56141],[-116.53279,43.56142],[-116.5328,43.55961],[-116.52895,43.55911],[-116.52895,43.55776],[-116.53158,43.55777],[-116.52991,43.55691],[-116.52989,43.55411],[-116.53157,43.55411],[-116.53157,43.55672],[-116.53279,43.55672],[-116.53278,43.55379],[-116.535,43.55418],[-116.53922,43.55419],[-116.53922,43.55373],[-116.53616,43.55289],[-116.53399,43.55126],[-116.53279,43.55248],[-116.53279,43.55126],[-116.52538,43.55148],[-116.52687,43.55353],[-116.52704,43.55597],[-116.52373,43.55595],[-116.52286,43.55776],[-116.51786,43.55717],[-116.51287,43.55753],[-116.51287,43.54954],[-116.51287,43.54921],[-116.51677,43.55117],[-116.51786,43.55176],[-116.51784,43.54687],[-116.51285,43.54688],[-116.51412,43.54484],[-116.51283,43.54411],[-116.51285,43.54097],[-116.5129,43.53346],[-116.51841,43.53336],[-116.5181,43.53268],[-116.51799,43.53186],[-116.52111,43.53187],[-116.52099,43.52987],[-116.51953,43.53008],[-116.51843,43.52896],[-116.51803,43.52655],[-116.51475,43.52459],[-116.5329,43.52461],[-116.53578,43.52346],[-116.5373,43.5246],[-116.54007,43.52459],[-116.54211,43.52647],[-116.53993,43.52612],[-116.53933,43.53187],[-116.53902,43.53556],[-116.54055,43.537],[-116.54273,43.53762],[-116.54288,43.53914],[-116.54535,43.53912],[-116.54566,43.53642],[-116.54841,43.53681],[-116.54842,43.53912],[-116.54721,43.5391],[-116.54723,43.54165],[-116.54927,43.54242],[-116.55289,43.54244],[-116.55288,43.54085],[-116.55656,43.54137],[-116.55782,43.54112],[-116.55784,43.53729],[-116.5628,43.53731],[-116.56283,43.53471],[-116.56781,43.53552],[-116.56784,43.5319],[-116.5728,43.5319],[-116.57273,43.53919],[-116.57452,43.53918],[-116.57565,43.53995],[-116.57623,43.54012],[-116.57622,43.54101],[-116.57783,43.54102],[-116.57774,43.53918],[-116.57799,43.53919],[-116.577,43.53804],[-116.57701,43.53737],[-116.5785,43.53737],[-116.57852,43.53555],[-116.5807,43.53712],[-116.58171,43.53861],[-116.58123,43.53861],[-116.58123,43.53919],[-116.58608,43.5392],[-116.58349,43.53487],[-116.58276,43.53556],[-116.57899,43.53517],[-116.57892,43.53194],[-116.58279,43.53194],[-116.58285,43.52558],[-116.58523,43.52557],[-116.58531,43.53194],[-116.58663,43.53194],[-116.58767,43.53383],[-116.58813,43.53436],[-116.59124,43.53722],[-116.59134,43.53749],[-116.59246,43.53833],[-116.59272,43.53833],[-116.59273,43.53921],[-116.58831,43.5392],[-116.59105,43.54169],[-116.59266,43.54399],[-116.59267,43.54285],[-116.60267,43.54284],[-116.60265,43.54418],[-116.61256,43.54727],[-116.63282,43.5468],[-116.63295,43.55948],[-116.63175,43.55948],[-116.63174,43.56124],[-116.63298,43.56123],[-116.63298,43.5613],[-116.63298,43.56137],[-116.62707,43.56141],[-116.62783,43.56249],[-116.62791,43.57587],[-116.61728,43.5759],[-116.6175,43.57953],[-116.61992,43.58239],[-116.62301,43.58315],[-116.623,43.5904],[-116.61808,43.59043],[-116.61812,43.5977],[-116.62555,43.59768],[-116.62677,43.59867],[-116.62678,43.60131],[-116.62189,43.60132],[-116.62225,43.60496],[-116.63289,43.60495],[-116.63288,43.60857],[-116.63085,43.60857],[-116.63277,43.60977],[-116.63288,43.60979],[-116.63289,43.61218],[-116.63524,43.61217],[-116.6375,43.61503],[-116.63748,43.61574],[-116.63795,43.61574],[-116.63793,43.61214],[-116.6435,43.61282],[-116.64293,43.61133],[-116.6429,43.60478],[-116.64491,43.60537],[-116.64598,43.60473],[-116.65294,43.60463],[-116.65293,43.60824],[-116.64987,43.60829],[-116.64987,43.60898],[-116.65293,43.60894],[-116.65292,43.61656],[-116.65577,43.61653],[-116.65516,43.615],[-116.65533,43.61185],[-116.65797,43.61182],[-116.65796,43.60816],[-116.66295,43.60814],[-116.66295,43.60633],[-116.65797,43.60637],[-116.65796,43.60459],[-116.65796,43.60022],[-116.65374,43.59593],[-116.65318,43.59456],[-116.65625,43.59439],[-116.66293,43.59362],[-116.66359,43.59474],[-116.66356,43.5936],[-116.66912,43.59353],[-116.66858,43.59087],[-116.67136,43.59083],[-116.67067,43.58987],[-116.66796,43.58992],[-116.66796,43.58265],[-116.67293,43.58259],[-116.67214,43.58765],[-116.67294,43.58985],[-116.6768,43.58979],[-116.67772,43.59064],[-116.67828,43.59086],[-116.6787,43.59089],[-116.67902,43.5912],[-116.67915,43.59099],[-116.67913,43.58975],[-116.68431,43.58969],[-116.68553,43.58983],[-116.69289,43.59074],[-116.6929,43.59688],[-116.67797,43.59705],[-116.67795,43.6007],[-116.6746,43.59909],[-116.67295,43.59911],[-116.67295,43.60074],[-116.66797,43.6008],[-116.66798,43.60445],[-116.67295,43.60439],[-116.67295,43.60801],[-116.67771,43.60797],[-116.67714,43.60678],[-116.67907,43.6056],[-116.68287,43.60924],[-116.68291,43.61068],[-116.68155,43.61131],[-116.68026,43.61013],[-116.67829,43.61159],[-116.67941,43.61158],[-116.6794,43.61104],[-116.6801,43.61157],[-116.68194,43.61155],[-116.68293,43.61183],[-116.68461,43.61337],[-116.68608,43.61363],[-116.68613,43.61686],[-116.68377,43.61687],[-116.68287,43.61719],[-116.68289,43.61792],[-116.68291,43.61882],[-116.69041,43.61872],[-116.69045,43.62247],[-116.69291,43.62294],[-116.69287,43.61873],[-116.69541,43.61867],[-116.69542,43.62414],[-116.69291,43.6236],[-116.69293,43.62471],[-116.69589,43.62599],[-116.70252,43.6259],[-116.70365,43.62217],[-116.70549,43.62215],[-116.70547,43.62038],[-116.70797,43.61974],[-116.71301,43.61968],[-116.71309,43.63338],[-116.70911,43.63341],[-116.70808,43.632],[-116.70804,43.62763],[-116.7044,43.62718],[-116.70302,43.6295],[-116.70065,43.62954],[-116.69809,43.62829],[-116.6981,43.63347],[-116.69299,43.63349],[-116.69302,43.63666],[-116.69302,43.63891],[-116.69443,43.6389],[-116.69557,43.64071],[-116.69803,43.6407],[-116.69801,43.63888],[-116.69681,43.63935],[-116.69555,43.63707],[-116.69801,43.63843],[-116.69692,43.63746],[-116.70049,43.63646],[-116.70106,43.63346],[-116.7031,43.63344],[-116.70809,43.63342],[-116.70808,43.64013],[-116.70978,43.64119],[-116.70808,43.64111],[-116.70808,43.64337],[-116.71302,43.6443],[-116.71304,43.64795],[-116.71307,43.65157],[-116.71053,43.65157],[-116.71055,43.65339],[-116.70815,43.65339],[-116.70816,43.6552],[-116.71055,43.65521],[-116.71054,43.65715],[-116.71314,43.65713],[-116.71311,43.66977],[-116.71147,43.66979],[-116.71148,43.67155],[-116.71073,43.67156],[-116.71075,43.6733]],[[-116.59211,43.66322],[-116.59101,43.66321],[-116.591,43.66421],[-116.59332,43.66421],[-116.59332,43.66412],[-116.59333,43.6632],[-116.59211,43.66322]],[[-116.62988,43.61221],[-116.62108,43.61222],[-116.62295,43.6141],[-116.62267,43.61508],[-116.62523,43.61946],[-116.62906,43.61946],[-116.6308,43.62207],[-116.63145,43.62217],[-116.63146,43.61945],[-116.63293,43.61944],[-116.63306,43.61944],[-116.63307,43.62096],[-116.63668,43.62094],[-116.63667,43.61985],[-116.63831,43.61983],[-116.63829,43.61937],[-116.63882,43.61937],[-116.64194,43.62351],[-116.64287,43.62653],[-116.64371,43.62659],[-116.64802,43.63074],[-116.64824,43.6265],[-116.64769,43.62633],[-116.64646,43.62288],[-116.64203,43.62296],[-116.6393,43.61936],[-116.63746,43.61756],[-116.63291,43.61435],[-116.63289,43.61218],[-116.62988,43.61221]],[[-116.66798,43.60037],[-116.66796,43.59703],[-116.66291,43.59709],[-116.66294,43.60193],[-116.6643,43.60085],[-116.66762,43.60081],[-116.66797,43.6008],[-116.66798,43.60037]],[[-116.60559,43.62675],[-116.60577,43.62611],[-116.60448,43.62396],[-116.60326,43.62464],[-116.60247,43.62359],[-116.60049,43.62366],[-116.60071,43.62464],[-116.59926,43.62485],[-116.59958,43.6268],[-116.60559,43.62675]],[[-116.61317,43.62677],[-116.61321,43.63042],[-116.6182,43.6304],[-116.61892,43.63293],[-116.62243,43.63039],[-116.62317,43.62896],[-116.62589,43.63076],[-116.6282,43.63201],[-116.62819,43.63165],[-116.6281,43.62409],[-116.62505,43.62538],[-116.6197,43.62173],[-116.62347,43.61947],[-116.61931,43.61663],[-116.61652,43.61881],[-116.6164,43.61951],[-116.61318,43.61731],[-116.61316,43.61872],[-116.61161,43.61909],[-116.60828,43.61676],[-116.60724,43.6175],[-116.6093,43.61957],[-116.60382,43.61955],[-116.6032,43.61859],[-116.6032,43.61531],[-116.60012,43.61335],[-116.59861,43.61294],[-116.59819,43.61977],[-116.60209,43.62136],[-116.60464,43.62391],[-116.60636,43.62673],[-116.61317,43.62677]],[[-116.70943,43.64795],[-116.70872,43.64751],[-116.70872,43.647],[-116.71053,43.647],[-116.71052,43.64613],[-116.70807,43.64614],[-116.70726,43.64641],[-116.70676,43.64795],[-116.70943,43.64795]],[[-116.70439,43.65522],[-116.70314,43.65521],[-116.70316,43.65722],[-116.70441,43.65721],[-116.70439,43.65522]],[[-116.68458,43.63512],[-116.68402,43.63355],[-116.68299,43.63356],[-116.68301,43.63682],[-116.68054,43.63754],[-116.68053,43.63905],[-116.68302,43.63863],[-116.68302,43.63807],[-116.68555,43.63805],[-116.68556,43.63853],[-116.68783,43.6401],[-116.68787,43.64075],[-116.68804,43.63713],[-116.68301,43.63717],[-116.68301,43.63706],[-116.68743,43.63659],[-116.68458,43.63512]],[[-116.68299,43.62974],[-116.6805,43.62976],[-116.68051,43.63166],[-116.68297,43.63164],[-116.68299,43.62974]],[[-116.67301,43.63362],[-116.67053,43.63365],[-116.67054,43.63545],[-116.67303,43.63543],[-116.67302,43.63555],[-116.6757,43.63526],[-116.67578,43.63361],[-116.67802,43.63359],[-116.67797,43.62979],[-116.67799,43.62615],[-116.68296,43.6261],[-116.68296,43.62442],[-116.67799,43.62417],[-116.67799,43.6225],[-116.67298,43.62255],[-116.67301,43.63362]],[[-116.68229,43.62838],[-116.68296,43.62837],[-116.68296,43.62699],[-116.68242,43.627],[-116.68242,43.62791],[-116.68229,43.62791],[-116.68229,43.62838]],[[-116.67805,43.6372],[-116.67301,43.63724],[-116.673,43.63814],[-116.67803,43.6381],[-116.67805,43.6372]],[[-116.66799,43.61897],[-116.66982,43.61897],[-116.67088,43.62096],[-116.67299,43.62096],[-116.67297,43.61976],[-116.67384,43.61985],[-116.67385,43.6189],[-116.67496,43.6189],[-116.67495,43.61732],[-116.67298,43.61732],[-116.67301,43.61527],[-116.66799,43.61533],[-116.66799,43.61897]],[[-116.67295,43.59559],[-116.67294,43.59431],[-116.67402,43.59347],[-116.67168,43.59296],[-116.67172,43.59436],[-116.67295,43.59621],[-116.67295,43.59559]],[[-116.65799,43.62634],[-116.65798,43.62271],[-116.66092,43.62267],[-116.66055,43.62179],[-116.66297,43.62177],[-116.66296,43.61902],[-116.65872,43.61908],[-116.65863,43.61809],[-116.65605,43.61698],[-116.65292,43.61702],[-116.65293,43.61915],[-116.65122,43.61917],[-116.65015,43.62141],[-116.65295,43.62136],[-116.65295,43.62217],[-116.65084,43.62219],[-116.65193,43.62308],[-116.65237,43.62336],[-116.65237,43.62412],[-116.65298,43.62412],[-116.65296,43.62506],[-116.65129,43.62509],[-116.65129,43.62649],[-116.65116,43.6265],[-116.6528,43.62861],[-116.65296,43.62908],[-116.65298,43.63187],[-116.65526,43.63185],[-116.65534,43.63383],[-116.65839,43.63376],[-116.65841,43.63556],[-116.66053,43.63554],[-116.66052,43.63375],[-116.66302,43.63372],[-116.663,43.63732],[-116.66805,43.63728],[-116.66804,43.63368],[-116.66802,43.62986],[-116.663,43.62953],[-116.66299,43.62626],[-116.65799,43.62634]],[[-116.66319,43.671],[-116.66321,43.6724],[-116.664,43.67241],[-116.66399,43.67357],[-116.66466,43.67356],[-116.66466,43.67415],[-116.6657,43.67415],[-116.66569,43.67376],[-116.66569,43.67087],[-116.66323,43.66993],[-116.66089,43.66992],[-116.66319,43.671]],[[-116.66305,43.64198],[-116.65914,43.642],[-116.65946,43.64278],[-116.66307,43.64277],[-116.66305,43.64198]],[[-116.65877,43.66484],[-116.65817,43.66535],[-116.65818,43.66631],[-116.65892,43.6663],[-116.65907,43.66571],[-116.65995,43.66484],[-116.66011,43.66344],[-116.6588,43.66329],[-116.65905,43.66384],[-116.65908,43.66409],[-116.65877,43.66484]],[[-116.65444,43.65698],[-116.65493,43.65825],[-116.65446,43.65914],[-116.65636,43.65913],[-116.65416,43.65556],[-116.65303,43.65551],[-116.65304,43.65633],[-116.65444,43.65698]],[[-116.65536,43.6361],[-116.65534,43.63438],[-116.65417,43.63437],[-116.65299,43.63499],[-116.653,43.6361],[-116.65536,43.6361]],[[-116.65097,43.65376],[-116.65047,43.6519],[-116.64807,43.65192],[-116.64808,43.65378],[-116.6493,43.65378],[-116.65097,43.65376]],[[-116.6463,43.6446],[-116.64775,43.64824],[-116.64809,43.6483],[-116.6481,43.64591],[-116.64553,43.6427],[-116.64368,43.64114],[-116.64212,43.64113],[-116.6463,43.6446]],[[-116.63595,43.66298],[-116.63306,43.66301],[-116.63482,43.664],[-116.63265,43.6645],[-116.63308,43.66666],[-116.63305,43.6703],[-116.63784,43.66997],[-116.63627,43.66839],[-116.63606,43.66662],[-116.63935,43.66657],[-116.63935,43.66444],[-116.63688,43.66296],[-116.63773,43.66295],[-116.63773,43.66177],[-116.63595,43.66298]],[[-116.63877,43.63268],[-116.63904,43.63002],[-116.63811,43.62942],[-116.63537,43.63151],[-116.63796,43.63341],[-116.63877,43.63268]],[[-116.63389,43.64849],[-116.63659,43.65094],[-116.63659,43.64846],[-116.63389,43.64849]],[[-116.63307,43.6485],[-116.62997,43.64851],[-116.631,43.65033],[-116.63309,43.65032],[-116.63307,43.6485]],[[-116.63112,43.65272],[-116.63308,43.65345],[-116.63309,43.6521],[-116.63199,43.6521],[-116.63199,43.65169],[-116.63104,43.65169],[-116.63112,43.65272]],[[-116.6233,43.67215],[-116.6278,43.67215],[-116.62698,43.67032],[-116.62385,43.67036],[-116.6233,43.67037],[-116.62331,43.67153],[-116.6233,43.67215]],[[-116.6233,43.66998],[-116.62324,43.66671],[-116.62157,43.66629],[-116.62051,43.66732],[-116.62328,43.66985],[-116.62265,43.67038],[-116.6233,43.67037],[-116.6233,43.66998]],[[-116.6177,43.6733],[-116.61332,43.67253],[-116.61333,43.67391],[-116.6177,43.6739],[-116.6177,43.6733]],[[-116.59314,43.62441],[-116.59501,43.62382],[-116.59315,43.62382],[-116.59317,43.61957],[-116.59069,43.61959],[-116.59068,43.62319],[-116.59302,43.62683],[-116.59313,43.62682],[-116.59315,43.62573],[-116.59314,43.62441]],[[-116.61547,43.60664],[-116.61331,43.60609],[-116.61322,43.61173],[-116.61429,43.61222],[-116.62069,43.61222],[-116.61895,43.61076],[-116.61898,43.609],[-116.62307,43.60782],[-116.61842,43.60589],[-116.61841,43.60497],[-116.61613,43.60498],[-116.61547,43.60664]],[[-116.62288,43.56573],[-116.62283,43.56192],[-116.62127,43.56197],[-116.62184,43.56439],[-116.62202,43.56471],[-116.62288,43.56573]],[[-116.62273,43.55682],[-116.62265,43.55428],[-116.61651,43.5543],[-116.61688,43.55521],[-116.62081,43.55516],[-116.62273,43.55682]],[[-116.61947,43.57023],[-116.61946,43.56863],[-116.61888,43.56864],[-116.61792,43.56864],[-116.61794,43.57024],[-116.61947,43.57023]],[[-116.61806,43.58407],[-116.61806,43.58317],[-116.6131,43.58318],[-116.61311,43.58406],[-116.61647,43.58403],[-116.61806,43.58407]],[[-116.61301,43.57536],[-116.61002,43.57348],[-116.61293,43.57229],[-116.60811,43.57228],[-116.60815,43.57594],[-116.61052,43.57593],[-116.61057,43.57951],[-116.61306,43.5795],[-116.61742,43.57953],[-116.61539,43.57896],[-116.61505,43.57641],[-116.61688,43.57591],[-116.61302,43.57592],[-116.61301,43.57536]],[[-116.61481,43.56011],[-116.61413,43.56011],[-116.61412,43.56144],[-116.61649,43.56143],[-116.61481,43.56011]],[[-116.61206,43.59393],[-116.61074,43.59512],[-116.61314,43.59484],[-116.61314,43.59772],[-116.61561,43.59406],[-116.61313,43.59406],[-116.61313,43.59284],[-116.61068,43.59284],[-116.61206,43.59393]],[[-116.61312,43.58641],[-116.61079,43.58796],[-116.61081,43.59044],[-116.60691,43.59043],[-116.60692,43.59125],[-116.61068,43.59248],[-116.61313,43.59248],[-116.61313,43.59224],[-116.61559,43.59224],[-116.61558,43.59043],[-116.61514,43.59043],[-116.61444,43.58549],[-116.61312,43.5852],[-116.61312,43.58641]],[[-116.61279,43.55956],[-116.61417,43.55956],[-116.6128,43.5579],[-116.61539,43.55788],[-116.61537,43.55717],[-116.6139,43.5571],[-116.61389,43.55666],[-116.61273,43.55668],[-116.61279,43.55956]],[[-116.61354,43.6001],[-116.61314,43.59967],[-116.61314,43.60295],[-116.61523,43.60295],[-116.61354,43.6001]],[[-116.61322,43.6109],[-116.61319,43.60684],[-116.61051,43.60685],[-116.61266,43.61013],[-116.61274,43.61091],[-116.61322,43.6109]],[[-116.61321,43.61398],[-116.61247,43.61348],[-116.6107,43.61483],[-116.61319,43.61651],[-116.61321,43.61398]],[[-116.61294,43.56733],[-116.61109,43.56736],[-116.61206,43.56866],[-116.61296,43.56866],[-116.61294,43.56733]],[[-116.6104,43.61328],[-116.61055,43.61317],[-116.60841,43.61149],[-116.60792,43.61298],[-116.60945,43.614],[-116.6104,43.61328]],[[-116.60905,43.57079],[-116.60857,43.57077],[-116.60857,43.57135],[-116.60908,43.57105],[-116.6105,43.57104],[-116.61047,43.56867],[-116.60796,43.56867],[-116.60799,43.57066],[-116.60876,43.5703],[-116.60905,43.57079]],[[-116.6026,43.54667],[-116.60259,43.54724],[-116.60257,43.54724],[-116.60267,43.55057],[-116.60766,43.55155],[-116.60802,43.54726],[-116.60607,43.54726],[-116.60607,43.5468],[-116.60363,43.54672],[-116.6026,43.54667]],[[-116.60567,43.59042],[-116.60228,43.59043],[-116.60317,43.59153],[-116.60473,43.59346],[-116.60567,43.59042]],[[-116.60319,43.61225],[-116.60056,43.61226],[-116.60208,43.61363],[-116.60319,43.61444],[-116.60319,43.61225]],[[-116.60066,43.59161],[-116.60066,43.59043],[-116.59866,43.59043],[-116.59866,43.59115],[-116.59956,43.59114],[-116.60066,43.59161]],[[-116.59785,43.58497],[-116.59896,43.58633],[-116.59892,43.58321],[-116.59381,43.58321],[-116.59383,43.58436],[-116.59725,43.58462],[-116.59785,43.58497]],[[-116.59482,43.60659],[-116.59636,43.60771],[-116.59599,43.60797],[-116.59806,43.60796],[-116.59887,43.60755],[-116.59514,43.60499],[-116.59311,43.60499],[-116.59327,43.6066],[-116.59482,43.60659]],[[-116.59762,43.62114],[-116.59792,43.62061],[-116.59745,43.61956],[-116.59555,43.61956],[-116.59555,43.62116],[-116.59762,43.62114]],[[-116.596,43.55797],[-116.59448,43.55652],[-116.59445,43.55518],[-116.59292,43.55519],[-116.59295,43.55799],[-116.596,43.55797]],[[-116.59316,43.61382],[-116.59326,43.61228],[-116.59079,43.61228],[-116.59128,43.61294],[-116.5925,43.61381],[-116.59316,43.61382]],[[-116.59312,43.60288],[-116.59222,43.6026],[-116.59311,43.60353],[-116.59311,43.60325],[-116.59312,43.60288]],[[-116.59287,43.5586],[-116.58847,43.55798],[-116.59212,43.56159],[-116.59294,43.56158],[-116.59287,43.5586]],[[-116.59289,43.56513],[-116.59291,43.56332],[-116.59159,43.56312],[-116.58975,43.56341],[-116.59102,43.56513],[-116.59289,43.56513]],[[-116.59275,43.55305],[-116.58883,43.55347],[-116.58884,43.55441],[-116.5928,43.55439],[-116.59275,43.55305]],[[-116.59098,43.55148],[-116.591,43.55258],[-116.59277,43.55258],[-116.59273,43.55079],[-116.59097,43.55078],[-116.5878,43.55029],[-116.58782,43.55101],[-116.59098,43.55148]],[[-116.59019,43.54933],[-116.5902,43.55016],[-116.59109,43.55017],[-116.59106,43.54918],[-116.59271,43.54918],[-116.5927,43.54847],[-116.59262,43.54726],[-116.59102,43.54725],[-116.59105,43.54897],[-116.59019,43.54933]],[[-116.5903,43.60865],[-116.59191,43.60864],[-116.5919,43.6077],[-116.59066,43.60769],[-116.59065,43.60684],[-116.58883,43.60684],[-116.5903,43.60865]],[[-116.58929,43.56046],[-116.59003,43.56046],[-116.58953,43.55984],[-116.5879,43.55899],[-116.58799,43.5616],[-116.5893,43.56161],[-116.58929,43.56046]],[[-116.58316,43.61049],[-116.58817,43.61048],[-116.58817,43.60865],[-116.58996,43.60865],[-116.58855,43.60684],[-116.58567,43.60683],[-116.58564,43.60498],[-116.58317,43.60497],[-116.58316,43.61049]],[[-116.58949,43.54918],[-116.58945,43.5472],[-116.58774,43.54719],[-116.58777,43.54817],[-116.58837,43.54879],[-116.58949,43.54918]],[[-116.58576,43.61772],[-116.58407,43.61601],[-116.58817,43.61593],[-116.5882,43.61232],[-116.58316,43.61228],[-116.58311,43.61775],[-116.58405,43.61774],[-116.58576,43.61772]],[[-116.58315,43.62166],[-116.58319,43.625],[-116.58665,43.625],[-116.58811,43.62683],[-116.5882,43.61959],[-116.58565,43.61958],[-116.58423,43.61903],[-116.58473,43.6213],[-116.58315,43.62166]],[[-116.58757,43.54895],[-116.58756,43.54722],[-116.58628,43.54721],[-116.5866,43.54778],[-116.58662,43.54895],[-116.58757,43.54895]],[[-116.58348,43.56948],[-116.58348,43.56974],[-116.58417,43.56974],[-116.58416,43.56891],[-116.58339,43.56891],[-116.58322,43.5689],[-116.58323,43.56948],[-116.58348,43.56948]],[[-116.56815,43.61329],[-116.56815,43.61225],[-116.56713,43.61225],[-116.56639,43.61223],[-116.56643,43.61329],[-116.56815,43.61329]],[[-116.56582,43.54565],[-116.56268,43.54553],[-116.5627,43.54702],[-116.5658,43.54707],[-116.56582,43.54565]],[[-116.56543,43.53914],[-116.56276,43.53913],[-116.56278,43.54064],[-116.56541,43.54067],[-116.56543,43.53914]],[[-116.56475,43.61329],[-116.56474,43.61239],[-116.56402,43.61238],[-116.56329,43.61143],[-116.56315,43.61288],[-116.56475,43.61329]],[[-116.56423,43.54824],[-116.56289,43.54823],[-116.56292,43.54943],[-116.56427,43.54944],[-116.56423,43.54824]],[[-116.56281,43.63732],[-116.56193,43.63908],[-116.56325,43.63908],[-116.56325,43.63755],[-116.56321,43.63495],[-116.56213,43.63495],[-116.56132,43.63657],[-116.56281,43.63732]],[[-116.56272,43.5479],[-116.56148,43.54789],[-116.56154,43.55008],[-116.56276,43.55009],[-116.56272,43.5479]],[[-116.55823,43.6363],[-116.55822,43.6349],[-116.55941,43.6349],[-116.55941,43.63431],[-116.55941,43.63414],[-116.55449,43.63414],[-116.5545,43.63428],[-116.55455,43.63679],[-116.55823,43.6363]],[[-116.55316,43.6196],[-116.55316,43.62188],[-116.55491,43.62118],[-116.55819,43.62174],[-116.55818,43.61962],[-116.55501,43.61959],[-116.55484,43.6185],[-116.55318,43.61857],[-116.55316,43.6196]],[[-116.55286,43.54879],[-116.55036,43.54879],[-116.55035,43.54698],[-116.54616,43.54697],[-116.54488,43.54583],[-116.54427,43.54623],[-116.5438,43.54586],[-116.54309,43.54588],[-116.5432,43.54696],[-116.54276,43.54695],[-116.54281,43.54895],[-116.54587,43.55418],[-116.54651,43.55421],[-116.5489,43.5542],[-116.5479,43.55265],[-116.54813,43.54935],[-116.55228,43.55101],[-116.55289,43.55416],[-116.55289,43.55457],[-116.54652,43.55426],[-116.54624,43.55543],[-116.54509,43.55532],[-116.5451,43.55403],[-116.54288,43.55354],[-116.54287,43.55466],[-116.54287,43.55592],[-116.54645,43.55564],[-116.54721,43.55556],[-116.5529,43.55737],[-116.5529,43.55631],[-116.55289,43.55472],[-116.55759,43.55508],[-116.55676,43.55382],[-116.5544,43.5506],[-116.55437,43.547],[-116.55285,43.54699],[-116.55286,43.54879]],[[-116.55432,43.55631],[-116.55299,43.55631],[-116.55299,43.55765],[-116.55432,43.55765],[-116.55432,43.55631]],[[-116.55261,43.61635],[-116.5532,43.61663],[-116.55315,43.61339],[-116.55197,43.61339],[-116.55197,43.61438],[-116.55068,43.61438],[-116.55261,43.61635]],[[-116.55221,43.62799],[-116.55311,43.62799],[-116.55311,43.62621],[-116.55113,43.62621],[-116.55113,43.62686],[-116.5522,43.62686],[-116.55221,43.62799]],[[-116.55305,43.62323],[-116.54959,43.62323],[-116.55284,43.62529],[-116.55311,43.62546],[-116.55305,43.62323]],[[-116.5382,43.61779],[-116.53571,43.61779],[-116.53571,43.61959],[-116.53622,43.6196],[-116.53742,43.62121],[-116.53493,43.62123],[-116.53868,43.62475],[-116.54319,43.62685],[-116.54318,43.62425],[-116.53931,43.622],[-116.53815,43.61959],[-116.53818,43.61959],[-116.5382,43.61779]],[[-116.54315,43.61233],[-116.54316,43.61122],[-116.54193,43.61098],[-116.54122,43.61095],[-116.54122,43.61234],[-116.54315,43.61233]],[[-116.53625,43.53467],[-116.53283,43.53466],[-116.53281,43.53736],[-116.52759,43.53736],[-116.52758,43.5391],[-116.52591,43.54098],[-116.52603,43.54105],[-116.53281,43.54107],[-116.53281,43.53909],[-116.53785,43.53912],[-116.5378,43.54272],[-116.54041,43.54271],[-116.53864,43.53569],[-116.53895,43.53187],[-116.5379,43.53187],[-116.53786,43.53548],[-116.53625,43.53467]],[[-116.53864,43.56436],[-116.53862,43.56317],[-116.54039,43.56318],[-116.54038,43.56144],[-116.53789,43.56144],[-116.5379,43.56496],[-116.53912,43.56498],[-116.53864,43.56436]],[[-116.53786,43.55781],[-116.53544,43.55722],[-116.53279,43.55722],[-116.53279,43.55778],[-116.5328,43.55903],[-116.53408,43.55913],[-116.53289,43.55973],[-116.53517,43.56145],[-116.53789,43.56144],[-116.53786,43.55781]],[[-116.53418,43.61233],[-116.53954,43.61234],[-116.53954,43.61088],[-116.53513,43.61082],[-116.53513,43.61151],[-116.53417,43.61151],[-116.53418,43.61233]],[[-116.53304,43.57876],[-116.53397,43.57875],[-116.53463,43.57794],[-116.53422,43.57776],[-116.53421,43.57644],[-116.53528,43.57644],[-116.53527,43.57595],[-116.53881,43.57596],[-116.53884,43.57362],[-116.53669,43.57413],[-116.53303,43.5741],[-116.53301,43.57595],[-116.53304,43.57876]],[[-116.53295,43.58212],[-116.53296,43.58322],[-116.53397,43.58091],[-116.53799,43.58092],[-116.53797,43.57958],[-116.53305,43.57903],[-116.53309,43.58139],[-116.53296,43.58139],[-116.53295,43.58212]],[[-116.53284,43.58057],[-116.53201,43.58063],[-116.5305,43.57974],[-116.53052,43.58139],[-116.53296,43.58139],[-116.53284,43.58057]],[[-116.53013,43.58139],[-116.52901,43.58139],[-116.52902,43.58238],[-116.52988,43.583],[-116.53053,43.58321],[-116.53053,43.58298],[-116.53052,43.58139],[-116.53013,43.58139]],[[-116.53609,43.53187],[-116.53285,43.53186],[-116.53284,43.53372],[-116.53526,43.53371],[-116.53609,43.53187]],[[-116.53543,43.57231],[-116.53541,43.56994],[-116.53414,43.57024],[-116.53286,43.57023],[-116.53288,43.57086],[-116.53543,43.57231]],[[-116.53537,43.58527],[-116.53297,43.58526],[-116.53301,43.58673],[-116.53538,43.5867],[-116.53537,43.58527]],[[-116.53405,43.61233],[-116.53316,43.61232],[-116.53316,43.61418],[-116.5347,43.61419],[-116.53405,43.61233]],[[-116.53284,43.56496],[-116.53283,43.56335],[-116.53282,43.56314],[-116.53313,43.56284],[-116.53185,43.56215],[-116.53102,43.56272],[-116.53202,43.56344],[-116.53284,43.56496]],[[-116.52697,43.57595],[-116.52298,43.57594],[-116.52342,43.57857],[-116.52305,43.57961],[-116.5305,43.57958],[-116.53047,43.57595],[-116.53293,43.57595],[-116.53296,43.57323],[-116.52852,43.57231],[-116.52797,43.57535],[-116.52696,43.57535],[-116.52697,43.57595]],[[-116.52315,43.53186],[-116.52912,43.53187],[-116.53144,43.52822],[-116.53288,43.52881],[-116.5329,43.52552],[-116.52933,43.52579],[-116.52905,43.53053],[-116.52291,43.52925],[-116.52315,43.53186]],[[-116.52987,43.54559],[-116.53276,43.54559],[-116.53277,43.54436],[-116.5328,43.54209],[-116.53043,43.5423],[-116.52868,43.5427],[-116.52964,43.54435],[-116.52987,43.54559]],[[-116.5304,43.54786],[-116.53278,43.55038],[-116.53278,43.54694],[-116.5301,43.54693],[-116.52841,43.54691],[-116.52841,43.54785],[-116.5304,43.54786]],[[-116.52599,43.55052],[-116.52408,43.5495],[-116.52286,43.54891],[-116.52284,43.55057],[-116.52299,43.55051],[-116.52599,43.55052]],[[-116.52486,43.54613],[-116.52283,43.54495],[-116.5228,43.54691],[-116.52569,43.54691],[-116.52486,43.54613]],[[-116.52112,43.57947],[-116.52101,43.57615],[-116.52065,43.57596],[-116.5155,43.57597],[-116.5155,43.57654],[-116.52112,43.57947]],[[-116.51982,43.55439],[-116.51997,43.55393],[-116.5164,43.55177],[-116.5164,43.55413],[-116.51783,43.55352],[-116.51982,43.55439]],[[-116.50861,43.61765],[-116.50861,43.61961],[-116.51023,43.61961],[-116.50963,43.62321],[-116.51309,43.62502],[-116.51309,43.62321],[-116.51866,43.62321],[-116.51636,43.6213],[-116.51802,43.61962],[-116.51312,43.6196],[-116.51313,43.61794],[-116.50861,43.61765]],[[-116.49353,43.60412],[-116.49357,43.6027],[-116.48806,43.60267],[-116.4882,43.60316],[-116.4883,43.60411],[-116.49353,43.60412]]],[[[-116.72331,43.66984],[-116.72332,43.6732],[-116.71375,43.67328],[-116.71326,43.67238],[-116.71323,43.66987],[-116.72331,43.66984]]],[[[-116.64286,43.6749],[-116.64277,43.6738],[-116.64568,43.67377],[-116.64663,43.67528],[-116.64665,43.67562],[-116.64535,43.67522],[-116.64328,43.6752],[-116.64286,43.6749]]],[[[-116.51354,43.52504],[-116.51509,43.52498],[-116.51532,43.5267],[-116.51477,43.52592],[-116.5136,43.52591],[-116.5136,43.52567],[-116.51354,43.52504]]],[[[-116.50813,43.53063],[-116.50616,43.53062],[-116.50431,43.53222],[-116.5062,43.52796],[-116.5124,43.52706],[-116.5136,43.52591],[-116.51292,43.52671],[-116.51289,43.53185],[-116.51289,43.53227],[-116.50971,43.53226],[-116.50813,43.53063]]],[[[-116.61332,43.66439],[-116.60944,43.66338],[-116.60916,43.66322],[-116.61331,43.66316],[-116.61332,43.66439]]],[[[-116.58544,43.67401],[-116.59304,43.674],[-116.59329,43.67397],[-116.59333,43.67546],[-116.59336,43.68128],[-116.58914,43.68095],[-116.5883,43.6793],[-116.58513,43.67887],[-116.58544,43.67401]]]]}}]}