{"type":"FeatureCollection","features":[{"type":"Feature","properties":{"name":"BLink","boundary_type":"city","source":"Census TIGER place","fidelity":"approximate","updated":"2026-09","units":"Bloomington city","note":"Service within Bloomington city limits, specifically Downtown, East, and North zones; serves trips not within walkable distance of fixed bus route","confidence":0.95},"geometry":{"type":"MultiPolygon","coordinates":[[[[-86.58262,39.14948],[-86.58716,39.14948],[-86.58262,39.14976],[-86.58262,39.14953],[-86.58262,39.14948]]],[[[-86.58841,39.16329],[-86.58843,39.16469],[-86.58587,39.16467],[-86.58293,39.16465],[-86.58298,39.16523],[-86.58287,39.16698],[-86.57876,39.16658],[-86.57609,39.16747],[-86.57657,39.17093],[-86.57361,39.17194],[-86.57354,39.17338],[-86.56837,39.17299],[-86.56173,39.17765],[-86.55808,39.18063],[-86.55558,39.18827],[-86.55468,39.19379],[-86.55438,39.19379],[-86.55214,39.19181],[-86.55175,39.19],[-86.55336,39.19],[-86.5527,39.18783],[-86.55151,39.18729],[-86.54474,39.18777],[-86.54473,39.18902],[-86.54197,39.18871],[-86.542,39.19254],[-86.54067,39.19253],[-86.54095,39.1937],[-86.54718,39.19374],[-86.54724,39.19631],[-86.55195,39.19597],[-86.55208,39.20838],[-86.55326,39.20861],[-86.55336,39.21334],[-86.55269,39.21604],[-86.54916,39.22137],[-86.54764,39.22028],[-86.54701,39.21766],[-86.54733,39.21544],[-86.5473,39.20647],[-86.53809,39.2065],[-86.53813,39.20824],[-86.53496,39.2082],[-86.53094,39.20816],[-86.52918,39.20815],[-86.52885,39.20814],[-86.5288,39.20814],[-86.5288,39.20807],[-86.5288,39.20805],[-86.52872,39.20802],[-86.52735,39.20747],[-86.52592,39.20811],[-86.51004,39.20801],[-86.50998,39.20438],[-86.51257,39.20439],[-86.51254,39.20181],[-86.51451,39.20074],[-86.51364,39.20042],[-86.5129,39.20053],[-86.51241,39.20077],[-86.50994,39.20076],[-86.50997,39.20348],[-86.50992,39.20354],[-86.50831,39.20438],[-86.50062,39.20434],[-86.50047,39.19343],[-86.4958,39.19341],[-86.49573,39.18818],[-86.49571,39.18617],[-86.49482,39.18617],[-86.49103,39.18615],[-86.49098,39.18247],[-86.49039,39.18145],[-86.4899,39.177],[-86.48153,39.17686],[-86.48144,39.17521],[-86.47852,39.17677],[-86.47598,39.17674],[-86.47595,39.17425],[-86.47708,39.17225],[-86.47365,39.17683],[-86.4722,39.1768],[-86.47189,39.1644],[-86.47189,39.16431],[-86.47139,39.16348],[-86.47117,39.15033],[-86.47138,39.15033],[-86.47687,39.15016],[-86.47691,39.1486],[-86.47923,39.14861],[-86.48043,39.14935],[-86.48273,39.14869],[-86.48272,39.14581],[-86.48216,39.1424],[-86.48039,39.1424],[-86.48039,39.14193],[-86.4833,39.14159],[-86.48533,39.1411],[-86.4872,39.13958],[-86.48775,39.13869],[-86.4897,39.1376],[-86.4897,39.13684],[-86.49113,39.13584],[-86.49631,39.13595],[-86.49665,39.13461],[-86.5003,39.13176],[-86.50038,39.12507],[-86.50335,39.12508],[-86.50339,39.12267],[-86.50874,39.12302],[-86.51015,39.1214],[-86.51158,39.12144],[-86.51361,39.12145],[-86.52204,39.12145],[-86.52204,39.12328],[-86.52438,39.1233],[-86.52438,39.12292],[-86.52667,39.12293],[-86.52668,39.12392],[-86.52902,39.12358],[-86.52942,39.12145],[-86.5335,39.12135],[-86.5335,39.12146],[-86.5376,39.12151],[-86.53587,39.12616],[-86.5354,39.13249],[-86.53389,39.13595],[-86.53489,39.13595],[-86.53506,39.13595],[-86.53512,39.13596],[-86.53751,39.1355],[-86.53826,39.13596],[-86.54868,39.13627],[-86.54936,39.13562],[-86.55228,39.13573],[-86.55244,39.13409],[-86.55438,39.13289],[-86.56166,39.13299],[-86.56165,39.13135],[-86.56364,39.13135],[-86.56365,39.13271],[-86.5649,39.1316],[-86.56759,39.13159],[-86.56683,39.12935],[-86.56688,39.12221],[-86.56688,39.12214],[-86.56753,39.12216],[-86.56866,39.12213],[-86.56866,39.12219],[-86.57139,39.12224],[-86.57142,39.12231],[-86.57244,39.12349],[-86.57318,39.12567],[-86.57348,39.12714],[-86.57318,39.13381],[-86.57244,39.13419],[-86.57216,39.13665],[-86.57158,39.13675],[-86.57248,39.13753],[-86.57229,39.14181],[-86.57321,39.14183],[-86.57659,39.14259],[-86.57714,39.14522],[-86.58202,39.14185],[-86.58252,39.1368],[-86.58251,39.13199],[-86.58035,39.13288],[-86.58035,39.13151],[-86.58035,39.13107],[-86.58249,39.13106],[-86.58254,39.12346],[-86.58254,39.1234],[-86.58267,39.12656],[-86.59169,39.12672],[-86.59168,39.12961],[-86.5846,39.12954],[-86.58455,39.12734],[-86.58265,39.12736],[-86.58267,39.13407],[-86.58395,39.13487],[-86.58261,39.13488],[-86.58261,39.1368],[-86.58261,39.14203],[-86.58274,39.14452],[-86.58271,39.14573],[-86.58273,39.14582],[-86.58261,39.14869],[-86.58162,39.14869],[-86.58168,39.1466],[-86.5825,39.14237],[-86.57908,39.14437],[-86.5798,39.14516],[-86.5798,39.14735],[-86.57722,39.14735],[-86.57718,39.14862],[-86.5798,39.14861],[-86.5798,39.15145],[-86.57364,39.15155],[-86.57363,39.16184],[-86.5813,39.16211],[-86.58134,39.16383],[-86.58587,39.16374],[-86.58586,39.1633],[-86.5874,39.16329],[-86.58723,39.15443],[-86.59171,39.15434],[-86.59183,39.16121],[-86.59187,39.16318],[-86.59174,39.16328],[-86.58999,39.16328],[-86.58841,39.16329]],[[-86.565,39.165],[-86.56489,39.16519],[-86.56149,39.16524],[-86.56148,39.16808],[-86.565,39.16806],[-86.565,39.16978],[-86.56421,39.16979],[-86.56381,39.17037],[-86.56149,39.17039],[-86.56149,39.17214],[-86.56499,39.17248],[-86.56679,39.17266],[-86.56994,39.17067],[-86.56994,39.16743],[-86.56854,39.1651],[-86.5665,39.16647],[-86.565,39.165]],[[-86.56387,39.14405],[-86.56405,39.14832],[-86.56169,39.14877],[-86.5603,39.15042],[-86.56076,39.15134],[-86.55065,39.15095],[-86.55055,39.15585],[-86.56128,39.15608],[-86.56141,39.15613],[-86.56428,39.15427],[-86.56695,39.15236],[-86.56789,39.15091],[-86.56764,39.15081],[-86.5665,39.14778],[-86.56641,39.14411],[-86.56387,39.14405]],[[-86.55526,39.15939],[-86.55633,39.16063],[-86.55688,39.16262],[-86.56012,39.16405],[-86.56006,39.16264],[-86.56235,39.16258],[-86.5623,39.16148],[-86.56448,39.1615],[-86.56446,39.15786],[-86.55983,39.15777],[-86.55977,39.15706],[-86.55526,39.15939]]],[[[-86.58302,39.17409],[-86.583,39.17192],[-86.58769,39.17198],[-86.5872,39.1724],[-86.58545,39.17313],[-86.5841,39.17382],[-86.58302,39.17409]]]]}},{"type":"Feature","properties":{"name":"Catch-A-Ride (Lifetime Resources)","boundary_type":"counties","source":"Census TIGER county","fidelity":"exact","updated":"2026-09","units":"Ripley County; Jefferson County; Dearborn County; Ohio County; Switzerland County; Decatur County","note":"General-public demand-response serving six southeast Indiana counties","confidence":0.95},"geometry":{"type":"Polygon","coordinates":[[[-85.64886,38.82402],[-85.64233,38.82412],[-85.64011,38.82414],[-85.63844,38.82418],[-85.6384,38.8176],[-85.62885,38.81758],[-85.62885,38.82414],[-85.61059,38.82425],[-85.61064,38.82758],[-85.611,38.85377],[-85.57378,38.85375],[-85.57381,38.88266],[-85.561,38.8828],[-85.55894,38.88298],[-85.55748,38.88282],[-85.53743,38.88278],[-85.5382,38.91222],[-85.53547,38.91228],[-85.46348,38.91294],[-85.45,38.91297],[-85.4449,38.913],[-85.44466,39.00066],[-85.44405,39.00088],[-85.44371,39.04448],[-85.4435,39.05904],[-85.44336,39.06469],[-85.44314,39.07346],[-85.44277,39.08835],[-85.44187,39.08837],[-85.44124,39.147],[-85.44105,39.16173],[-85.44038,39.18746],[-85.4399,39.19076],[-85.44005,39.19562],[-85.46067,39.18532],[-85.49833,39.16696],[-85.49996,39.16591],[-85.51782,39.15704],[-85.55588,39.13787],[-85.56632,39.13276],[-85.56905,39.13251],[-85.57399,39.13234],[-85.60259,39.13197],[-85.62497,39.13142],[-85.6293,39.13173],[-85.64977,39.13147],[-85.65109,39.13148],[-85.66406,39.13111],[-85.68678,39.13086],[-85.6871,39.16012],[-85.68729,39.18561],[-85.68716,39.18903],[-85.68728,39.18968],[-85.68699,39.23304],[-85.68699,39.23371],[-85.68682,39.24833],[-85.68665,39.26135],[-85.68666,39.26142],[-85.68601,39.2986],[-85.6862,39.30123],[-85.68585,39.3056],[-85.68568,39.31294],[-85.68451,39.35005],[-85.63063,39.35021],[-85.63028,39.3794],[-85.63011,39.41635],[-85.63026,39.42369],[-85.63028,39.42615],[-85.63004,39.42722],[-85.62999,39.43278],[-85.62999,39.43299],[-85.62998,39.43342],[-85.62978,39.43858],[-85.62925,39.43879],[-85.62933,39.45275],[-85.61106,39.45334],[-85.57281,39.45321],[-85.57275,39.45234],[-85.55442,39.45249],[-85.53458,39.45264],[-85.52943,39.4525],[-85.51655,39.45265],[-85.51181,39.4527],[-85.50712,39.45276],[-85.46004,39.45273],[-85.45957,39.4532],[-85.44166,39.45325],[-85.41369,39.45312],[-85.40459,39.45313],[-85.39459,39.45287],[-85.37616,39.4531],[-85.29757,39.45327],[-85.29738,39.43857],[-85.29737,39.43843],[-85.29716,39.42023],[-85.29687,39.41056],[-85.2968,39.40827],[-85.29647,39.39257],[-85.29639,39.38146],[-85.29654,39.37009],[-85.2961,39.36532],[-85.29613,39.35184],[-85.29691,39.35184],[-85.29683,39.32006],[-85.29643,39.31691],[-85.29654,39.26829],[-85.29536,39.26894],[-85.27748,39.27771],[-85.27416,39.27961],[-85.245,39.29454],[-85.24291,39.29546],[-85.23872,39.29781],[-85.22665,39.30388],[-85.21788,39.30847],[-85.21629,39.30848],[-85.20823,39.30852],[-85.20359,39.30855],[-85.18986,39.3087],[-85.18046,39.30972],[-85.17053,39.30988],[-85.15172,39.30999],[-85.13692,39.31019],[-85.13271,39.31041],[-85.09669,39.31015],[-85.07629,39.30999],[-85.0651,39.31007],[-85.06557,39.30723],[-85.06538,39.3072],[-85.00398,39.3068],[-85.0026,39.30679],[-84.95673,39.30631],[-84.92891,39.30594],[-84.91049,39.30587],[-84.90595,39.30608],[-84.89659,39.3058],[-84.88637,39.30583],[-84.84431,39.30555],[-84.84315,39.30545],[-84.82151,39.30524],[-84.81945,39.30515],[-84.81935,39.29282],[-84.81955,39.27651],[-84.81962,39.27013],[-84.81962,39.27009],[-84.8197,39.26738],[-84.81979,39.26451],[-84.81982,39.26313],[-84.81999,39.25518],[-84.82,39.25464],[-84.81995,39.25142],[-84.81995,39.25114],[-84.81991,39.2487],[-84.81991,39.24854],[-84.81983,39.24373],[-84.82014,39.23078],[-84.82015,39.23049],[-84.82009,39.21871],[-84.82009,39.2184],[-84.82008,39.21603],[-84.81983,39.16147],[-84.81981,39.15851],[-84.81983,39.15795],[-84.8201,39.14798],[-84.82011,39.14584],[-84.82012,39.13267],[-84.82014,39.11998],[-84.82014,39.1185],[-84.82015,39.11201],[-84.82016,39.10548],[-84.82526,39.10341],[-84.83243,39.10049],[-84.83726,39.0971],[-84.84458,39.09196],[-84.84576,39.09073],[-84.84982,39.08649],[-84.85164,39.08509],[-84.86069,39.07814],[-84.86803,39.07452],[-84.87298,39.07207],[-84.88066,39.06997],[-84.88887,39.06638],[-84.8932,39.06248],[-84.89493,39.06015],[-84.89691,39.05747],[-84.89688,39.05681],[-84.89687,39.05653],[-84.89678,39.05446],[-84.89675,39.05395],[-84.89673,39.0533],[-84.89316,39.04904],[-84.88919,39.04292],[-84.8891,39.04279],[-84.88566,39.03749],[-84.87911,39.0337],[-84.87791,39.03198],[-84.87736,39.0316],[-84.87182,39.02776],[-84.86451,39.0198],[-84.85061,39.00469],[-84.84774,38.99801],[-84.83983,38.99129],[-84.83774,38.98879],[-84.83712,38.98806],[-84.83347,38.98152],[-84.83062,38.9749],[-84.83053,38.97422],[-84.82986,38.96939],[-84.83262,38.96146],[-84.83285,38.96114],[-84.83368,38.96],[-84.83516,38.95796],[-84.84016,38.95457],[-84.84105,38.95377],[-84.84154,38.95333],[-84.84416,38.95097],[-84.84932,38.94826],[-84.85301,38.94382],[-84.85374,38.94294],[-84.85661,38.94084],[-84.86473,38.93489],[-84.87076,38.92923],[-84.87776,38.92036],[-84.87927,38.91612],[-84.87923,38.9159],[-84.87882,38.9134],[-84.87703,38.90902],[-84.87116,38.90168],[-84.87057,38.90095],[-84.87012,38.90039],[-84.86778,38.89913],[-84.86076,38.89765],[-84.86006,38.89764],[-84.83047,38.89726],[-84.82865,38.89696],[-84.81694,38.89507],[-84.81275,38.89513],[-84.80108,38.89134],[-84.80025,38.89107],[-84.79248,38.88674],[-84.78641,38.88222],[-84.78523,38.88044],[-84.78458,38.87532],[-84.7858,38.8695],[-84.7883,38.86433],[-84.791,38.86057],[-84.79371,38.85779],[-84.79483,38.8572],[-84.79846,38.85528],[-84.80325,38.85072],[-84.81717,38.84342],[-84.8227,38.83965],[-84.82336,38.8392],[-84.82749,38.83491],[-84.82996,38.83063],[-84.82996,38.83042],[-84.82989,38.82541],[-84.8271,38.81863],[-84.81651,38.80532],[-84.81164,38.79277],[-84.81175,38.78917],[-84.81288,38.78609],[-84.81316,38.78583],[-84.81464,38.78449],[-84.82138,38.78311],[-84.82886,38.78327],[-84.83781,38.78491],[-84.85287,38.78938],[-84.86199,38.79109],[-84.87683,38.79247],[-84.87722,38.7925],[-84.88728,38.79478],[-84.89393,38.7937],[-84.89644,38.79273],[-84.90343,38.79002],[-84.90815,38.78765],[-84.91523,38.78409],[-84.92642,38.78048],[-84.93298,38.77752],[-84.94364,38.77543],[-84.94795,38.77549],[-84.96225,38.77818],[-84.97999,38.77958],[-84.99011,38.7787],[-84.99193,38.77854],[-84.99309,38.77799],[-84.99995,38.77471],[-85.01099,38.76703],[-85.02343,38.7621],[-85.03317,38.75824],[-85.04094,38.75516],[-85.0524,38.74814],[-85.05578,38.74684],[-85.05968,38.74534],[-85.06366,38.74411],[-85.07193,38.74157],[-85.07954,38.7369],[-85.09442,38.72922],[-85.09773,38.72751],[-85.1014,38.72655],[-85.10698,38.72163],[-85.1069,38.72079],[-85.11377,38.71632],[-85.12524,38.70886],[-85.12792,38.7065],[-85.13199,38.70292],[-85.1367,38.70024],[-85.15616,38.69225],[-85.17305,38.68802],[-85.17657,38.68846],[-85.17863,38.68831],[-85.18012,38.6882],[-85.18864,38.68758],[-85.19211,38.68909],[-85.20145,38.69105],[-85.2045,38.69169],[-85.21326,38.69545],[-85.22112,38.70096],[-85.22623,38.70587],[-85.23509,38.718],[-85.24626,38.73153],[-85.2465,38.73182],[-85.24874,38.73289],[-85.25895,38.73777],[-85.26849,38.74016],[-85.27876,38.74164],[-85.28927,38.74236],[-85.2959,38.74202],[-85.30532,38.74155],[-85.33309,38.7362],[-85.33375,38.73607],[-85.3364,38.73493],[-85.33704,38.7348],[-85.34895,38.7323],[-85.36338,38.73067],[-85.36522,38.73047],[-85.36702,38.73101],[-85.36985,38.73071],[-85.3699,38.7307],[-85.37226,38.73045],[-85.38434,38.73289],[-85.39745,38.73555],[-85.39783,38.73562],[-85.41024,38.73714],[-85.41954,38.73551],[-85.42342,38.73383],[-85.42535,38.73298],[-85.4363,38.72848],[-85.44227,38.71985],[-85.44318,38.71894],[-85.45018,38.71193],[-85.45094,38.70888],[-85.45205,38.70834],[-85.45236,38.70819],[-85.45675,38.69225],[-85.45648,38.68507],[-85.45549,38.68209],[-85.45444,38.68091],[-85.44481,38.67008],[-85.43874,38.65932],[-85.43838,38.65552],[-85.43774,38.6489],[-85.43814,38.64583],[-85.43946,38.63581],[-85.43973,38.61149],[-85.43928,38.60741],[-85.4363,38.59839],[-85.43399,38.59479],[-85.42859,38.58635],[-85.44313,38.58601],[-85.47876,38.58618],[-85.4787,38.59243],[-85.49645,38.59222],[-85.49667,38.60674],[-85.56998,38.60616],[-85.57055,38.6498],[-85.57062,38.65856],[-85.57093,38.67845],[-85.60819,38.67874],[-85.60868,38.70786],[-85.64576,38.70802],[-85.64569,38.7152],[-85.64598,38.71796],[-85.64599,38.72609],[-85.64622,38.72986],[-85.66427,38.73002],[-85.66436,38.73689],[-85.68334,38.73673],[-85.68403,38.81275],[-85.68402,38.8129],[-85.68384,38.81541],[-85.68407,38.82387],[-85.67968,38.8241],[-85.64939,38.82404],[-85.64886,38.82402]]]}},{"type":"Feature","properties":{"name":"Marshall County Rural Transit (MCPT)","boundary_type":"buffered","source":"Census TIGER unit + service radius","fidelity":"approximate","updated":"2026-09","units":"Marshall County; +160.9 km radius","note":"Core service is countywide (Plymouth & rural Marshall County); brochure also advertises out-of-county trips within an approx. 2-hour drive radius (South Bend/Mishawaka, Fort Wayne, Indianapolis), approximated here as a ~100 mi buffer (2 hr at ~50 mph) around the county. Source: https://marshallcountycouncilonaging.org/transit_brochure2024.pdf","confidence":0.6},"geometry":{"type":"Polygon","coordinates":[[[-88.35674,41.75097],[-88.25028,42.02041],[-88.07639,42.26929],[-87.84165,42.48819],[-87.55494,42.66883],[-87.22709,42.80439],[-86.87051,42.88974],[-86.49868,42.92165],[-86.4667,42.92204],[-86.46381,42.92208],[-86.3822,42.92299],[-86.36755,42.9232],[-86.34269,42.92345],[-86.33848,42.92347],[-86.29381,42.92408],[-86.24105,42.92423],[-86.23119,42.92424],[-86.20214,42.92421],[-86.19283,42.92435],[-86.17027,42.92457],[-86.1414,42.92473],[-86.11877,42.92475],[-86.05085,42.92452],[-85.67867,42.89597],[-85.32088,42.81388],[-84.99099,42.68136],[-84.70148,42.50342],[-84.46327,42.28678],[-84.28537,42.03962],[-84.17451,41.77129],[-84.13486,41.49192],[-84.13446,41.45799],[-84.13441,41.45275],[-84.13403,41.39817],[-84.13392,41.38428],[-84.13378,41.36475],[-84.1332,41.34268],[-84.13313,41.33978],[-84.13239,41.3083],[-84.13239,41.3082],[-84.13222,41.30108],[-84.13172,41.28079],[-84.13104,41.25969],[-84.13073,41.24803],[-84.13024,41.22529],[-84.12962,41.1962],[-84.16062,40.91379],[-84.26439,40.64134],[-84.43695,40.38934],[-84.67166,40.16746],[-84.95951,39.98424],[-85.28943,39.84672],[-85.64874,39.76018],[-85.82693,39.74486],[-85.8267,39.74374],[-85.82891,39.74349],[-85.87024,39.74113],[-86.02363,39.72794],[-86.04713,39.72767],[-86.05618,39.72757],[-86.09611,39.72724],[-86.09612,39.72825],[-86.11985,39.7269],[-86.15299,39.7269],[-86.18001,39.72691],[-86.18128,39.72683],[-86.18674,39.72674],[-86.23872,39.72641],[-86.3253,39.72674],[-86.3312,39.7267],[-86.33417,39.72669],[-86.3444,39.72664],[-86.40122,39.72637],[-86.45366,39.72609],[-86.83176,39.75225],[-87.19567,39.83364],[-87.53121,39.96709],[-87.82534,40.14742],[-88.06661,40.3676],[-88.24562,40.61907],[-88.35541,40.89203],[-88.3917,41.17587],[-88.39135,41.26305],[-88.39132,41.2671],[-88.39123,41.27904],[-88.39118,41.3044],[-88.39117,41.30674],[-88.39101,41.34609],[-88.39106,41.36035],[-88.39107,41.3656],[-88.39102,41.39898],[-88.3911,41.40605],[-88.39113,41.40932],[-88.39124,41.42502],[-88.39125,41.42652],[-88.3913,41.43476],[-88.39132,41.4407],[-88.39132,41.44811],[-88.39172,41.46338],[-88.39176,41.47115],[-88.35674,41.75097]]]}},{"type":"Feature","properties":{"name":"METS Micro","boundary_type":"city","source":"Census TIGER place","fidelity":"approximate","updated":"2026-09","units":"Evansville city","note":"Designated on-demand zones within City of Evansville; expanding to Jacobsville","confidence":0.9},"geometry":{"type":"Polygon","coordinates":[[[-87.63685,37.97503],[-87.63693,37.9764],[-87.63682,37.97954],[-87.6224,37.97881],[-87.61957,37.97654],[-87.61952,37.97868],[-87.61936,37.98299],[-87.62478,37.98566],[-87.62761,37.98667],[-87.62749,37.99248],[-87.62731,37.99246],[-87.61832,37.99497],[-87.61822,37.99892],[-87.61371,37.99883],[-87.61371,37.99703],[-87.60973,37.99695],[-87.60779,37.99846],[-87.61021,38.00181],[-87.6102,38.00318],[-87.6057,38.00258],[-87.6028,38.00075],[-87.6,38.00069],[-87.59916,38.00043],[-87.59309,38.0002],[-87.59138,38.00017],[-87.59102,38.00017],[-87.58805,38.00011],[-87.5863,38.00292],[-87.58487,38.00319],[-87.58509,38.00383],[-87.5869,38.00694],[-87.58693,38.00763],[-87.58726,38.01485],[-87.58776,38.02574],[-87.58827,38.03669],[-87.58242,38.03658],[-87.58217,38.03605],[-87.5796,38.03694],[-87.57746,38.03894],[-87.57373,38.03995],[-87.57401,38.04122],[-87.5718,38.04116],[-87.57183,38.03985],[-87.569,38.03978],[-87.57047,38.03721],[-87.56832,38.03613],[-87.56421,38.03572],[-87.56403,38.03473],[-87.5621,38.03372],[-87.55969,38.03378],[-87.55572,38.03741],[-87.54775,38.03763],[-87.54241,38.04009],[-87.5412,38.04091],[-87.54086,38.03997],[-87.53848,38.04194],[-87.53843,38.04426],[-87.53697,38.04928],[-87.53987,38.05018],[-87.53907,38.05017],[-87.53903,38.05016],[-87.53651,38.0502],[-87.5369,38.05378],[-87.53154,38.0537],[-87.52968,38.05176],[-87.53018,38.05003],[-87.52058,38.04992],[-87.51885,38.05127],[-87.51963,38.0532],[-87.51809,38.0532],[-87.51849,38.05413],[-87.5212,38.05481],[-87.51505,38.05483],[-87.51336,38.05709],[-87.50724,38.057],[-87.50485,38.05605],[-87.50513,38.05248],[-87.50748,38.0514],[-87.50904,38.05062],[-87.50958,38.0494],[-87.51243,38.04942],[-87.51262,38.04621],[-87.51424,38.04254],[-87.5145,38.03681],[-87.51679,38.03672],[-87.51682,38.0353],[-87.52677,38.03544],[-87.52788,38.03448],[-87.52844,38.03427],[-87.53263,38.02798],[-87.51936,38.02793],[-87.51948,38.02248],[-87.51493,38.02243],[-87.51504,38.01511],[-87.51048,38.01468],[-87.51093,38.0132],[-87.5014,38.01312],[-87.50135,38.01212],[-87.49852,38.01096],[-87.4972,38.01098],[-87.49516,38.01249],[-87.49313,38.01798],[-87.49274,38.02036],[-87.49273,38.02067],[-87.49222,38.02066],[-87.49051,38.02035],[-87.47011,38.02035],[-87.46904,38.01665],[-87.46676,38.01467],[-87.46677,38.01313],[-87.45887,38.01282],[-87.45777,38.01304],[-87.45015,38.01299],[-87.45014,38.00417],[-87.44944,38.00453],[-87.44942,38.00405],[-87.44951,38.00344],[-87.44991,37.9912],[-87.45028,37.98367],[-87.45001,37.97668],[-87.4502,37.96947],[-87.45051,37.95753],[-87.45057,37.95504],[-87.47138,37.95482],[-87.47436,37.95481],[-87.48122,37.9549],[-87.48821,37.95497],[-87.48824,37.95333],[-87.48627,37.95263],[-87.4847,37.95028],[-87.48337,37.94994],[-87.4807,37.94866],[-87.48071,37.94773],[-87.48082,37.94774],[-87.48082,37.94855],[-87.48172,37.94856],[-87.48172,37.94897],[-87.48328,37.94898],[-87.48328,37.94946],[-87.48494,37.94948],[-87.48496,37.94776],[-87.48552,37.94776],[-87.49295,37.94779],[-87.49296,37.93954],[-87.49296,37.93935],[-87.49296,37.93918],[-87.49546,37.93907],[-87.49875,37.93956],[-87.50243,37.93918],[-87.51315,37.94001],[-87.51607,37.9397],[-87.52059,37.93831],[-87.52714,37.93759],[-87.5299,37.9361],[-87.53286,37.93585],[-87.53478,37.93628],[-87.53716,37.93679],[-87.54062,37.93814],[-87.54643,37.94084],[-87.54824,37.94084],[-87.55603,37.94671],[-87.56647,37.95101],[-87.57222,37.95082],[-87.57312,37.94998],[-87.57319,37.95023],[-87.5736,37.95164],[-87.57699,37.95229],[-87.57449,37.95721],[-87.5741,37.96211],[-87.57533,37.96639],[-87.57573,37.96778],[-87.57918,37.97153],[-87.58454,37.97466],[-87.58814,37.97519],[-87.59002,37.97547],[-87.59617,37.97486],[-87.60071,37.97187],[-87.60157,37.9713],[-87.6033,37.96729],[-87.60331,37.96693],[-87.60721,37.96707],[-87.60943,37.96363],[-87.61014,37.96319],[-87.61023,37.95974],[-87.61025,37.95889],[-87.60967,37.95772],[-87.61028,37.95743],[-87.61028,37.95757],[-87.61316,37.95584],[-87.61657,37.95344],[-87.61703,37.95316],[-87.62367,37.95335],[-87.63754,37.95375],[-87.63733,37.95958],[-87.63685,37.97503]]]}}]}