{"type":"FeatureCollection","features":[{"type":"Feature","properties":{"name":"Lawrence Transit On Demand","boundary_type":"city","source":"Census TIGER place","fidelity":"exact","updated":"2026-09","units":"Lawrence city","note":"Citywide curb-to-curb service within Lawrence city limits","confidence":0.95},"geometry":{"type":"MultiPolygon","coordinates":[[[[-95.20578,38.91601],[-95.20328,38.91524],[-95.20172,38.91698],[-95.19805,38.9166],[-95.19645,38.91784],[-95.19516,38.91644],[-95.19676,38.91524],[-95.19556,38.91462],[-95.19363,38.91586],[-95.19215,38.91478],[-95.18932,38.91451],[-95.18445,38.91302],[-95.18456,38.91195],[-95.18674,38.91124],[-95.18698,38.91263],[-95.18865,38.91082],[-95.18938,38.90814],[-95.19327,38.90799],[-95.19327,38.90618],[-95.20275,38.90629],[-95.20276,38.90447],[-95.20512,38.90449],[-95.20507,38.90996],[-95.21207,38.90998],[-95.21384,38.91145],[-95.21364,38.91299],[-95.21669,38.91476],[-95.21565,38.91693],[-95.21077,38.91593],[-95.20828,38.91795],[-95.20578,38.91601]]],[[[-95.18608,38.9296],[-95.18608,38.92988],[-95.18497,38.92987],[-95.18497,38.92945],[-95.18543,38.92945],[-95.18608,38.9296]]],[[[-95.33517,38.98233],[-95.33525,38.98583],[-95.32586,38.98601],[-95.32583,38.9824],[-95.31641,38.98242],[-95.31645,38.98611],[-95.30892,38.98608],[-95.30895,38.98971],[-95.30237,38.98972],[-95.30003,38.98972],[-95.30001,38.98769],[-95.29999,38.98609],[-95.29763,38.98606],[-95.29763,38.97761],[-95.29456,38.97761],[-95.29312,38.97814],[-95.29292,38.98064],[-95.29621,38.98064],[-95.29621,38.98155],[-95.29298,38.98155],[-95.29298,38.98245],[-95.2953,38.98245],[-95.2953,38.98381],[-95.29066,38.98381],[-95.29067,38.98609],[-95.29152,38.98609],[-95.29159,38.99335],[-95.29541,38.99335],[-95.29539,38.99699],[-95.29772,38.99699],[-95.29777,38.99336],[-95.30192,38.99335],[-95.3024,38.9934],[-95.3024,38.99737],[-95.29772,38.99731],[-95.29744,38.99731],[-95.28845,38.99709],[-95.28473,38.99651],[-95.2791,38.99494],[-95.2791,38.99334],[-95.27383,38.99334],[-95.27442,38.9939],[-95.27449,39.00061],[-95.26751,39.00061],[-95.26754,39.00459],[-95.26054,39.00459],[-95.26051,39.00061],[-95.25586,39.00061],[-95.25584,38.99698],[-95.2605,38.99666],[-95.26049,38.99479],[-95.25904,38.99479],[-95.25905,38.99335],[-95.25396,38.99335],[-95.25456,38.99455],[-95.25399,38.99788],[-95.25119,38.99789],[-95.25117,38.99232],[-95.24942,38.99231],[-95.24886,38.99327],[-95.24807,38.99136],[-95.25116,38.99028],[-95.24885,38.99027],[-95.24795,38.98829],[-95.24824,38.98677],[-95.25116,38.987],[-95.25115,38.98492],[-95.24793,38.98492],[-95.24605,38.98597],[-95.24456,38.98251],[-95.24508,38.98609],[-95.24188,38.98429],[-95.242,38.98635],[-95.2408,38.99126],[-95.23955,38.99145],[-95.23914,38.99206],[-95.23901,38.99376],[-95.23953,38.99791],[-95.24135,39.00112],[-95.24324,39.00273],[-95.24693,39.0043],[-95.26375,39.00927],[-95.26677,39.01059],[-95.27052,39.01555],[-95.27186,39.01634],[-95.27634,39.01681],[-95.2805,39.01848],[-95.28339,39.02054],[-95.28587,39.02403],[-95.28642,39.02598],[-95.27701,39.026],[-95.27675,39.03339],[-95.27392,39.03338],[-95.27394,39.03199],[-95.27257,39.03199],[-95.26922,39.02457],[-95.26782,39.01808],[-95.26676,39.01646],[-95.24186,39.00631],[-95.23636,39.00192],[-95.23591,39.00086],[-95.23382,39.00058],[-95.23341,38.99932],[-95.22885,38.99874],[-95.22838,38.99402],[-95.22698,38.99375],[-95.22696,38.99369],[-95.22922,38.99149],[-95.22953,38.98875],[-95.2322,38.98876],[-95.23217,38.98604],[-95.22784,38.98604],[-95.22784,38.98639],[-95.22742,38.98639],[-95.22742,38.98694],[-95.2269,38.98694],[-95.22691,38.98785],[-95.22627,38.98785],[-95.22625,38.98604],[-95.22392,38.98604],[-95.22393,38.98694],[-95.21968,38.98695],[-95.21967,38.98604],[-95.2145,38.98605],[-95.2145,38.98503],[-95.21139,38.98502],[-95.21138,38.98435],[-95.2145,38.98434],[-95.2145,38.98242],[-95.21136,38.98241],[-95.21135,38.98217],[-95.21444,38.9813],[-95.21444,38.98117],[-95.21441,38.97788],[-95.21434,38.97151],[-95.21426,38.97058],[-95.21194,38.96905],[-95.21187,38.96426],[-95.21186,38.96282],[-95.20952,38.96061],[-95.20955,38.95698],[-95.20221,38.95696],[-95.193,38.95694],[-95.19296,38.95364],[-95.18401,38.95032],[-95.18287,38.95016],[-95.17684,38.95],[-95.17677,38.94264],[-95.16656,38.94273],[-95.16658,38.94263],[-95.17645,38.94217],[-95.17675,38.94182],[-95.17703,38.94287],[-95.18602,38.94287],[-95.18602,38.9426],[-95.18599,38.9426],[-95.18605,38.93532],[-95.20024,38.93546],[-95.20025,38.93364],[-95.20497,38.93359],[-95.20497,38.93335],[-95.20799,38.93329],[-95.20799,38.9326],[-95.20497,38.93263],[-95.20496,38.92774],[-95.20838,38.92783],[-95.21117,38.92641],[-95.21405,38.92623],[-95.21418,38.92847],[-95.21703,38.92847],[-95.21886,38.9272],[-95.22118,38.92718],[-95.2212,38.92572],[-95.22351,38.92582],[-95.2235,38.92809],[-95.24182,38.92828],[-95.24523,38.92826],[-95.24509,38.92619],[-95.25267,38.92184],[-95.25539,38.9209],[-95.25533,38.91537],[-95.25783,38.91515],[-95.26045,38.91624],[-95.26046,38.91995],[-95.26059,38.92119],[-95.26238,38.92086],[-95.27052,38.92087],[-95.27053,38.92509],[-95.27452,38.92448],[-95.27918,38.9247],[-95.27918,38.92785],[-95.27922,38.929],[-95.27893,38.929],[-95.27918,38.93022],[-95.2807,38.92998],[-95.28238,38.92843],[-95.28859,38.92823],[-95.28861,38.92927],[-95.29321,38.93068],[-95.2932,38.93536],[-95.29787,38.93536],[-95.29789,38.93217],[-95.2995,38.93217],[-95.29789,38.93189],[-95.29789,38.93038],[-95.29879,38.93018],[-95.30075,38.93087],[-95.30208,38.93247],[-95.30493,38.93534],[-95.3071,38.93726],[-95.30727,38.93625],[-95.30756,38.93534],[-95.30758,38.9256],[-95.30861,38.92285],[-95.30842,38.92169],[-95.3073,38.9206],[-95.30729,38.91352],[-95.31654,38.91338],[-95.32299,38.91355],[-95.32421,38.91383],[-95.32546,38.91547],[-95.32756,38.92449],[-95.32917,38.92997],[-95.32707,38.93089],[-95.31865,38.9265],[-95.31836,38.9268],[-95.32697,38.9327],[-95.33001,38.93227],[-95.33242,38.93664],[-95.33349,38.93664],[-95.33403,38.93735],[-95.33486,38.93878],[-95.33274,38.94015],[-95.33121,38.94042],[-95.3295,38.94027],[-95.32632,38.93873],[-95.32025,38.9353],[-95.31924,38.93435],[-95.31669,38.93437],[-95.31663,38.94209],[-95.31662,38.94231],[-95.32639,38.94229],[-95.33528,38.94253],[-95.33527,38.94365],[-95.33121,38.94728],[-95.3281,38.94752],[-95.32971,38.95095],[-95.32903,38.95337],[-95.32563,38.95338],[-95.32552,38.95696],[-95.33473,38.95687],[-95.33624,38.95688],[-95.33656,38.96009],[-95.33496,38.96188],[-95.33489,38.96414],[-95.33416,38.96419],[-95.33354,38.96418],[-95.33363,38.96896],[-95.33233,38.97089],[-95.33427,38.97089],[-95.34451,38.97136],[-95.34454,38.97862],[-95.33509,38.97873],[-95.33459,38.97873],[-95.33386,38.97873],[-95.33517,38.98233]],[[-95.18604,38.94428],[-95.18604,38.9445],[-95.18731,38.9445],[-95.18718,38.94277],[-95.18635,38.94276],[-95.18605,38.94287],[-95.18602,38.94287],[-95.18604,38.94428]],[[-95.27492,38.92704],[-95.27453,38.92705],[-95.27453,38.92811],[-95.27493,38.92811],[-95.27492,38.92704]],[[-95.21422,38.96523],[-95.2142,38.96334],[-95.21197,38.96271],[-95.21199,38.96426],[-95.2129,38.96522],[-95.21422,38.96523]],[[-95.20495,38.9355],[-95.2026,38.93548],[-95.20262,38.93729],[-95.20495,38.93731],[-95.20495,38.9355]],[[-95.19793,38.93936],[-95.1955,38.93934],[-95.19552,38.94269],[-95.19793,38.94271],[-95.19793,38.93936]],[[-95.19317,38.94267],[-95.19086,38.94265],[-95.19082,38.94443],[-95.19314,38.94446],[-95.19317,38.94267]]],[[[-95.29593,38.9902],[-95.29298,38.98778],[-95.2978,38.98791],[-95.29778,38.99087],[-95.29777,38.99189],[-95.29679,38.99127],[-95.29593,38.9902]]],[[[-95.23345,39.00058],[-95.23346,39.00246],[-95.23036,39.0024],[-95.22875,39.00239],[-95.22874,39.00058],[-95.23345,39.00058]]],[[[-95.21419,39.01406],[-95.20626,39.00173],[-95.2035,38.99812],[-95.20534,38.9974],[-95.21003,38.99697],[-95.21126,39.00061],[-95.21942,39.00058],[-95.21945,39.00421],[-95.22412,39.0042],[-95.22333,39.00616],[-95.22097,39.00721],[-95.21881,39.01205],[-95.22323,39.01917],[-95.2242,39.02278],[-95.21853,39.02115],[-95.2154,39.01625],[-95.21378,39.01581],[-95.21419,39.01406]]]]}},{"type":"Feature","properties":{"name":"MOD Topeka (Metro On-Demand)","boundary_type":"city","source":"Census TIGER place","fidelity":"approximate","updated":"2026-09","units":"Topeka city","note":"Service limited to designated southeast zone of Topeka; represented as city-level approximation","confidence":0.6},"geometry":{"type":"MultiPolygon","coordinates":[[[[-95.65802,38.93087],[-95.6522,38.93142],[-95.6496,38.93397],[-95.64926,38.93546],[-95.64215,38.93547],[-95.64169,38.93184],[-95.65109,38.9318],[-95.65103,38.92817],[-95.66942,38.92811],[-95.66924,38.91723],[-95.67846,38.91719],[-95.67853,38.92801],[-95.68619,38.92801],[-95.68751,38.92983],[-95.6871,38.93531],[-95.67372,38.93548],[-95.6732,38.93371],[-95.66575,38.93375],[-95.65802,38.93087]]],[[[-95.69505,38.93533],[-95.68742,38.93527],[-95.68781,38.93266],[-95.68785,38.928],[-95.691,38.92809],[-95.69254,38.9244],[-95.69705,38.91777],[-95.70217,38.92289],[-95.70609,38.92738],[-95.70612,38.92961],[-95.70583,38.92973],[-95.70151,38.93143],[-95.6967,38.93504],[-95.69505,38.93533]]],[[[-95.69684,38.95006],[-95.70161,38.94999],[-95.70163,38.95685],[-95.69713,38.95685],[-95.69712,38.95124],[-95.69676,38.9508],[-95.69684,38.95006]]],[[[-95.61433,38.99338],[-95.61439,38.98611],[-95.62599,38.98619],[-95.62601,38.98974],[-95.62387,38.98974],[-95.62315,38.99182],[-95.62135,38.99337],[-95.61433,38.99338]]],[[[-95.61424,39.01514],[-95.60955,39.01507],[-95.60961,39.00766],[-95.6143,39.00762],[-95.61428,39.00926],[-95.61246,39.00924],[-95.6125,39.01026],[-95.61427,39.01027],[-95.61424,39.01514]]],[[[-95.63081,39.01517],[-95.63209,39.01518],[-95.63209,39.01614],[-95.63132,39.01573],[-95.63114,39.01581],[-95.63084,39.01557],[-95.63081,39.01517]]],[[[-95.7997,39.02532],[-95.8027,39.02405],[-95.80267,39.02865],[-95.79999,39.02862],[-95.79861,39.02683],[-95.79803,39.02683],[-95.79803,39.02594],[-95.79021,39.02609],[-95.79023,39.02876],[-95.78215,39.02893],[-95.78201,39.03257],[-95.78075,39.03261],[-95.78093,39.02895],[-95.77565,39.029],[-95.77564,39.02827],[-95.77506,39.02828],[-95.77507,39.02901],[-95.77402,39.02902],[-95.7739,39.02902],[-95.77358,39.03633],[-95.78056,39.03623],[-95.78034,39.04049],[-95.77609,39.04052],[-95.77454,39.04053],[-95.7745,39.04345],[-95.78015,39.04341],[-95.78016,39.04492],[-95.77097,39.04533],[-95.77031,39.04717],[-95.77368,39.05074],[-95.77627,39.05072],[-95.77627,39.04707],[-95.78026,39.04706],[-95.78029,39.05065],[-95.78365,39.05064],[-95.785,39.05118],[-95.78499,39.05308],[-95.78074,39.05309],[-95.7803,39.05199],[-95.78031,39.05342],[-95.78031,39.05371],[-95.78033,39.05794],[-95.77079,39.05801],[-95.77104,39.06166],[-95.77305,39.06163],[-95.77305,39.06367],[-95.76636,39.06374],[-95.76637,39.06169],[-95.76165,39.06184],[-95.76163,39.06772],[-95.75256,39.06832],[-95.75256,39.0707],[-95.75253,39.07182],[-95.75262,39.08],[-95.74805,39.0801],[-95.74812,39.08373],[-95.74592,39.08378],[-95.74589,39.08015],[-95.73289,39.08048],[-95.73085,39.08078],[-95.73085,39.08091],[-95.73066,39.08873],[-95.7305,39.08879],[-95.72536,39.09073],[-95.72491,39.0909],[-95.7248,39.0946],[-95.72283,39.09461],[-95.72128,39.09494],[-95.71963,39.0965],[-95.71959,39.09852],[-95.7184,39.09882],[-95.71694,39.09746],[-95.71693,39.09464],[-95.72003,39.09462],[-95.71977,39.0911],[-95.71542,39.09114],[-95.71548,39.09465],[-95.70617,39.09471],[-95.70616,39.09122],[-95.68593,39.09141],[-95.68742,39.09347],[-95.68747,39.10141],[-95.68743,39.10212],[-95.68162,39.10212],[-95.6816,39.1063],[-95.68276,39.10707],[-95.68273,39.1094],[-95.67935,39.1094],[-95.67935,39.10777],[-95.67801,39.10777],[-95.67802,39.103],[-95.67876,39.10216],[-95.66462,39.10231],[-95.66462,39.10223],[-95.65993,39.10231],[-95.65277,39.10239],[-95.65276,39.09865],[-95.64594,39.09644],[-95.63799,39.09499],[-95.63277,39.09489],[-95.63294,39.09382],[-95.62947,39.09377],[-95.62823,39.09202],[-95.62721,39.09312],[-95.6253,39.09272],[-95.62416,39.0916],[-95.62328,39.09079],[-95.62331,39.08437],[-95.62546,39.08532],[-95.63086,39.0878],[-95.63088,39.08638],[-95.63101,39.08074],[-95.62875,39.0794],[-95.6257,39.07707],[-95.62545,39.08327],[-95.62177,39.08139],[-95.6218,39.077],[-95.6219,39.07344],[-95.61253,39.07343],[-95.61277,39.06614],[-95.61076,39.06609],[-95.60912,39.06723],[-95.60692,39.0677],[-95.60504,39.06661],[-95.60405,39.06244],[-95.60356,39.06244],[-95.60365,39.05885],[-95.61376,39.05885],[-95.61367,39.06133],[-95.61519,39.06249],[-95.61559,39.06067],[-95.6182,39.05975],[-95.62084,39.05975],[-95.62082,39.05885],[-95.62248,39.05885],[-95.62277,39.04425],[-95.6176,39.04427],[-95.61777,39.04964],[-95.61674,39.04855],[-95.61338,39.04852],[-95.61353,39.04428],[-95.61472,39.04427],[-95.61474,39.04281],[-95.61356,39.0428],[-95.6137,39.03701],[-95.614,39.0365],[-95.61653,39.03497],[-95.6184,39.03462],[-95.61838,39.03375],[-95.61702,39.03403],[-95.6138,39.03426],[-95.61386,39.03262],[-95.61508,39.03267],[-95.61526,39.03067],[-95.61709,39.02995],[-95.61864,39.0297],[-95.62265,39.02788],[-95.62377,39.02818],[-95.62645,39.02624],[-95.62614,39.02579],[-95.62387,39.02458],[-95.62265,39.02636],[-95.61867,39.02806],[-95.61871,39.02607],[-95.61415,39.02607],[-95.61402,39.02754],[-95.60934,39.02752],[-95.60937,39.02604],[-95.61391,39.02608],[-95.61405,39.02557],[-95.61424,39.01514],[-95.6235,39.01516],[-95.62925,39.01517],[-95.62974,39.0198],[-95.63292,39.01984],[-95.63289,39.02187],[-95.63289,39.02207],[-95.63288,39.02268],[-95.64087,39.0152],[-95.64704,39.01094],[-95.64704,39.01049],[-95.64701,39.00798],[-95.64236,39.00798],[-95.64238,39.01285],[-95.63949,39.0152],[-95.63297,39.01518],[-95.63301,39.00396],[-95.63564,39.004],[-95.63584,39.00064],[-95.64697,39.00071],[-95.64698,38.99618],[-95.64697,38.99343],[-95.65065,38.99343],[-95.65043,38.98982],[-95.6516,38.98981],[-95.6516,38.98922],[-95.64788,38.98921],[-95.64229,38.98978],[-95.64226,38.98615],[-95.64581,38.98615],[-95.64581,38.98812],[-95.64737,38.98813],[-95.64737,38.98616],[-95.64924,38.98616],[-95.64922,38.98381],[-95.65156,38.98436],[-95.65392,38.98436],[-95.65393,38.98616],[-95.66097,38.98614],[-95.66093,38.98161],[-95.66655,38.9816],[-95.66662,38.98614],[-95.67037,38.98614],[-95.67507,38.98615],[-95.67491,38.97888],[-95.67964,38.97885],[-95.67956,38.97609],[-95.67548,38.97383],[-95.6752,38.9725],[-95.67804,38.97158],[-95.68758,38.97158],[-95.68761,38.97883],[-95.68947,38.97884],[-95.68875,38.97155],[-95.69,38.97154],[-95.69015,38.96431],[-95.70448,38.96421],[-95.70278,38.96894],[-95.70242,38.97147],[-95.70231,38.97878],[-95.71199,38.9787],[-95.70822,38.98597],[-95.71103,38.98598],[-95.71169,38.99324],[-95.71912,38.99315],[-95.71919,38.98865],[-95.71568,38.98947],[-95.71567,38.98237],[-95.71778,38.98128],[-95.71778,38.97865],[-95.7239,38.97872],[-95.72492,38.97829],[-95.7296,38.97851],[-95.72957,38.97901],[-95.72865,38.979],[-95.72866,38.9801],[-95.72895,38.98011],[-95.72895,38.98065],[-95.72916,38.98065],[-95.72916,38.9812],[-95.73011,38.98121],[-95.73012,38.98468],[-95.73014,38.99311],[-95.73016,38.99455],[-95.73195,38.99444],[-95.73371,38.99444],[-95.73372,38.99598],[-95.73016,38.996],[-95.73019,39.00031],[-95.73252,39.00033],[-95.73251,38.9967],[-95.74369,38.99665],[-95.74369,38.99303],[-95.7453,38.99301],[-95.74755,38.99189],[-95.74853,38.99174],[-95.74919,38.99175],[-95.74975,38.99186],[-95.75209,38.99253],[-95.75281,38.99266],[-95.7533,38.99269],[-95.75521,38.99265],[-95.75592,38.9917],[-95.75487,38.99026],[-95.75529,38.98904],[-95.75234,38.98763],[-95.75291,38.98645],[-95.75519,38.98707],[-95.75834,38.98707],[-95.75834,38.98834],[-95.76204,38.98827],[-95.76224,38.98926],[-95.76516,38.98917],[-95.76451,38.9876],[-95.76244,38.9876],[-95.76241,38.98517],[-95.76373,38.98463],[-95.76662,38.98464],[-95.76659,38.98291],[-95.7624,38.98101],[-95.76345,38.97828],[-95.76485,38.97827],[-95.7645,38.97464],[-95.76216,38.97465],[-95.76215,38.971],[-95.7668,38.97096],[-95.76682,38.97462],[-95.77144,38.97459],[-95.77149,38.97823],[-95.77613,38.97819],[-95.77617,38.98284],[-95.77377,38.98285],[-95.77376,38.98468],[-95.77147,38.98468],[-95.77158,38.99283],[-95.77159,38.99743],[-95.76991,38.99691],[-95.76996,38.99992],[-95.76703,38.99995],[-95.76703,39.00515],[-95.76823,39.00514],[-95.76821,39.00733],[-95.76319,39.00733],[-95.76236,39.00677],[-95.76237,39.01096],[-95.77166,39.01093],[-95.77165,39.01453],[-95.77373,39.01452],[-95.78094,39.01447],[-95.78556,39.01436],[-95.78558,39.01799],[-95.79561,39.01775],[-95.79561,39.01838],[-95.79804,39.01897],[-95.79809,39.01406],[-95.81003,39.01427],[-95.80992,39.01784],[-95.81264,39.01909],[-95.81261,39.02156],[-95.8027,39.02139],[-95.80121,39.02223],[-95.79929,39.02447],[-95.7997,39.02532]],[[-95.75294,38.99272],[-95.75208,38.99257],[-95.74974,38.99191],[-95.74913,38.9918],[-95.74544,38.993],[-95.75063,38.99295],[-95.75065,38.99657],[-95.76233,38.99645],[-95.76232,38.99462],[-95.76694,38.99461],[-95.76694,38.9929],[-95.76229,38.99287],[-95.75523,38.9929],[-95.75522,38.9927],[-95.75294,38.99272]],[[-95.65743,38.99524],[-95.65744,38.99707],[-95.66095,38.99707],[-95.66096,38.99344],[-95.6523,38.99355],[-95.65162,38.99343],[-95.65163,38.99527],[-95.65743,38.99524]]],[[[-95.68743,39.10212],[-95.69178,39.10211],[-95.69489,39.10931],[-95.68868,39.10937],[-95.68741,39.10871],[-95.68743,39.10301],[-95.68743,39.10212]]]]}},{"type":"Feature","properties":{"name":"Night Line","boundary_type":"city","source":"Census TIGER place","fidelity":"exact","updated":"2026-09","units":"Lawrence city","note":"Evening/overnight service within Lawrence city limits","confidence":0.95},"geometry":{"type":"MultiPolygon","coordinates":[[[[-95.20578,38.91601],[-95.20328,38.91524],[-95.20172,38.91698],[-95.19805,38.9166],[-95.19645,38.91784],[-95.19516,38.91644],[-95.19676,38.91524],[-95.19556,38.91462],[-95.19363,38.91586],[-95.19215,38.91478],[-95.18932,38.91451],[-95.18445,38.91302],[-95.18456,38.91195],[-95.18674,38.91124],[-95.18698,38.91263],[-95.18865,38.91082],[-95.18938,38.90814],[-95.19327,38.90799],[-95.19327,38.90618],[-95.20275,38.90629],[-95.20276,38.90447],[-95.20512,38.90449],[-95.20507,38.90996],[-95.21207,38.90998],[-95.21384,38.91145],[-95.21364,38.91299],[-95.21669,38.91476],[-95.21565,38.91693],[-95.21077,38.91593],[-95.20828,38.91795],[-95.20578,38.91601]]],[[[-95.18608,38.9296],[-95.18608,38.92988],[-95.18497,38.92987],[-95.18497,38.92945],[-95.18543,38.92945],[-95.18608,38.9296]]],[[[-95.33517,38.98233],[-95.33525,38.98583],[-95.32586,38.98601],[-95.32583,38.9824],[-95.31641,38.98242],[-95.31645,38.98611],[-95.30892,38.98608],[-95.30895,38.98971],[-95.30237,38.98972],[-95.30003,38.98972],[-95.30001,38.98769],[-95.29999,38.98609],[-95.29763,38.98606],[-95.29763,38.97761],[-95.29456,38.97761],[-95.29312,38.97814],[-95.29292,38.98064],[-95.29621,38.98064],[-95.29621,38.98155],[-95.29298,38.98155],[-95.29298,38.98245],[-95.2953,38.98245],[-95.2953,38.98381],[-95.29066,38.98381],[-95.29067,38.98609],[-95.29152,38.98609],[-95.29159,38.99335],[-95.29541,38.99335],[-95.29539,38.99699],[-95.29772,38.99699],[-95.29777,38.99336],[-95.30192,38.99335],[-95.3024,38.9934],[-95.3024,38.99737],[-95.29772,38.99731],[-95.29744,38.99731],[-95.28845,38.99709],[-95.28473,38.99651],[-95.2791,38.99494],[-95.2791,38.99334],[-95.27383,38.99334],[-95.27442,38.9939],[-95.27449,39.00061],[-95.26751,39.00061],[-95.26754,39.00459],[-95.26054,39.00459],[-95.26051,39.00061],[-95.25586,39.00061],[-95.25584,38.99698],[-95.2605,38.99666],[-95.26049,38.99479],[-95.25904,38.99479],[-95.25905,38.99335],[-95.25396,38.99335],[-95.25456,38.99455],[-95.25399,38.99788],[-95.25119,38.99789],[-95.25117,38.99232],[-95.24942,38.99231],[-95.24886,38.99327],[-95.24807,38.99136],[-95.25116,38.99028],[-95.24885,38.99027],[-95.24795,38.98829],[-95.24824,38.98677],[-95.25116,38.987],[-95.25115,38.98492],[-95.24793,38.98492],[-95.24605,38.98597],[-95.24456,38.98251],[-95.24508,38.98609],[-95.24188,38.98429],[-95.242,38.98635],[-95.2408,38.99126],[-95.23955,38.99145],[-95.23914,38.99206],[-95.23901,38.99376],[-95.23953,38.99791],[-95.24135,39.00112],[-95.24324,39.00273],[-95.24693,39.0043],[-95.26375,39.00927],[-95.26677,39.01059],[-95.27052,39.01555],[-95.27186,39.01634],[-95.27634,39.01681],[-95.2805,39.01848],[-95.28339,39.02054],[-95.28587,39.02403],[-95.28642,39.02598],[-95.27701,39.026],[-95.27675,39.03339],[-95.27392,39.03338],[-95.27394,39.03199],[-95.27257,39.03199],[-95.26922,39.02457],[-95.26782,39.01808],[-95.26676,39.01646],[-95.24186,39.00631],[-95.23636,39.00192],[-95.23591,39.00086],[-95.23382,39.00058],[-95.23341,38.99932],[-95.22885,38.99874],[-95.22838,38.99402],[-95.22698,38.99375],[-95.22696,38.99369],[-95.22922,38.99149],[-95.22953,38.98875],[-95.2322,38.98876],[-95.23217,38.98604],[-95.22784,38.98604],[-95.22784,38.98639],[-95.22742,38.98639],[-95.22742,38.98694],[-95.2269,38.98694],[-95.22691,38.98785],[-95.22627,38.98785],[-95.22625,38.98604],[-95.22392,38.98604],[-95.22393,38.98694],[-95.21968,38.98695],[-95.21967,38.98604],[-95.2145,38.98605],[-95.2145,38.98503],[-95.21139,38.98502],[-95.21138,38.98435],[-95.2145,38.98434],[-95.2145,38.98242],[-95.21136,38.98241],[-95.21135,38.98217],[-95.21444,38.9813],[-95.21444,38.98117],[-95.21441,38.97788],[-95.21434,38.97151],[-95.21426,38.97058],[-95.21194,38.96905],[-95.21187,38.96426],[-95.21186,38.96282],[-95.20952,38.96061],[-95.20955,38.95698],[-95.20221,38.95696],[-95.193,38.95694],[-95.19296,38.95364],[-95.18401,38.95032],[-95.18287,38.95016],[-95.17684,38.95],[-95.17677,38.94264],[-95.16656,38.94273],[-95.16658,38.94263],[-95.17645,38.94217],[-95.17675,38.94182],[-95.17703,38.94287],[-95.18602,38.94287],[-95.18602,38.9426],[-95.18599,38.9426],[-95.18605,38.93532],[-95.20024,38.93546],[-95.20025,38.93364],[-95.20497,38.93359],[-95.20497,38.93335],[-95.20799,38.93329],[-95.20799,38.9326],[-95.20497,38.93263],[-95.20496,38.92774],[-95.20838,38.92783],[-95.21117,38.92641],[-95.21405,38.92623],[-95.21418,38.92847],[-95.21703,38.92847],[-95.21886,38.9272],[-95.22118,38.92718],[-95.2212,38.92572],[-95.22351,38.92582],[-95.2235,38.92809],[-95.24182,38.92828],[-95.24523,38.92826],[-95.24509,38.92619],[-95.25267,38.92184],[-95.25539,38.9209],[-95.25533,38.91537],[-95.25783,38.91515],[-95.26045,38.91624],[-95.26046,38.91995],[-95.26059,38.92119],[-95.26238,38.92086],[-95.27052,38.92087],[-95.27053,38.92509],[-95.27452,38.92448],[-95.27918,38.9247],[-95.27918,38.92785],[-95.27922,38.929],[-95.27893,38.929],[-95.27918,38.93022],[-95.2807,38.92998],[-95.28238,38.92843],[-95.28859,38.92823],[-95.28861,38.92927],[-95.29321,38.93068],[-95.2932,38.93536],[-95.29787,38.93536],[-95.29789,38.93217],[-95.2995,38.93217],[-95.29789,38.93189],[-95.29789,38.93038],[-95.29879,38.93018],[-95.30075,38.93087],[-95.30208,38.93247],[-95.30493,38.93534],[-95.3071,38.93726],[-95.30727,38.93625],[-95.30756,38.93534],[-95.30758,38.9256],[-95.30861,38.92285],[-95.30842,38.92169],[-95.3073,38.9206],[-95.30729,38.91352],[-95.31654,38.91338],[-95.32299,38.91355],[-95.32421,38.91383],[-95.32546,38.91547],[-95.32756,38.92449],[-95.32917,38.92997],[-95.32707,38.93089],[-95.31865,38.9265],[-95.31836,38.9268],[-95.32697,38.9327],[-95.33001,38.93227],[-95.33242,38.93664],[-95.33349,38.93664],[-95.33403,38.93735],[-95.33486,38.93878],[-95.33274,38.94015],[-95.33121,38.94042],[-95.3295,38.94027],[-95.32632,38.93873],[-95.32025,38.9353],[-95.31924,38.93435],[-95.31669,38.93437],[-95.31663,38.94209],[-95.31662,38.94231],[-95.32639,38.94229],[-95.33528,38.94253],[-95.33527,38.94365],[-95.33121,38.94728],[-95.3281,38.94752],[-95.32971,38.95095],[-95.32903,38.95337],[-95.32563,38.95338],[-95.32552,38.95696],[-95.33473,38.95687],[-95.33624,38.95688],[-95.33656,38.96009],[-95.33496,38.96188],[-95.33489,38.96414],[-95.33416,38.96419],[-95.33354,38.96418],[-95.33363,38.96896],[-95.33233,38.97089],[-95.33427,38.97089],[-95.34451,38.97136],[-95.34454,38.97862],[-95.33509,38.97873],[-95.33459,38.97873],[-95.33386,38.97873],[-95.33517,38.98233]],[[-95.18604,38.94428],[-95.18604,38.9445],[-95.18731,38.9445],[-95.18718,38.94277],[-95.18635,38.94276],[-95.18605,38.94287],[-95.18602,38.94287],[-95.18604,38.94428]],[[-95.27492,38.92704],[-95.27453,38.92705],[-95.27453,38.92811],[-95.27493,38.92811],[-95.27492,38.92704]],[[-95.21422,38.96523],[-95.2142,38.96334],[-95.21197,38.96271],[-95.21199,38.96426],[-95.2129,38.96522],[-95.21422,38.96523]],[[-95.20495,38.9355],[-95.2026,38.93548],[-95.20262,38.93729],[-95.20495,38.93731],[-95.20495,38.9355]],[[-95.19793,38.93936],[-95.1955,38.93934],[-95.19552,38.94269],[-95.19793,38.94271],[-95.19793,38.93936]],[[-95.19317,38.94267],[-95.19086,38.94265],[-95.19082,38.94443],[-95.19314,38.94446],[-95.19317,38.94267]]],[[[-95.29593,38.9902],[-95.29298,38.98778],[-95.2978,38.98791],[-95.29778,38.99087],[-95.29777,38.99189],[-95.29679,38.99127],[-95.29593,38.9902]]],[[[-95.23345,39.00058],[-95.23346,39.00246],[-95.23036,39.0024],[-95.22875,39.00239],[-95.22874,39.00058],[-95.23345,39.00058]]],[[[-95.21419,39.01406],[-95.20626,39.00173],[-95.2035,38.99812],[-95.20534,38.9974],[-95.21003,38.99697],[-95.21126,39.00061],[-95.21942,39.00058],[-95.21945,39.00421],[-95.22412,39.0042],[-95.22333,39.00616],[-95.22097,39.00721],[-95.21881,39.01205],[-95.22323,39.01917],[-95.2242,39.02278],[-95.21853,39.02115],[-95.2154,39.01625],[-95.21378,39.01581],[-95.21419,39.01406]]]]}},{"type":"Feature","properties":{"name":"OCCK OnDemand (Salina CityGo)","boundary_type":"city","source":"Census TIGER place","fidelity":"exact","updated":"2026-09","units":"Salina city","note":"Curb-to-curb service within Salina city limits","confidence":0.95},"geometry":{"type":"MultiPolygon","coordinates":[[[[-97.70592,38.76917],[-97.687,38.76924],[-97.68705,38.75474],[-97.70599,38.75464],[-97.70592,38.76917]]],[[[-97.59467,38.76548],[-97.59465,38.76891],[-97.58909,38.76882],[-97.5891,38.76576],[-97.58963,38.76537],[-97.59467,38.76548]]],[[[-97.66842,38.79799],[-97.64991,38.79797],[-97.6497,38.81631],[-97.64666,38.81631],[-97.64667,38.81794],[-97.64528,38.81794],[-97.64525,38.8163],[-97.64039,38.81628],[-97.64046,38.81267],[-97.63603,38.81266],[-97.63618,38.80533],[-97.63442,38.80532],[-97.63436,38.8081],[-97.63283,38.8114],[-97.63509,38.8149],[-97.63901,38.82345],[-97.64047,38.82346],[-97.64047,38.82552],[-97.64507,38.8255],[-97.64506,38.82715],[-97.64506,38.82897],[-97.64065,38.82898],[-97.64066,38.83063],[-97.64235,38.83445],[-97.63094,38.83445],[-97.63087,38.84166],[-97.63083,38.84334],[-97.628,38.84421],[-97.62532,38.84437],[-97.62641,38.84484],[-97.62654,38.84528],[-97.6249,38.84707],[-97.62606,38.84763],[-97.62521,38.84844],[-97.62477,38.84874],[-97.62437,38.8489],[-97.62351,38.8489],[-97.62247,38.85113],[-97.62077,38.85127],[-97.61921,38.85351],[-97.61875,38.8587],[-97.61692,38.85745],[-97.61676,38.8598],[-97.61734,38.86064],[-97.61497,38.86078],[-97.61523,38.86173],[-97.61523,38.86337],[-97.61706,38.86336],[-97.61704,38.86712],[-97.61402,38.86708],[-97.61388,38.8707],[-97.61291,38.87371],[-97.61693,38.87382],[-97.61691,38.87596],[-97.62161,38.87599],[-97.62158,38.88148],[-97.61716,38.88144],[-97.61715,38.8852],[-97.61367,38.88518],[-97.61361,38.89252],[-97.61686,38.89252],[-97.61686,38.89614],[-97.61442,38.89649],[-97.61484,38.89482],[-97.61227,38.89375],[-97.61223,38.88935],[-97.60898,38.88639],[-97.60764,38.88751],[-97.60767,38.87798],[-97.60281,38.87783],[-97.6056,38.87679],[-97.60765,38.87653],[-97.60765,38.8736],[-97.60637,38.87437],[-97.603,38.87428],[-97.60301,38.87075],[-97.60586,38.87077],[-97.60771,38.86998],[-97.6078,38.86498],[-97.60664,38.86486],[-97.60664,38.86338],[-97.60322,38.86339],[-97.60326,38.85697],[-97.59402,38.85693],[-97.59385,38.86064],[-97.59005,38.86064],[-97.59002,38.86326],[-97.58504,38.86326],[-97.58505,38.85793],[-97.58788,38.85666],[-97.58628,38.85665],[-97.5863,38.85237],[-97.58577,38.85612],[-97.57843,38.85613],[-97.57989,38.85849],[-97.57678,38.85945],[-97.57579,38.85878],[-97.57581,38.85257],[-97.57463,38.8526],[-97.57465,38.85614],[-97.56193,38.85613],[-97.5644,38.85411],[-97.56527,38.85263],[-97.57581,38.85247],[-97.57581,38.85245],[-97.58045,38.85242],[-97.58047,38.85011],[-97.57797,38.85012],[-97.57797,38.84888],[-97.58049,38.84822],[-97.5858,38.84748],[-97.58604,38.84648],[-97.58475,38.84529],[-97.58223,38.84537],[-97.5824,38.84161],[-97.58076,38.84162],[-97.57733,38.84376],[-97.57587,38.84229],[-97.56748,38.8423],[-97.56747,38.84752],[-97.56579,38.8475],[-97.56583,38.84165],[-97.56572,38.84165],[-97.55746,38.84169],[-97.55753,38.83762],[-97.56328,38.8376],[-97.56364,38.83208],[-97.56416,38.8308],[-97.5576,38.83082],[-97.55768,38.82718],[-97.56222,38.82717],[-97.5624,38.81269],[-97.5577,38.81271],[-97.55767,38.80544],[-97.56113,38.80543],[-97.56111,38.80474],[-97.5602,38.80474],[-97.55767,38.80492],[-97.55764,38.79817],[-97.56692,38.79817],[-97.56698,38.80775],[-97.56894,38.80746],[-97.56896,38.81253],[-97.57567,38.8126],[-97.57566,38.80997],[-97.57408,38.80997],[-97.57407,38.8086],[-97.5762,38.8086],[-97.5762,38.80611],[-97.5815,38.80768],[-97.58153,38.80769],[-97.58427,38.80779],[-97.58368,38.80564],[-97.58343,38.80537],[-97.57884,38.79818],[-97.57505,38.79822],[-97.5701,38.79818],[-97.57011,38.79735],[-97.56747,38.79614],[-97.56821,38.79464],[-97.56723,38.7921],[-97.57093,38.79081],[-97.57204,38.7933],[-97.57325,38.79318],[-97.57262,38.79079],[-97.57606,38.79075],[-97.57903,38.79817],[-97.57951,38.79817],[-97.58019,38.79816],[-97.58078,38.79907],[-97.58039,38.79933],[-97.58392,38.79929],[-97.58391,38.79812],[-97.58599,38.7981],[-97.5865,38.7976],[-97.5865,38.79439],[-97.58388,38.79377],[-97.58862,38.79358],[-97.58977,38.79126],[-97.58938,38.79069],[-97.58532,38.7907],[-97.58537,38.78346],[-97.58994,38.78345],[-97.5902,38.78024],[-97.59449,38.7803],[-97.59451,38.77926],[-97.5852,38.77923],[-97.58517,38.77248],[-97.58979,38.77251],[-97.58974,38.77617],[-97.59455,38.7762],[-97.59465,38.76891],[-97.59952,38.76894],[-97.59952,38.77192],[-97.60366,38.77193],[-97.60365,38.76897],[-97.60388,38.76897],[-97.60394,38.76176],[-97.61308,38.76184],[-97.61307,38.76408],[-97.61751,38.76408],[-97.6182,38.76181],[-97.62683,38.7618],[-97.62678,38.76881],[-97.62224,38.76904],[-97.62176,38.76901],[-97.62003,38.76925],[-97.61857,38.77098],[-97.61784,38.77635],[-97.61792,38.77635],[-97.6178,38.77693],[-97.61998,38.77695],[-97.61999,38.77636],[-97.62333,38.77636],[-97.63148,38.77629],[-97.63144,38.76905],[-97.64082,38.76888],[-97.64097,38.77256],[-97.64575,38.77253],[-97.64575,38.76882],[-97.64591,38.76882],[-97.64592,38.77253],[-97.64995,38.7725],[-97.65035,38.77126],[-97.66387,38.77155],[-97.66386,38.77275],[-97.66598,38.77521],[-97.66597,38.77644],[-97.66835,38.77649],[-97.66835,38.77689],[-97.66854,38.7837],[-97.66845,38.78901],[-97.67089,38.79093],[-97.67769,38.79098],[-97.67769,38.79809],[-97.67531,38.79821],[-97.67528,38.80061],[-97.66829,38.80058],[-97.66842,38.79799]],[[-97.60381,38.7799],[-97.61246,38.77998],[-97.61248,38.77744],[-97.6116,38.77633],[-97.61248,38.77634],[-97.61247,38.77467],[-97.61274,38.77256],[-97.61276,38.76903],[-97.6044,38.76897],[-97.60388,38.76897],[-97.60381,38.7799]],[[-97.61739,38.78736],[-97.61736,38.79341],[-97.6222,38.79343],[-97.62219,38.79695],[-97.62402,38.79696],[-97.62402,38.79791],[-97.62215,38.7981],[-97.62171,38.80176],[-97.62873,38.80744],[-97.63015,38.80536],[-97.63131,38.80537],[-97.63131,38.79089],[-97.62339,38.7909],[-97.62405,38.78915],[-97.62398,38.78742],[-97.61739,38.78736]],[[-97.58279,38.81157],[-97.58135,38.81187],[-97.57883,38.81471],[-97.57868,38.81855],[-97.58025,38.82204],[-97.58293,38.8235],[-97.58647,38.82341],[-97.58229,38.8182],[-97.58243,38.81431],[-97.5839,38.8116],[-97.58279,38.81157]]],[[[-97.64023,38.84349],[-97.63868,38.84345],[-97.63867,38.8417],[-97.64023,38.84168],[-97.64023,38.84349]]],[[[-97.56701,38.85038],[-97.56713,38.85047],[-97.56749,38.85074],[-97.56666,38.85233],[-97.56529,38.85234],[-97.56579,38.85141],[-97.56701,38.85038]]],[[[-97.62718,38.85072],[-97.62885,38.85073],[-97.63011,38.85264],[-97.63004,38.85614],[-97.62252,38.85616],[-97.62242,38.85253],[-97.62717,38.85253],[-97.62718,38.85072]]],[[[-97.59384,38.86326],[-97.59204,38.86326],[-97.59205,38.86228],[-97.59384,38.86226],[-97.59384,38.86326]]],[[[-97.58859,38.88434],[-97.58879,38.87422],[-97.59128,38.87303],[-97.59375,38.87306],[-97.59837,38.87348],[-97.59837,38.87933],[-97.59602,38.88045],[-97.59422,38.88083],[-97.59422,38.88088],[-97.58859,38.88434]]]]}},{"type":"Feature","properties":{"name":"Reno County Area Transit (RCAT) Demand Response","boundary_type":"places","source":"Census TIGER place","fidelity":"exact","updated":"2026-09","units":"Hutchinson city; South Hutchinson city","note":"Door-to-door service in Hutchinson and South Hutchinson in Reno County","confidence":0.85},"geometry":{"type":"MultiPolygon","coordinates":[[[[-97.95854,38.04277],[-97.951,38.0427],[-97.94598,38.04168],[-97.94172,38.0424],[-97.93932,38.04189],[-97.93802,38.04145],[-97.93657,38.04024],[-97.93545,38.03896],[-97.93147,38.03618],[-97.92969,38.03017],[-97.92627,38.02625],[-97.92632,38.02309],[-97.92749,38.02309],[-97.9275,38.02119],[-97.92945,38.01964],[-97.92331,38.01489],[-97.92204,38.01345],[-97.92198,38.01275],[-97.93045,38.01305],[-97.93984,38.01288],[-97.94021,38.01109],[-97.94045,38.00634],[-97.94185,38.00634],[-97.9418,38.00774],[-97.9439,38.00774],[-97.94384,38.00963],[-97.94281,38.00963],[-97.94275,38.01111],[-97.94523,38.01114],[-97.94528,38.0148],[-97.94465,38.02062],[-97.94896,38.02064],[-97.94902,38.02433],[-97.954,38.02433],[-97.95406,38.02794],[-97.96778,38.02803],[-97.96774,38.03233],[-97.95861,38.0323],[-97.95854,38.04277]]],[[[-97.95899,38.0795],[-97.9589,38.0864],[-97.95945,38.0928],[-97.95046,38.09288],[-97.94762,38.09289],[-97.94764,38.09362],[-97.94776,38.10023],[-97.94644,38.10024],[-97.94434,38.10025],[-97.94331,38.10025],[-97.94327,38.10077],[-97.94277,38.10077],[-97.94279,38.10026],[-97.94094,38.10026],[-97.93149,38.10062],[-97.93143,38.09688],[-97.92205,38.09731],[-97.92204,38.10107],[-97.92204,38.10358],[-97.91989,38.10288],[-97.91989,38.10108],[-97.9181,38.10108],[-97.91806,38.10835],[-97.91293,38.10836],[-97.91298,38.10107],[-97.90724,38.10105],[-97.90705,38.09417],[-97.90378,38.09417],[-97.90379,38.09379],[-97.89453,38.09379],[-97.89456,38.10105],[-97.89455,38.10476],[-97.89192,38.10474],[-97.89194,38.10204],[-97.8931,38.10203],[-97.89311,38.10105],[-97.89229,38.10104],[-97.88538,38.10103],[-97.88536,38.10715],[-97.88373,38.10715],[-97.88372,38.10835],[-97.87327,38.10834],[-97.87331,38.10104],[-97.87525,38.10104],[-97.87618,38.10104],[-97.87617,38.09748],[-97.87542,38.09748],[-97.87376,38.09746],[-97.87491,38.09565],[-97.87587,38.09567],[-97.87616,38.09485],[-97.87543,38.09377],[-97.87616,38.0926],[-97.87617,38.08958],[-97.87616,38.0865],[-97.86699,38.08652],[-97.867,38.09652],[-97.86507,38.0971],[-97.86392,38.09511],[-97.86393,38.09378],[-97.8597,38.0938],[-97.85325,38.09743],[-97.85386,38.09733],[-97.85277,38.10106],[-97.85264,38.09941],[-97.85083,38.09919],[-97.85045,38.09904],[-97.84863,38.10002],[-97.84854,38.09379],[-97.85727,38.0938],[-97.85672,38.09224],[-97.85711,38.08656],[-97.85555,38.08656],[-97.85467,38.08386],[-97.85775,38.08385],[-97.85771,38.08656],[-97.86005,38.08655],[-97.86008,38.08199],[-97.86169,38.08199],[-97.86171,38.07936],[-97.867,38.07941],[-97.86699,38.07731],[-97.85666,38.07724],[-97.8567,38.07252],[-97.85271,38.07249],[-97.84856,38.07633],[-97.84601,38.07363],[-97.84595,38.07203],[-97.8486,38.0699],[-97.84959,38.05756],[-97.84856,38.05755],[-97.84854,38.05436],[-97.85332,38.05437],[-97.8536,38.05601],[-97.85767,38.05602],[-97.85765,38.05022],[-97.86376,38.05029],[-97.86661,38.0527],[-97.86656,38.05691],[-97.866,38.05763],[-97.86687,38.05764],[-97.86686,38.0563],[-97.86705,38.05037],[-97.86687,38.04301],[-97.87602,38.04307],[-97.87604,38.02869],[-97.8853,38.02873],[-97.88532,38.03582],[-97.883,38.03581],[-97.88301,38.03966],[-97.88533,38.03968],[-97.88534,38.04314],[-97.8946,38.04312],[-97.89457,38.03942],[-97.90146,38.03944],[-97.90145,38.03573],[-97.90141,38.02859],[-97.89969,38.02888],[-97.89293,38.02872],[-97.89293,38.02547],[-97.89446,38.02388],[-97.90148,38.02386],[-97.90183,38.0257],[-97.90601,38.02584],[-97.906,38.02497],[-97.906,38.02484],[-97.90713,38.02485],[-97.90791,38.02485],[-97.90831,38.02485],[-97.90868,38.02485],[-97.91124,38.0211],[-97.91314,38.01844],[-97.91353,38.01831],[-97.91824,38.02011],[-97.92245,38.02397],[-97.92434,38.02567],[-97.92647,38.02826],[-97.92711,38.02915],[-97.92908,38.03206],[-97.93046,38.03634],[-97.93263,38.03909],[-97.93963,38.04325],[-97.94291,38.04316],[-97.94693,38.0425],[-97.94963,38.0433],[-97.9497,38.05173],[-97.95081,38.05289],[-97.95532,38.05354],[-97.96306,38.05358],[-97.96554,38.05355],[-97.96559,38.06675],[-97.96547,38.07294],[-97.96593,38.07883],[-97.959,38.07894],[-97.95899,38.0795]],[[-97.85259,38.09927],[-97.85299,38.09911],[-97.85321,38.09766],[-97.85305,38.09753],[-97.85049,38.09896],[-97.85259,38.09927]]]]}},{"type":"Feature","properties":{"name":"RideKC Micro Transit (Johnson County)","boundary_type":"zone_approx","source":"Manual approximation","fidelity":"approximate","updated":"2026-09","units":"buffer 8.12 km @ 38.9822,-94.6708; clipped to Johnson County","note":"Approximately 80-square-mile microtransit zone covering Downtown Overland Park, Mission Transit Center, and KU Edwards Campus; radius_km = sqrt(80*2.59/pi) = 8.12, clipped to Johnson County. Source: https://www.jocogov.org/department/transit-ridekc-johnson-county/micro-transit","confidence":0.7},"geometry":{"type":"Polygon","coordinates":[[[-94.61048,39.03808],[-94.60762,39.03604],[-94.60765,39.03423],[-94.60765,39.03422],[-94.60766,39.03336],[-94.60769,39.03077],[-94.60772,39.02835],[-94.60782,39.02109],[-94.6079,39.01517],[-94.60791,39.01392],[-94.60793,39.01278],[-94.60799,39.00786],[-94.60809,39.00055],[-94.60809,39.00018],[-94.60809,39.00014],[-94.60819,38.99301],[-94.60826,38.98762],[-94.60828,38.98563],[-94.6083,38.98435],[-94.60833,38.98181],[-94.60832,38.97872],[-94.6083,38.9747],[-94.60826,38.9675],[-94.60821,38.95673],[-94.60821,38.95672],[-94.60817,38.94932],[-94.60813,38.94207],[-94.60813,38.94201],[-94.60813,38.94001],[-94.60787,38.9374],[-94.60793,38.93711],[-94.60798,38.93687],[-94.60798,38.93685],[-94.60798,38.93513],[-94.60799,38.92924],[-94.60799,38.9281],[-94.61048,38.92632],[-94.61698,38.92245],[-94.62388,38.91903],[-94.63114,38.91609],[-94.63871,38.91366],[-94.64651,38.91174],[-94.65451,38.91037],[-94.66262,38.90953],[-94.6708,38.90926],[-94.67898,38.90953],[-94.68709,38.91037],[-94.69509,38.91174],[-94.70289,38.91366],[-94.71046,38.91609],[-94.71772,38.91903],[-94.72462,38.92245],[-94.73112,38.92632],[-94.73715,38.93062],[-94.74268,38.93531],[-94.74767,38.94036],[-94.75206,38.94573],[-94.75584,38.95137],[-94.75898,38.95725],[-94.76144,38.96332],[-94.76321,38.96953],[-94.76428,38.97584],[-94.76464,38.9822],[-94.76428,38.98856],[-94.76321,38.99487],[-94.76144,39.00108],[-94.75898,39.00715],[-94.75584,39.01303],[-94.75206,39.01867],[-94.74767,39.02404],[-94.74268,39.02909],[-94.73715,39.03378],[-94.73112,39.03808],[-94.72462,39.04195],[-94.72048,39.044],[-94.71454,39.044],[-94.70528,39.04399],[-94.70053,39.04404],[-94.69819,39.04402],[-94.69162,39.04405],[-94.6865,39.04405],[-94.67592,39.04407],[-94.66894,39.04407],[-94.66777,39.04407],[-94.66704,39.04407],[-94.65884,39.04404],[-94.6561,39.04403],[-94.64914,39.04403],[-94.64907,39.04403],[-94.64387,39.04404],[-94.64378,39.04404],[-94.63873,39.04385],[-94.63761,39.04406],[-94.62983,39.04408],[-94.62822,39.04407],[-94.62124,39.04406],[-94.61698,39.04195],[-94.61048,39.03808]]]}},{"type":"Feature","properties":{"name":"RideKC On-Demand (Wyandotte County / IRIS)","boundary_type":"county","source":"Census TIGER county","fidelity":"approximate","updated":"2026-09","units":"Wyandotte County","note":"Multiple zones in Wyandotte County (Midtown KCK to Legends, Southwest Edwardsville, Northeast) without stated sizes; represented as county-level approximation","confidence":0.65},"geometry":{"type":"Polygon","coordinates":[[[-94.9088,39.05793],[-94.90874,39.09025],[-94.90874,39.09038],[-94.90874,39.09081],[-94.90872,39.09329],[-94.90847,39.11571],[-94.90846,39.116],[-94.90839,39.12232],[-94.90827,39.12865],[-94.90139,39.12869],[-94.90086,39.14315],[-94.90083,39.15783],[-94.90068,39.17237],[-94.90054,39.18694],[-94.90048,39.2015],[-94.90045,39.20199],[-94.90019,39.20291],[-94.8631,39.20226],[-94.84697,39.20205],[-94.81869,39.20162],[-94.81341,39.20144],[-94.78907,39.20124],[-94.77724,39.201],[-94.77554,39.2006],[-94.77107,39.19149],[-94.77106,39.19148],[-94.77094,39.19122],[-94.77072,39.19078],[-94.77034,39.19],[-94.76314,39.1799],[-94.75234,39.1732],[-94.74194,39.1702],[-94.74193,39.1702],[-94.73654,39.1692],[-94.72364,39.169],[-94.71414,39.1704],[-94.69633,39.17856],[-94.69617,39.17865],[-94.68724,39.1835],[-94.68034,39.1843],[-94.66913,39.182],[-94.66383,39.1791],[-94.6594,39.17438],[-94.65916,39.17413],[-94.66031,39.16805],[-94.6614,39.16274],[-94.65921,39.15784],[-94.65579,39.15568],[-94.65078,39.15412],[-94.65073,39.1541],[-94.63978,39.15371],[-94.62393,39.1566],[-94.62357,39.15676],[-94.61583,39.16],[-94.60866,39.16104],[-94.60173,39.1596],[-94.59603,39.1577],[-94.59066,39.15477],[-94.58841,39.14987],[-94.5899,39.13898],[-94.59253,39.1359],[-94.60043,39.1285],[-94.60573,39.1222],[-94.60829,39.11794],[-94.60735,39.11344],[-94.60733,39.10892],[-94.60728,39.0985],[-94.60723,39.08971],[-94.60723,39.0896],[-94.60732,39.08247],[-94.60733,39.0817],[-94.60733,39.08169],[-94.6073,39.07581],[-94.60728,39.07245],[-94.60728,39.07231],[-94.60723,39.0657],[-94.60728,39.06191],[-94.60734,39.05734],[-94.60738,39.05437],[-94.60744,39.05024],[-94.60749,39.04645],[-94.60752,39.04409],[-94.6119,39.04408],[-94.62122,39.04406],[-94.62822,39.04407],[-94.62983,39.04408],[-94.63761,39.04406],[-94.63873,39.04385],[-94.64378,39.04404],[-94.64387,39.04404],[-94.64907,39.04403],[-94.64914,39.04403],[-94.6561,39.04403],[-94.65884,39.04404],[-94.66704,39.04407],[-94.66777,39.04407],[-94.66894,39.04407],[-94.67592,39.04407],[-94.6865,39.04405],[-94.69162,39.04405],[-94.69819,39.04402],[-94.70053,39.04404],[-94.70528,39.04399],[-94.71454,39.044],[-94.72389,39.044],[-94.72849,39.04399],[-94.75707,39.04372],[-94.75875,39.04369],[-94.77971,39.04372],[-94.78826,39.04379],[-94.78918,39.04361],[-94.78961,39.0436],[-94.79153,39.04357],[-94.80093,39.04351],[-94.80333,39.04352],[-94.80702,39.04519],[-94.81607,39.04854],[-94.82048,39.05023],[-94.82171,39.05104],[-94.82934,39.05544],[-94.83414,39.05781],[-94.83928,39.05995],[-94.84248,39.06092],[-94.84526,39.06134],[-94.84872,39.06132],[-94.84907,39.06131],[-94.85441,39.06135],[-94.86276,39.06085],[-94.86775,39.06019],[-94.87172,39.05932],[-94.87642,39.05714],[-94.87914,39.05492],[-94.88357,39.05069],[-94.88435,39.04823],[-94.88604,39.04152],[-94.88841,39.03616],[-94.88963,39.03418],[-94.89114,39.03068],[-94.89111,39.02685],[-94.89013,39.02316],[-94.8884,39.02024],[-94.88843,39.01614],[-94.88955,39.01426],[-94.8948,39.00727],[-94.90351,38.99763],[-94.90876,38.9914],[-94.90884,39.04096],[-94.90883,39.04342],[-94.9088,39.05793]]]}},{"type":"Feature","properties":{"name":"RideLV Micro Transit","boundary_type":"city","source":"Census TIGER place","fidelity":"approximate","updated":"2026-09","units":"Leavenworth city","note":"Primarily Leavenworth city limits with extensions to four addresses in Lansing, KS (Progress Drive; W. Eisenhower Rd/DaVita Dialysis; First Terrace)","confidence":0.75},"geometry":{"type":"MultiPolygon","coordinates":[[[[-94.89094,39.23551],[-94.8922,39.23284],[-94.89204,39.23062],[-94.89659,39.23063],[-94.8966,39.23351],[-94.8983,39.23351],[-94.8969,39.2354],[-94.89523,39.23661],[-94.89094,39.23551]]],[[[-94.96093,39.29576],[-94.95662,39.29579],[-94.95567,39.29712],[-94.95563,39.30133],[-94.95559,39.3029],[-94.95539,39.31024],[-94.95538,39.31748],[-94.96293,39.31745],[-94.96304,39.31745],[-94.96302,39.3203],[-94.96304,39.32106],[-94.95666,39.32103],[-94.95535,39.32243],[-94.95531,39.32685],[-94.9586,39.32671],[-94.96086,39.32776],[-94.95785,39.33181],[-94.95028,39.34167],[-94.94977,39.34066],[-94.94761,39.33733],[-94.94651,39.33782],[-94.94926,39.34176],[-94.94641,39.34399],[-94.9476,39.34496],[-94.94367,39.35034],[-94.9458,39.35035],[-94.94578,39.35822],[-94.9456,39.37543],[-94.93836,39.37558],[-94.9383,39.37697],[-94.93833,39.3834],[-94.9382,39.38711],[-94.93716,39.38653],[-94.93365,39.38555],[-94.92311,39.38449],[-94.91922,39.38517],[-94.91586,39.38635],[-94.90958,39.38887],[-94.90182,39.3928],[-94.89512,39.39355],[-94.89237,39.39185],[-94.88687,39.39103],[-94.88503,39.3898],[-94.88296,39.38678],[-94.88098,39.3839],[-94.88023,39.38208],[-94.87928,39.37978],[-94.87909,39.3757],[-94.88136,39.37038],[-94.88522,39.36691],[-94.89093,39.36403],[-94.89683,39.36313],[-94.89902,39.36243],[-94.9025,39.36038],[-94.9073,39.35673],[-94.90941,39.35426],[-94.91002,39.35254],[-94.91016,39.35155],[-94.91064,39.34833],[-94.9098,39.34033],[-94.9087,39.32973],[-94.90822,39.32512],[-94.90871,39.3196],[-94.90757,39.31484],[-94.90749,39.3145],[-94.90714,39.31306],[-94.90642,39.31167],[-94.90533,39.31195],[-94.90314,39.30627],[-94.90086,39.3018],[-94.90072,39.30152],[-94.90005,39.30019],[-94.89522,39.29421],[-94.88994,39.28921],[-94.89032,39.28879],[-94.88407,39.27925],[-94.88241,39.27618],[-94.8818,39.27418],[-94.8904,39.27421],[-94.89046,39.27265],[-94.89047,39.27055],[-94.89624,39.27059],[-94.89596,39.26693],[-94.89824,39.26695],[-94.89985,39.26697],[-94.89984,39.2673],[-94.89983,39.26869],[-94.90139,39.2687],[-94.90137,39.26696],[-94.91858,39.26678],[-94.93271,39.26672],[-94.93277,39.25945],[-94.93721,39.25944],[-94.93746,39.2595],[-94.9374,39.26674],[-94.93816,39.26673],[-94.93819,39.26559],[-94.94033,39.26563],[-94.94032,39.26674],[-94.94568,39.26676],[-94.94567,39.26538],[-94.9475,39.26541],[-94.94687,39.26675],[-94.95618,39.26676],[-94.95612,39.27407],[-94.9586,39.27405],[-94.96168,39.27202],[-94.96275,39.27325],[-94.96277,39.274],[-94.96315,39.274],[-94.96303,39.28123],[-94.95595,39.28132],[-94.95343,39.28135],[-94.95338,39.28623],[-94.95477,39.28623],[-94.95473,39.28854],[-94.95587,39.28851],[-94.9652,39.28843],[-94.96504,39.29503],[-94.9617,39.29503],[-94.96093,39.29576]],[[-94.95055,39.28852],[-94.95268,39.28854],[-94.95272,39.28623],[-94.95053,39.28622],[-94.95055,39.28852]]]]}}]}