{"type":"FeatureCollection","features":[{"type":"Feature","properties":{"name":"Murray-Calloway Transit Authority On Demand","boundary_type":"county","source":"Census TIGER county","fidelity":"approximate","updated":"2026-09","units":"Calloway County; Murray city","note":"Service branded 'City and County On Demand'; covers both Murray and Calloway County areas.","confidence":0.85},"geometry":{"type":"Polygon","coordinates":[[[-88.48703,36.6589],[-88.48646,36.69905],[-88.4857,36.75033],[-88.44971,36.7507],[-88.43133,36.74977],[-88.41357,36.75067],[-88.39518,36.75024],[-88.29944,36.75003],[-88.29721,36.75002],[-88.29418,36.75],[-88.27591,36.74993],[-88.24956,36.74971],[-88.2366,36.74975],[-88.2332,36.74987],[-88.22337,36.75005],[-88.14929,36.74863],[-88.14559,36.7485],[-88.13611,36.74866],[-88.12511,36.74778],[-88.1132,36.74629],[-88.11083,36.74715],[-88.10404,36.73577],[-88.10116,36.73197],[-88.09048,36.72046],[-88.08815,36.71826],[-88.08598,36.71565],[-88.08064,36.70762],[-88.07814,36.70273],[-88.07347,36.69168],[-88.07208,36.68769],[-88.07053,36.67812],[-88.06821,36.65975],[-88.0644,36.65085],[-88.05858,36.64332],[-88.05704,36.64054],[-88.0556,36.63571],[-88.05565,36.63377],[-88.05574,36.63047],[-88.04513,36.60294],[-88.0412,36.58412],[-88.03962,36.57278],[-88.03562,36.56174],[-88.0338,36.55173],[-88.03249,36.54066],[-88.03413,36.53112],[-88.03585,36.52591],[-88.03727,36.52378],[-88.03783,36.52101],[-88.03733,36.51783],[-88.03782,36.51385],[-88.03948,36.51041],[-88.0453,36.50408],[-88.05047,36.50005],[-88.0532,36.49713],[-88.05329,36.49713],[-88.08822,36.4978],[-88.12738,36.49854],[-88.13773,36.49864],[-88.17606,36.49902],[-88.30932,36.50032],[-88.32079,36.50043],[-88.32093,36.50043],[-88.32589,36.50048],[-88.32606,36.50048],[-88.33039,36.50053],[-88.3308,36.50053],[-88.41636,36.50076],[-88.43011,36.5009],[-88.45016,36.5011],[-88.45254,36.50087],[-88.47256,36.50103],[-88.48908,36.50107],[-88.48811,36.58906],[-88.4877,36.61193],[-88.48703,36.6589]]]}},{"type":"Feature","properties":{"name":"TANK Plus","boundary_type":"county","source":"Census TIGER county","fidelity":"approximate","updated":"2026-09","units":"Campbell County","note":"Zone 1 pilot within Campbell County; service may represent a subset of the full county. Pickup within 30 minutes.","confidence":0.65},"geometry":{"type":"Polygon","coordinates":[[[-84.50206,39.09664],[-84.502,39.09668],[-84.4986,39.09891],[-84.49654,39.10026],[-84.49583,39.10082],[-84.49374,39.10246],[-84.49355,39.10272],[-84.49243,39.10428],[-84.48774,39.11076],[-84.48481,39.11335],[-84.48094,39.11676],[-84.47624,39.11916],[-84.47614,39.1192],[-84.47054,39.12146],[-84.4631,39.12172],[-84.46204,39.12176],[-84.45534,39.12036],[-84.44979,39.11775],[-84.44567,39.11477],[-84.44524,39.11446],[-84.44075,39.10977],[-84.44064,39.10966],[-84.44024,39.10908],[-84.43586,39.10272],[-84.43554,39.10226],[-84.43284,39.09426],[-84.43394,39.09246],[-84.43463,39.08693],[-84.43464,39.08686],[-84.43294,39.08396],[-84.43264,39.07826],[-84.43267,39.07792],[-84.43314,39.07296],[-84.43313,39.0729],[-84.43234,39.06756],[-84.42984,39.05826],[-84.42945,39.05759],[-84.42874,39.05638],[-84.42791,39.05496],[-84.42573,39.05306],[-84.42457,39.05248],[-84.42394,39.05217],[-84.42161,39.05101],[-84.42148,39.05094],[-84.42147,39.05094],[-84.40694,39.04566],[-84.40254,39.04566],[-84.40094,39.04636],[-84.39669,39.04567],[-84.39414,39.04526],[-84.38942,39.0452],[-84.38684,39.04516],[-84.37121,39.04291],[-84.36136,39.04149],[-84.36044,39.04136],[-84.34604,39.03696],[-84.33638,39.03288],[-84.33634,39.03286],[-84.33509,39.03218],[-84.32654,39.02746],[-84.31994,39.02208],[-84.31368,39.01698],[-84.3047,39.00646],[-84.30282,39.00277],[-84.29936,38.99598],[-84.29771,38.99105],[-84.29725,38.98969],[-84.29647,38.98531],[-84.29621,38.98214],[-84.29533,38.97138],[-84.29508,38.96829],[-84.28816,38.95579],[-84.28418,38.95066],[-84.27992,38.94517],[-84.27876,38.94433],[-84.27491,38.94151],[-84.26191,38.92777],[-84.2608,38.92659],[-84.25701,38.92321],[-84.24565,38.90703],[-84.24269,38.90319],[-84.24015,38.90091],[-84.23445,38.89323],[-84.23234,38.88432],[-84.23213,38.88048],[-84.23191,38.87483],[-84.26417,38.86185],[-84.32467,38.83755],[-84.36275,38.82223],[-84.38739,38.81232],[-84.39073,38.81317],[-84.39278,38.81284],[-84.39677,38.81102],[-84.40218,38.80781],[-84.4052,38.8064],[-84.4081,38.80586],[-84.41029,38.80579],[-84.41818,38.80662],[-84.42087,38.8082],[-84.42021,38.80965],[-84.41849,38.8101],[-84.41746,38.81194],[-84.41803,38.815],[-84.41982,38.81723],[-84.42082,38.82176],[-84.42161,38.82393],[-84.42474,38.82653],[-84.42715,38.82792],[-84.43031,38.82855],[-84.43273,38.82814],[-84.43586,38.82686],[-84.43844,38.82469],[-84.44149,38.81896],[-84.44233,38.81784],[-84.44502,38.81698],[-84.44751,38.81734],[-84.44992,38.81874],[-84.45151,38.82034],[-84.45332,38.82804],[-84.45274,38.83196],[-84.4527,38.83579],[-84.45311,38.83804],[-84.45403,38.83964],[-84.45879,38.84361],[-84.46203,38.84717],[-84.46384,38.85095],[-84.4634,38.85206],[-84.45704,38.85629],[-84.45243,38.85844],[-84.44943,38.86129],[-84.44959,38.86281],[-84.45178,38.86446],[-84.45271,38.86629],[-84.45096,38.86907],[-84.44888,38.87222],[-84.44777,38.87506],[-84.44493,38.88055],[-84.44332,38.88606],[-84.44302,38.88905],[-84.44167,38.89273],[-84.43965,38.89726],[-84.43978,38.90051],[-84.43891,38.90488],[-84.43937,38.90666],[-84.44084,38.90716],[-84.44162,38.90771],[-84.44463,38.91174],[-84.4439,38.9159],[-84.44663,38.91785],[-84.44864,38.92077],[-84.45057,38.92487],[-84.4519,38.92898],[-84.45617,38.93467],[-84.4594,38.93785],[-84.46011,38.93887],[-84.46344,38.9465],[-84.46322,38.94847],[-84.46175,38.94945],[-84.45901,38.94972],[-84.44941,38.94987],[-84.4474,38.95051],[-84.44537,38.95232],[-84.44301,38.95536],[-84.44192,38.95991],[-84.43993,38.96327],[-84.43781,38.96606],[-84.43509,38.96832],[-84.42987,38.97318],[-84.42849,38.9751],[-84.42694,38.97835],[-84.42728,38.98086],[-84.43085,38.9835],[-84.4347,38.98524],[-84.43738,38.98519],[-84.44037,38.98442],[-84.44601,38.98059],[-84.45019,38.97563],[-84.45104,38.9737],[-84.45284,38.9677],[-84.4548,38.96546],[-84.45787,38.96503],[-84.45933,38.96529],[-84.46245,38.96671],[-84.46364,38.96756],[-84.46528,38.96983],[-84.4664,38.9724],[-84.46657,38.97434],[-84.46587,38.97772],[-84.46488,38.98004],[-84.46164,38.98391],[-84.45295,38.9912],[-84.4508,38.99361],[-84.45062,38.99642],[-84.45221,38.99864],[-84.45441,39.0001],[-84.46206,39.00363],[-84.46396,39.00408],[-84.46976,39.00427],[-84.47333,39.00451],[-84.47545,39.00618],[-84.47887,39.00967],[-84.48115,39.013],[-84.48524,39.0154],[-84.4892,39.02122],[-84.4893,39.02286],[-84.48984,39.02562],[-84.49005,39.03075],[-84.48945,39.03258],[-84.48769,39.0365],[-84.4853,39.0398],[-84.48522,39.04102],[-84.48812,39.04591],[-84.49316,39.04939],[-84.49481,39.05158],[-84.49721,39.05515],[-84.49761,39.05631],[-84.49774,39.05853],[-84.49556,39.06298],[-84.49435,39.06686],[-84.49384,39.06825],[-84.49322,39.07063],[-84.49382,39.07263],[-84.49644,39.07538],[-84.49777,39.07693],[-84.49855,39.07809],[-84.49968,39.07962],[-84.50017,39.08023],[-84.50154,39.08184],[-84.50437,39.08585],[-84.50459,39.08805],[-84.50405,39.08927],[-84.50338,39.09088],[-84.50333,39.09151],[-84.50608,39.09508],[-84.50206,39.09664]]]}}]}