{"type":"FeatureCollection","features":[{"type":"Feature","properties":{"name":"LYNX Microtransit (CATS LYNX)","boundary_type":"city","source":"Census TIGER place","fidelity":"approximate","updated":"2026-09","units":"Baker city","note":"Service zone in Baker; operator is county transit agency (CATS). CATS also runs 'CATS on Demand' whose relationship to LYNX is unclear; scoped to LYNX microtransit only.","confidence":0.8},"geometry":{"type":"MultiPolygon","coordinates":[[[[-91.18356,30.57598],[-91.1818,30.58556],[-91.18193,30.58923],[-91.18539,30.58966],[-91.18533,30.59002],[-91.18574,30.59009],[-91.18577,30.58971],[-91.18708,30.58987],[-91.18441,30.60579],[-91.18426,30.60679],[-91.17567,30.6061],[-91.17572,30.6054],[-91.17568,30.60182],[-91.17273,30.60132],[-91.17195,30.60002],[-91.16973,30.60011],[-91.17126,30.5961],[-91.16693,30.59572],[-91.16603,30.60041],[-91.167,30.6005],[-91.16752,30.60114],[-91.16754,30.60739],[-91.17073,30.60881],[-91.17052,30.61109],[-91.17141,30.6122],[-91.16754,30.6122],[-91.16754,30.61003],[-91.16573,30.61149],[-91.16385,30.6116],[-91.16337,30.61167],[-91.16185,30.61207],[-91.16293,30.60495],[-91.1589,30.60471],[-91.15879,30.60626],[-91.14829,30.6058],[-91.14867,30.60259],[-91.14716,30.60269],[-91.14712,30.59895],[-91.14157,30.59994],[-91.14004,30.59943],[-91.13991,30.5993],[-91.1399,30.59909],[-91.14001,30.59883],[-91.14031,30.59863],[-91.14059,30.5986],[-91.14097,30.59872],[-91.14119,30.59872],[-91.14132,30.5986],[-91.1413,30.59805],[-91.14135,30.59799],[-91.14191,30.59807],[-91.14327,30.597],[-91.14239,30.59697],[-91.14227,30.59669],[-91.14279,30.59639],[-91.14366,30.59651],[-91.14407,30.59621],[-91.14398,30.59577],[-91.14375,30.59569],[-91.14284,30.59588],[-91.14267,30.59544],[-91.14721,30.59569],[-91.14694,30.59401],[-91.14374,30.59402],[-91.14271,30.59375],[-91.14268,30.59357],[-91.14262,30.59321],[-91.14265,30.59286],[-91.14279,30.59265],[-91.14315,30.59259],[-91.14356,30.59268],[-91.14387,30.59373],[-91.14731,30.59374],[-91.1474,30.58937],[-91.14619,30.59073],[-91.14523,30.58912],[-91.14446,30.59039],[-91.14334,30.58929],[-91.13959,30.58908],[-91.13727,30.58933],[-91.13928,30.58825],[-91.13835,30.58762],[-91.13703,30.58862],[-91.13251,30.58854],[-91.12893,30.58798],[-91.12801,30.58381],[-91.12689,30.58364],[-91.1268,30.58622],[-91.12552,30.58511],[-91.12549,30.58502],[-91.12612,30.58257],[-91.12427,30.58141],[-91.12477,30.57942],[-91.12414,30.57929],[-91.12256,30.57924],[-91.12292,30.57751],[-91.12449,30.57664],[-91.12511,30.57204],[-91.12865,30.57281],[-91.12903,30.57166],[-91.12361,30.57164],[-91.12366,30.57261],[-91.11623,30.57271],[-91.11477,30.57253],[-91.11535,30.56497],[-91.12095,30.56485],[-91.12104,30.56657],[-91.12795,30.56638],[-91.12804,30.56968],[-91.12962,30.56969],[-91.13068,30.56629],[-91.1278,30.56624],[-91.12851,30.56509],[-91.13105,30.5651],[-91.13056,30.56231],[-91.13198,30.56231],[-91.13305,30.55879],[-91.1334,30.55864],[-91.13928,30.55843],[-91.13928,30.55856],[-91.14615,30.55843],[-91.14916,30.55894],[-91.15134,30.55892],[-91.1513,30.55687],[-91.15453,30.55689],[-91.15454,30.55889],[-91.1573,30.55888],[-91.15757,30.5748],[-91.15756,30.57541],[-91.16706,30.57533],[-91.16706,30.57523],[-91.17059,30.57515],[-91.17223,30.56665],[-91.17298,30.56444],[-91.17332,30.5627],[-91.17727,30.56199],[-91.1847,30.56185],[-91.18457,30.56729],[-91.18701,30.5677],[-91.19097,30.5677],[-91.19058,30.57496],[-91.19035,30.5756],[-91.18356,30.57598]],[[-91.17428,30.56525],[-91.17502,30.56569],[-91.17583,30.56626],[-91.176,30.56642],[-91.17654,30.56623],[-91.17647,30.56517],[-91.1744,30.56518],[-91.17428,30.56525]],[[-91.14543,30.55845],[-91.13366,30.55887],[-91.13451,30.56017],[-91.13323,30.56004],[-91.13261,30.5621],[-91.13623,30.56191],[-91.13635,30.56263],[-91.1323,30.56307],[-91.13121,30.56632],[-91.13912,30.5663],[-91.1391,30.56788],[-91.13175,30.56813],[-91.1316,30.56941],[-91.13028,30.56963],[-91.13883,30.56942],[-91.13884,30.56812],[-91.14393,30.5681],[-91.14399,30.57157],[-91.14046,30.57156],[-91.13908,30.57215],[-91.13797,30.57218],[-91.13805,30.57546],[-91.14187,30.57543],[-91.14188,30.57291],[-91.14334,30.57289],[-91.14337,30.57541],[-91.1463,30.57538],[-91.14626,30.57263],[-91.14756,30.57262],[-91.14726,30.55979],[-91.14615,30.55981],[-91.14543,30.55845]],[[-91.12964,30.57154],[-91.12948,30.57222],[-91.13363,30.57139],[-91.13364,30.57115],[-91.13115,30.57173],[-91.12964,30.57154]]],[[[-91.12303,30.58652],[-91.12465,30.58604],[-91.12382,30.5883],[-91.12289,30.58804],[-91.12272,30.58753],[-91.12303,30.58652]]],[[[-91.19364,30.58737],[-91.19307,30.59061],[-91.18708,30.58987],[-91.18745,30.58661],[-91.19364,30.58737]]]]}},{"type":"Feature","properties":{"name":"Move Metairie On-Demand Zone","boundary_type":"county","source":"Census TIGER county","fidelity":"approximate","updated":"2026-09","units":"Jefferson Parish","note":"Service limited to Metairie Road District within Jefferson Parish; Metairie is not an incorporated city but a community within Jefferson Parish. Scoped to Jefferson Parish (containing unit).","confidence":0.6},"geometry":{"type":"MultiPolygon","coordinates":[[[[-90.08628,29.18738],[-90.08372,29.18817],[-90.08283,29.19076],[-90.08007,29.19331],[-90.07707,29.19481],[-90.07532,29.19664],[-90.07359,29.19648],[-90.07233,29.19739],[-90.07151,29.19957],[-90.07054,29.20081],[-90.06607,29.20356],[-90.06442,29.20352],[-90.06302,29.20421],[-90.06192,29.20566],[-90.06316,29.20559],[-90.06355,29.20825],[-90.05517,29.2083],[-90.05262,29.21072],[-90.05275,29.21235],[-90.05057,29.21489],[-90.04912,29.21579],[-90.04788,29.21533],[-90.04837,29.21287],[-90.04987,29.21023],[-90.05516,29.20512],[-90.04755,29.19395],[-90.04785,29.18958],[-90.06636,29.18039],[-90.07883,29.17292],[-90.08878,29.16694],[-90.08789,29.17004],[-90.08632,29.17303],[-90.08615,29.17438],[-90.08689,29.17556],[-90.08696,29.17724],[-90.08777,29.17873],[-90.09047,29.18092],[-90.08853,29.1825],[-90.08576,29.18353],[-90.08485,29.18464],[-90.08655,29.18684],[-90.08628,29.18738]]],[[[-90.02944,29.21502],[-90.02393,29.21952],[-90.02102,29.2235],[-90.0188,29.2252],[-90.01531,29.22975],[-90.00801,29.23233],[-90.0075,29.23375],[-90.00529,29.23395],[-90.00518,29.23674],[-90.0013,29.23971],[-90.00135,29.24022],[-90.00154,29.24217],[-90.00194,29.24621],[-90.00064,29.24812],[-89.99814,29.24822],[-89.99398,29.24916],[-89.9922,29.25216],[-89.99113,29.25631],[-89.98816,29.26015],[-89.98483,29.2616],[-89.98281,29.25922],[-89.97984,29.26004],[-89.97699,29.25756],[-89.97378,29.25714],[-89.97022,29.26347],[-89.96665,29.26357],[-89.96054,29.26471],[-89.95865,29.26596],[-89.95692,29.26711],[-89.95428,29.26617],[-89.9521,29.26663],[-89.94968,29.26488],[-89.94907,29.26187],[-89.95564,29.25277],[-89.96617,29.24719],[-89.99403,29.23227],[-89.99795,29.23016],[-89.99824,29.23001],[-90.02103,29.21648],[-90.04002,29.20013],[-90.04322,29.2003],[-90.04266,29.20266],[-90.03885,29.20508],[-90.03442,29.21005],[-90.03003,29.21255],[-90.02944,29.21502]]],[[[-90.01454,29.25092],[-90.01169,29.24833],[-90.01145,29.24657],[-90.01026,29.24377],[-90.0086,29.24148],[-90.00801,29.23951],[-90.01086,29.23775],[-90.01145,29.239],[-90.01181,29.24066],[-90.01347,29.24086],[-90.01656,29.24003],[-90.01882,29.24034],[-90.02144,29.23972],[-90.02464,29.24107],[-90.02227,29.24252],[-90.02013,29.24408],[-90.01775,29.24729],[-90.01692,29.25061],[-90.01454,29.25092]]],[[[-90.01989,29.26492],[-90.0212,29.26336],[-90.02203,29.26098],[-90.02441,29.26119],[-90.02536,29.26067],[-90.0269,29.26004],[-90.02868,29.26253],[-90.0288,29.2645],[-90.02726,29.26554],[-90.02548,29.26595],[-90.02262,29.2672],[-90.02096,29.26647],[-90.01989,29.26492]]],[[[-89.96582,29.27777],[-89.96558,29.27487],[-89.96629,29.27321],[-89.96713,29.27145],[-89.96915,29.27207],[-89.96998,29.27383],[-89.97105,29.27601],[-89.97449,29.27653],[-89.97948,29.27756],[-89.97913,29.28109],[-89.97533,29.28254],[-89.97152,29.28492],[-89.96938,29.2843],[-89.96689,29.28264],[-89.96582,29.27777]]],[[[-89.92315,29.28948],[-89.91056,29.2956],[-89.90866,29.29767],[-89.90659,29.29664],[-89.90771,29.29259],[-89.91584,29.28648],[-89.92892,29.27962],[-89.93599,29.27694],[-89.94422,29.27172],[-89.95041,29.2755],[-89.95023,29.27704],[-89.94302,29.27653],[-89.93397,29.28565],[-89.92862,29.28689],[-89.92315,29.28948]]],[[[-89.95868,29.3058],[-89.95744,29.30551],[-89.95744,29.30442],[-89.95698,29.30366],[-89.95706,29.30327],[-89.95793,29.30247],[-89.96208,29.3033],[-89.96246,29.30431],[-89.96204,29.30497],[-89.96051,29.30594],[-89.95976,29.30678],[-89.95868,29.3058]]],[[[-89.97387,29.32085],[-89.97171,29.31825],[-89.97034,29.31691],[-89.9703,29.31542],[-89.97017,29.31267],[-89.9691,29.31141],[-89.96951,29.31007],[-89.97001,29.3079],[-89.97017,29.30623],[-89.97084,29.30533],[-89.97076,29.30457],[-89.97047,29.30334],[-89.97163,29.30225],[-89.97316,29.30102],[-89.97432,29.30124],[-89.97549,29.30232],[-89.97673,29.30327],[-89.97802,29.30551],[-89.97997,29.30656],[-89.98159,29.3088],[-89.98229,29.31199],[-89.98354,29.31575],[-89.98424,29.31875],[-89.98403,29.32081],[-89.98287,29.32067],[-89.97727,29.32125],[-89.97528,29.3211],[-89.97387,29.32085]]],[[[-90.01585,29.35404],[-90.01228,29.35911],[-90.0086,29.36698],[-90.00492,29.37019],[-89.99755,29.3705],[-89.98614,29.35766],[-89.97699,29.35321],[-89.97889,29.34699],[-89.98269,29.34129],[-89.99612,29.34119],[-90.00076,29.34316],[-90.00349,29.34389],[-90.00741,29.34316],[-90.01098,29.34606],[-90.0124,29.34886],[-90.01442,29.35051],[-90.01751,29.35083],[-90.0206,29.34865],[-90.02369,29.34803],[-90.03039,29.34491],[-90.03123,29.34711],[-90.03326,29.34894],[-90.0353,29.35017],[-90.03571,29.35091],[-90.03585,29.35237],[-90.03509,29.35646],[-90.03513,29.35745],[-90.02785,29.3588],[-90.02369,29.35476],[-90.01585,29.35404]]],[[[-90.27961,30.00472],[-90.27951,30.00645],[-90.27949,30.0068],[-90.27974,30.01334],[-90.27957,30.02352],[-90.27943,30.04279],[-90.27924,30.04848],[-90.27922,30.04912],[-90.27922,30.05021],[-90.2792,30.05253],[-90.27763,30.057],[-90.27584,30.07799],[-90.27555,30.08888],[-90.27311,30.09614],[-90.2726,30.1078],[-90.26953,30.11963],[-90.26686,30.13322],[-90.26539,30.14396],[-90.26211,30.15481],[-90.25989,30.16341],[-90.24178,30.16945],[-90.20528,30.17932],[-90.17862,30.18527],[-90.16504,30.18791],[-90.15626,30.18961],[-90.14466,30.18002],[-90.13978,30.17737],[-90.12766,30.17261],[-90.10812,30.16494],[-90.11937,30.03664],[-90.11884,30.03229],[-90.11854,30.02985],[-90.11992,30.02869],[-90.12069,30.02517],[-90.12098,30.02355],[-90.12095,30.02234],[-90.12117,30.01998],[-90.12178,30.01294],[-90.12178,30.01289],[-90.12235,30.00681],[-90.12296,30.00007],[-90.12335,29.99578],[-90.12397,29.98757],[-90.12466,29.97925],[-90.12487,29.9763],[-90.12486,29.97582],[-90.12502,29.97371],[-90.12583,29.9722],[-90.12592,29.97206],[-90.12656,29.97027],[-90.12766,29.96834],[-90.13019,29.96392],[-90.13074,29.96392],[-90.13382,29.9585],[-90.13482,29.95674],[-90.13629,29.95415],[-90.13741,29.95203],[-90.1376,29.95149],[-90.14007,29.9479],[-90.13949,29.94282],[-90.13897,29.9384],[-90.13907,29.9324],[-90.13927,29.9249],[-90.13889,29.92152],[-90.13857,29.9188],[-90.13247,29.913],[-90.12743,29.91086],[-90.12515,29.9102],[-90.12202,29.90964],[-90.11651,29.90871],[-90.10715,29.90849],[-90.10437,29.90883],[-90.10087,29.91001],[-90.09417,29.91171],[-90.09107,29.9128],[-90.08557,29.9144],[-90.08056,29.91617],[-90.07257,29.919],[-90.07167,29.9193],[-90.06875,29.92107],[-90.06737,29.9219],[-90.06337,29.9253],[-90.06247,29.926],[-90.05917,29.9304],[-90.05803,29.93771],[-90.05804,29.93882],[-90.05837,29.943],[-90.05855,29.94533],[-90.05413,29.94091],[-90.05303,29.93951],[-90.05239,29.93915],[-90.04779,29.93482],[-90.0451,29.93224],[-90.04397,29.9311],[-90.04336,29.9304],[-90.04187,29.92901],[-90.03949,29.92686],[-90.03199,29.91978],[-90.02767,29.91567],[-90.02279,29.91108],[-90.02123,29.90959],[-90.0183,29.90683],[-90.01438,29.90296],[-90.01423,29.90284],[-90.00815,29.8969],[-90.00806,29.89553],[-90.00983,29.89151],[-90.01388,29.88513],[-90.01549,29.88209],[-90.01759,29.87873],[-90.01772,29.8785],[-90.02007,29.87343],[-90.02297,29.86821],[-90.02351,29.86552],[-90.02261,29.865],[-90.02293,29.86248],[-90.0256,29.85921],[-90.02548,29.85648],[-90.02746,29.85285],[-90.02987,29.85049],[-90.03413,29.84785],[-90.03986,29.84605],[-90.04105,29.84521],[-90.04288,29.84371],[-90.04261,29.84332],[-90.04459,29.84137],[-90.05173,29.83785],[-90.05376,29.83826],[-90.05794,29.83687],[-90.05897,29.83617],[-90.06058,29.83455],[-90.06432,29.83305],[-90.06765,29.82999],[-90.06861,29.82883],[-90.0686,29.82677],[-90.06759,29.82553],[-90.06754,29.82366],[-90.06901,29.81838],[-90.07156,29.81035],[-90.07185,29.80804],[-90.07037,29.80374],[-90.0685,29.80176],[-90.06556,29.79238],[-90.06349,29.78839],[-90.06203,29.78647],[-90.06026,29.78495],[-90.06004,29.78413],[-90.06079,29.78334],[-90.06278,29.7832],[-90.06752,29.77849],[-90.07281,29.77328],[-90.07568,29.77185],[-90.06573,29.75311],[-90.06643,29.74838],[-90.06733,29.73888],[-90.06218,29.73101],[-90.04758,29.71521],[-90.04243,29.70959],[-90.04063,29.70798],[-90.03797,29.69974],[-90.03448,29.69429],[-90.02952,29.68709],[-90.0199,29.67869],[-90.01588,29.67441],[-90.01566,29.67383],[-90.01159,29.6587],[-90.00551,29.63708],[-90.00356,29.63126],[-90.00237,29.62611],[-90.0022,29.62342],[-90.00074,29.62231],[-89.99832,29.62283],[-89.99485,29.6212],[-89.99058,29.62248],[-89.98755,29.62149],[-89.98523,29.61892],[-89.98453,29.6174],[-89.98449,29.61656],[-89.98818,29.6145],[-89.98625,29.61211],[-89.98513,29.60952],[-89.98395,29.60879],[-89.98116,29.60866],[-89.98002,29.60758],[-89.98135,29.60465],[-89.98354,29.60182],[-89.98326,29.60031],[-89.98032,29.59833],[-89.97974,29.59619],[-89.98183,29.59275],[-89.9812,29.58873],[-89.9808,29.58798],[-89.97927,29.58772],[-89.97728,29.58876],[-89.97599,29.588],[-89.97683,29.58691],[-89.98115,29.58423],[-89.98148,29.58327],[-89.98081,29.58016],[-89.98217,29.57798],[-89.98586,29.57545],[-89.98585,29.57439],[-89.98324,29.57244],[-89.98252,29.5691],[-89.98263,29.56706],[-89.98589,29.56511],[-89.98838,29.56256],[-89.9888,29.56052],[-89.98868,29.54889],[-89.98692,29.5463],[-89.98636,29.54308],[-89.98488,29.5402],[-89.98583,29.53783],[-89.98444,29.53626],[-89.9817,29.53647],[-89.98089,29.53772],[-89.97979,29.53803],[-89.97957,29.53555],[-89.97895,29.53364],[-89.97956,29.50572],[-89.9794,29.50484],[-89.97961,29.4856],[-89.9775,29.48562],[-89.97742,29.45962],[-89.98061,29.45829],[-89.99178,29.45063],[-89.99155,29.44608],[-89.98394,29.44339],[-89.98142,29.43809],[-89.97039,29.4318],[-89.97562,29.42766],[-89.98038,29.41896],[-89.98584,29.41213],[-89.98727,29.4055],[-89.99107,29.4053],[-90.00248,29.40343],[-90.00319,29.39929],[-90.00058,29.39225],[-90.00605,29.38707],[-90.0089,29.3792],[-90.01555,29.3761],[-90.03076,29.37501],[-90.03078,29.375],[-90.0294,29.37702],[-90.02863,29.37942],[-90.02913,29.38223],[-90.03094,29.38445],[-90.0291,29.38751],[-90.03018,29.38938],[-90.03329,29.39328],[-90.02506,29.41329],[-90.02062,29.42846],[-90.02231,29.43115],[-90.02921,29.43188],[-90.03755,29.43634],[-90.04208,29.44343],[-90.04204,29.44588],[-90.03738,29.44783],[-90.03789,29.4488],[-90.04088,29.45027],[-90.04294,29.4523],[-90.04864,29.45525],[-90.04745,29.45857],[-90.04761,29.46045],[-90.04904,29.46152],[-90.05134,29.46177],[-90.05424,29.4615],[-90.06142,29.45916],[-90.0627,29.45919],[-90.06946,29.46136],[-90.07491,29.46513],[-90.07824,29.46613],[-90.08047,29.46591],[-90.08585,29.4625],[-90.08867,29.46173],[-90.09518,29.46142],[-90.11413,29.46568],[-90.12498,29.47021],[-90.13518,29.47605],[-90.1375,29.47716],[-90.1402,29.48174],[-90.14173,29.48821],[-90.1423,29.49154],[-90.14448,29.49737],[-90.14674,29.50104],[-90.15063,29.50476],[-90.15133,29.50586],[-90.15543,29.51048],[-90.15743,29.51359],[-90.15983,29.5165],[-90.16114,29.5188],[-90.16315,29.5213],[-90.16646,29.5265],[-90.16927,29.5327],[-90.17099,29.539],[-90.1722,29.5412],[-90.17421,29.54289],[-90.17912,29.54438],[-90.18263,29.54467],[-90.18614,29.54566],[-90.18782,29.54657],[-90.18975,29.54816],[-90.19218,29.55274],[-90.19202,29.55506],[-90.19177,29.55734],[-90.19087,29.55884],[-90.18617,29.56334],[-90.18278,29.56495],[-90.18008,29.56585],[-90.17468,29.56716],[-90.17131,29.56706],[-90.16602,29.56725],[-90.16181,29.56822],[-90.15846,29.57003],[-90.15777,29.57154],[-90.15777,29.57366],[-90.16055,29.57578],[-90.16453,29.57767],[-90.16514,29.57848],[-90.16464,29.57986],[-90.16299,29.58174],[-90.15659,29.58546],[-90.15172,29.58787],[-90.15134,29.58837],[-90.15196,29.5915],[-90.15409,29.59426],[-90.15154,29.59611],[-90.15116,29.59856],[-90.15189,29.59963],[-90.1556,29.60125],[-90.15622,29.60253],[-90.15221,29.60666],[-90.15117,29.60911],[-90.1519,29.61019],[-90.15314,29.61019],[-90.15626,29.60882],[-90.15769,29.60943],[-90.15781,29.61121],[-90.15712,29.61356],[-90.16002,29.61659],[-90.16119,29.62342],[-90.1604,29.62931],[-90.15965,29.63274],[-90.15933,29.64061],[-90.15977,29.6432],[-90.16112,29.64623],[-90.16058,29.64945],[-90.1591,29.65336],[-90.15684,29.6553],[-90.15538,29.65743],[-90.15507,29.66019],[-90.15557,29.6622],[-90.15788,29.66652],[-90.15801,29.66938],[-90.1576,29.67227],[-90.15581,29.67753],[-90.15884,29.67755],[-90.16088,29.67694],[-90.16418,29.67694],[-90.16568,29.67783],[-90.16828,29.68133],[-90.17039,29.68352],[-90.17599,29.68312],[-90.18038,29.68211],[-90.18349,29.68061],[-90.18639,29.68091],[-90.18799,29.68191],[-90.19009,29.68461],[-90.19249,29.68681],[-90.19339,29.68951],[-90.1952,29.69051],[-90.19659,29.68971],[-90.1988,29.6897],[-90.20039,29.68851],[-90.20239,29.68941],[-90.20259,29.69141],[-90.22607,29.69181],[-90.22816,29.69203],[-90.21129,29.7305],[-90.20235,29.75067],[-90.17251,29.80422],[-90.16948,29.80639],[-90.16944,29.80805],[-90.17069,29.81155],[-90.17094,29.81343],[-90.17029,29.8145],[-90.16795,29.81631],[-90.16727,29.81846],[-90.16773,29.81943],[-90.1701,29.82164],[-90.17226,29.8247],[-90.1732,29.82752],[-90.18204,29.8276],[-90.23173,29.85709],[-90.2332,29.85796],[-90.24017,29.86212],[-90.24165,29.8684],[-90.24161,29.8686],[-90.24032,29.87129],[-90.24055,29.87289],[-90.24213,29.87391],[-90.24315,29.87678],[-90.24334,29.88094],[-90.24621,29.88255],[-90.24912,29.88509],[-90.25127,29.88799],[-90.25476,29.88998],[-90.25649,29.89417],[-90.25976,29.89754],[-90.26401,29.89851],[-90.26486,29.8994],[-90.26461,29.90116],[-90.26592,29.90149],[-90.26671,29.90391],[-90.26828,29.90499],[-90.27115,29.91421],[-90.27349,29.92176],[-90.27553,29.94019],[-90.27557,29.94068],[-90.27816,29.96167],[-90.27953,29.96797],[-90.2803,29.97262],[-90.28013,29.97705],[-90.28006,29.99171],[-90.28014,29.99274],[-90.27986,29.99802],[-90.2796,30.00416],[-90.27961,30.00472]]]]}},{"type":"Feature","properties":{"name":"River Parishes Transit Authority (RPTA) On-Demand Service","boundary_type":"counties","source":"Census TIGER county","fidelity":"exact","updated":"2026-09","units":"St. Charles Parish; St. James Parish; St. John the Baptist Parish","note":"All three parishes explicitly named in service area. Booking portal confirms on-demand service; pre-booking requirements and fixed schedule window not fully clarified.","confidence":0.9},"geometry":{"type":"Polygon","coordinates":[[[-90.26539,30.14396],[-90.26686,30.13322],[-90.26953,30.11963],[-90.2726,30.1078],[-90.27311,30.09614],[-90.27555,30.08888],[-90.27584,30.07799],[-90.27763,30.057],[-90.2792,30.05253],[-90.27922,30.05021],[-90.27922,30.04912],[-90.27924,30.04848],[-90.27943,30.04279],[-90.27957,30.02352],[-90.27974,30.01334],[-90.27949,30.0068],[-90.27951,30.00645],[-90.27961,30.00472],[-90.2796,30.00416],[-90.27986,29.99802],[-90.28014,29.99274],[-90.28006,29.99171],[-90.28013,29.97705],[-90.2803,29.97262],[-90.27953,29.96797],[-90.27816,29.96167],[-90.27557,29.94068],[-90.27553,29.94019],[-90.27349,29.92176],[-90.27115,29.91421],[-90.26828,29.90499],[-90.26671,29.90391],[-90.26592,29.90149],[-90.26461,29.90116],[-90.26486,29.8994],[-90.26401,29.89851],[-90.25976,29.89754],[-90.25649,29.89417],[-90.25476,29.88998],[-90.25127,29.88799],[-90.24912,29.88509],[-90.24621,29.88255],[-90.24334,29.88094],[-90.24315,29.87678],[-90.24213,29.87391],[-90.24055,29.87289],[-90.24032,29.87129],[-90.24161,29.8686],[-90.24165,29.8684],[-90.24017,29.86212],[-90.2332,29.85796],[-90.23173,29.85709],[-90.18204,29.8276],[-90.1732,29.82752],[-90.17226,29.8247],[-90.1701,29.82164],[-90.16773,29.81943],[-90.16727,29.81846],[-90.16795,29.81631],[-90.17029,29.8145],[-90.17094,29.81343],[-90.17069,29.81155],[-90.16944,29.80805],[-90.16948,29.80639],[-90.17251,29.80422],[-90.20235,29.75067],[-90.21129,29.7305],[-90.22816,29.69203],[-90.31596,29.69245],[-90.31765,29.69243],[-90.34619,29.6933],[-90.3497,29.69551],[-90.3512,29.69521],[-90.35277,29.69589],[-90.35352,29.69788],[-90.35739,29.70183],[-90.36095,29.70624],[-90.36179,29.70941],[-90.36127,29.71398],[-90.36069,29.71618],[-90.3608,29.72089],[-90.36021,29.7245],[-90.3614,29.72691],[-90.36305,29.72912],[-90.3633,29.73132],[-90.36223,29.73449],[-90.36115,29.73537],[-90.36079,29.73705],[-90.36238,29.74006],[-90.36418,29.74198],[-90.36649,29.74352],[-90.36832,29.74425],[-90.37093,29.74619],[-90.37161,29.7475],[-90.37237,29.75121],[-90.37198,29.75924],[-90.37478,29.76261],[-90.3767,29.76377],[-90.38068,29.7652],[-90.39209,29.76742],[-90.39568,29.76981],[-90.39729,29.77038],[-90.40121,29.77171],[-90.40482,29.77415],[-90.40736,29.77386],[-90.40929,29.77219],[-90.41582,29.77437],[-90.41901,29.77568],[-90.42439,29.77669],[-90.42714,29.77577],[-90.42989,29.77639],[-90.43861,29.78282],[-90.44306,29.78762],[-90.44669,29.79039],[-90.45076,29.79174],[-90.45731,29.79509],[-90.46294,29.80079],[-90.46776,29.80324],[-90.46804,29.80347],[-90.46992,29.80525],[-90.47089,29.80704],[-90.47186,29.81003],[-90.47463,29.81151],[-90.47578,29.81292],[-90.47612,29.81751],[-90.47719,29.82077],[-90.47631,29.82487],[-90.47636,29.82875],[-90.47694,29.83215],[-90.47845,29.83657],[-90.48019,29.83927],[-90.47898,29.84417],[-90.4799,29.84738],[-90.48328,29.85007],[-90.48598,29.85314],[-90.48701,29.85481],[-90.48777,29.8572],[-90.48923,29.85926],[-90.49386,29.8617],[-90.49607,29.86344],[-90.49887,29.86506],[-90.50156,29.8655],[-90.50397,29.86515],[-90.51015,29.86326],[-90.51324,29.86344],[-90.51572,29.86473],[-90.52076,29.87004],[-90.52411,29.87448],[-90.5296,29.885],[-90.53069,29.88674],[-90.53319,29.8895],[-90.53542,29.89106],[-90.54156,29.89244],[-90.54338,29.8918],[-90.553,29.89334],[-90.57855,29.89335],[-90.5935,29.89293],[-90.5942,29.8928],[-90.59647,29.8919],[-90.59885,29.89019],[-90.60075,29.88807],[-90.60306,29.88526],[-90.6067,29.88426],[-90.60935,29.88309],[-90.61081,29.88442],[-90.61083,29.88889],[-90.61209,29.8911],[-90.61573,29.89085],[-90.61705,29.89022],[-90.61938,29.89157],[-90.62183,29.89208],[-90.62378,29.89407],[-90.6271,29.89504],[-90.62913,29.89523],[-90.63161,29.89454],[-90.63529,29.89482],[-90.63705,29.89355],[-90.6394,29.89286],[-90.64181,29.89328],[-90.64364,29.89269],[-90.64674,29.89248],[-90.64765,29.89165],[-90.65061,29.89178],[-90.65496,29.89018],[-90.65631,29.88925],[-90.65889,29.88945],[-90.66068,29.89042],[-90.66658,29.88998],[-90.66817,29.88939],[-90.67257,29.89082],[-90.67336,29.89193],[-90.67555,29.89296],[-90.68069,29.89259],[-90.68208,29.89612],[-90.68383,29.89827],[-90.68823,29.89916],[-90.68869,29.90036],[-90.68801,29.90289],[-90.68996,29.90483],[-90.69294,29.90383],[-90.69561,29.90196],[-90.69653,29.90052],[-90.69783,29.90061],[-90.69887,29.90303],[-90.70081,29.90345],[-90.70368,29.90251],[-90.70583,29.9011],[-90.70704,29.90098],[-90.70876,29.90249],[-90.7099,29.90061],[-90.70913,29.89746],[-90.71176,29.89654],[-90.71734,29.8967],[-90.71781,29.89791],[-90.71784,29.90235],[-90.72138,29.90492],[-90.72319,29.90699],[-90.72664,29.90604],[-90.72863,29.90619],[-90.73033,29.90504],[-90.73185,29.90524],[-90.73366,29.90543],[-90.73752,29.90441],[-90.73984,29.90449],[-90.74946,29.90789],[-90.75231,29.90932],[-90.75807,29.91297],[-90.76196,29.91313],[-90.76448,29.91463],[-90.76992,29.91646],[-90.77523,29.91745],[-90.77663,29.91858],[-90.7787,29.92201],[-90.78576,29.92169],[-90.78543,29.90759],[-90.8226,29.9068],[-90.84296,29.90637],[-90.88575,29.90535],[-90.88609,29.9237],[-90.88631,29.93565],[-90.88671,29.93564],[-90.91178,29.93507],[-90.9118,29.9785],[-90.94629,29.97793],[-90.94632,30.00096],[-90.94637,30.03604],[-90.96336,30.03578],[-90.96374,30.06683],[-90.9427,30.08111],[-90.93559,30.08556],[-90.93697,30.08887],[-90.93522,30.09161],[-90.93463,30.09405],[-90.93446,30.09416],[-90.91466,30.10883],[-90.91556,30.11329],[-90.86934,30.12202],[-90.78613,30.13832],[-90.75958,30.14358],[-90.70791,30.15366],[-90.64211,30.16645],[-90.6319,30.22119],[-90.63091,30.22095],[-90.61783,30.21912],[-90.61625,30.21796],[-90.61384,30.21485],[-90.61041,30.21423],[-90.60884,30.21493],[-90.60561,30.21718],[-90.60356,30.21771],[-90.60119,30.21749],[-90.5995,30.21684],[-90.59756,30.21558],[-90.59469,30.21181],[-90.59372,30.21012],[-90.59202,30.20832],[-90.59153,30.20584],[-90.58614,30.20191],[-90.58137,30.19888],[-90.57781,30.19717],[-90.57237,30.19607],[-90.56751,30.19535],[-90.55741,30.19514],[-90.55415,30.19563],[-90.55115,30.19673],[-90.54695,30.19871],[-90.53837,30.20347],[-90.51606,30.22134],[-90.50908,30.23014],[-90.50219,30.24985],[-90.50183,30.25038],[-90.50172,30.25137],[-90.48583,30.27699],[-90.4665,30.27685],[-90.4581,30.27707],[-90.4321,30.27923],[-90.42053,30.27984],[-90.41074,30.28143],[-90.40493,30.2843],[-90.40185,30.28536],[-90.40053,30.2857],[-90.39789,30.2861],[-90.39145,30.28546],[-90.38609,30.28688],[-90.38252,30.28647],[-90.3787,30.28469],[-90.37373,30.28339],[-90.37226,30.28364],[-90.36872,30.28593],[-90.36646,30.28812],[-90.36285,30.29038],[-90.35031,30.29683],[-90.349,30.29721],[-90.34707,30.29735],[-90.34066,30.29565],[-90.33736,30.29528],[-90.33364,30.29523],[-90.32786,30.29627],[-90.32231,30.29872],[-90.32046,30.29898],[-90.31565,30.2966],[-90.31222,30.29532],[-90.30876,30.29481],[-90.3041,30.29487],[-90.30092,30.29468],[-90.29783,30.2939],[-90.297,30.29245],[-90.28343,30.28721],[-90.16064,30.23434],[-90.15817,30.22813],[-90.15403,30.20348],[-90.15425,30.19839],[-90.15626,30.18961],[-90.16504,30.18791],[-90.17862,30.18527],[-90.20528,30.17932],[-90.24178,30.16945],[-90.25989,30.16341],[-90.26211,30.15481],[-90.26539,30.14396]]]}},{"type":"Feature","properties":{"name":"SporTran OnDemand","boundary_type":"places","source":"Census TIGER place","fidelity":"approximate","updated":"2026-09","units":"Shreveport city; Bossier City city","note":"Multiple zone-based service areas in Shreveport-Bossier City metro; exact zone boundaries not specified in available sources. Scoped to both cities.","confidence":0.75},"geometry":{"type":"MultiPolygon","coordinates":[[[[-93.72667,32.34756],[-93.72672,32.35114],[-93.72232,32.35115],[-93.72229,32.35651],[-93.72395,32.35654],[-93.72725,32.35542],[-93.72768,32.35497],[-93.72793,32.35476],[-93.72998,32.35439],[-93.73385,32.35452],[-93.73525,32.35485],[-93.73852,32.35519],[-93.73639,32.35522],[-93.73469,32.35503],[-93.73469,32.35659],[-93.73851,32.35656],[-93.73849,32.36521],[-93.73098,32.36514],[-93.73097,32.36191],[-93.72656,32.36191],[-93.72656,32.36372],[-93.72231,32.36373],[-93.72232,32.36561],[-93.71804,32.36563],[-93.71804,32.36193],[-93.7223,32.36192],[-93.7223,32.3584],[-93.71909,32.35842],[-93.71909,32.36113],[-93.71375,32.3611],[-93.7138,32.35501],[-93.71383,32.34398],[-93.70958,32.3439],[-93.70956,32.34029],[-93.71383,32.34031],[-93.71385,32.33615],[-93.71808,32.33634],[-93.71806,32.33266],[-93.72209,32.33251],[-93.72891,32.33406],[-93.72891,32.33273],[-93.73081,32.33272],[-93.73083,32.33651],[-93.73639,32.33653],[-93.73639,32.33747],[-93.73858,32.33748],[-93.73854,32.34693],[-93.73095,32.34692],[-93.73013,32.34756],[-93.72667,32.34756]],[[-93.73473,32.34132],[-93.73473,32.3403],[-93.73092,32.34029],[-93.73092,32.34131],[-93.73473,32.34132]],[[-93.7181,32.35115],[-93.71808,32.34754],[-93.71399,32.34756],[-93.71399,32.35117],[-93.7181,32.35115]],[[-93.71522,32.34392],[-93.71806,32.3439],[-93.71808,32.34213],[-93.71396,32.34213],[-93.71395,32.34508],[-93.71522,32.34392]],[[-93.71655,32.34208],[-93.71654,32.34032],[-93.71396,32.34032],[-93.71396,32.34208],[-93.71655,32.34208]],[[-93.71628,32.35297],[-93.71628,32.35213],[-93.71392,32.35212],[-93.71392,32.35294],[-93.71628,32.35297]],[[-93.71585,32.35998],[-93.71586,32.35889],[-93.71587,32.35838],[-93.71391,32.35837],[-93.71389,32.35997],[-93.71585,32.35998]]],[[[-93.94549,32.51868],[-93.94564,32.51945],[-93.94443,32.51959],[-93.94256,32.52144],[-93.94294,32.52261],[-93.9419,32.5219],[-93.9409,32.52173],[-93.94103,32.52073],[-93.93995,32.51966],[-93.93926,32.51855],[-93.93717,32.51949],[-93.93668,32.52037],[-93.93675,32.52125],[-93.93783,32.52109],[-93.93867,32.52141],[-93.93703,32.52147],[-93.93696,32.52223],[-93.93882,32.52285],[-93.94014,32.52372],[-93.94099,32.52382],[-93.94306,32.52563],[-93.94441,32.52639],[-93.94205,32.52555],[-93.94104,32.5255],[-93.94082,32.52606],[-93.94006,32.52623],[-93.94071,32.52617],[-93.94158,32.52636],[-93.94209,32.5263],[-93.94218,32.52678],[-93.94321,32.52733],[-93.94159,32.52652],[-93.94126,32.52655],[-93.94099,32.52649],[-93.94094,32.52645],[-93.94085,32.52636],[-93.94071,32.52624],[-93.94053,32.52624],[-93.94053,32.52626],[-93.94056,32.52635],[-93.9407,32.52654],[-93.94074,32.52666],[-93.9407,32.5267],[-93.94059,32.5267],[-93.94055,32.52667],[-93.94012,32.52643],[-93.93985,32.52625],[-93.93978,32.52615],[-93.93976,32.52602],[-93.93979,32.52595],[-93.93996,32.52586],[-93.93997,32.52561],[-93.93993,32.52558],[-93.93979,32.52549],[-93.93982,32.52544],[-93.93986,32.5254],[-93.93985,32.52533],[-93.93972,32.52519],[-93.93938,32.52494],[-93.93914,32.52484],[-93.93752,32.52536],[-93.93671,32.52428],[-93.937,32.52357],[-93.9359,32.52329],[-93.93602,32.52421],[-93.93422,32.52453],[-93.93303,32.52283],[-93.93345,32.52191],[-93.93283,32.5215],[-93.93156,32.52234],[-93.93278,32.52348],[-93.93258,32.52432],[-93.93134,32.52429],[-93.93112,32.52491],[-93.93197,32.52542],[-93.9308,32.52634],[-93.92958,32.52597],[-93.92902,32.52642],[-93.93036,32.52779],[-93.92979,32.52857],[-93.92892,32.52888],[-93.92785,32.52862],[-93.92652,32.52907],[-93.92645,32.52996],[-93.92706,32.53076],[-93.92711,32.53169],[-93.92612,32.53247],[-93.92744,32.53248],[-93.92772,32.53326],[-93.92735,32.53259],[-93.92624,32.53273],[-93.92544,32.53268],[-93.92554,32.53353],[-93.92322,32.53453],[-93.92216,32.53455],[-93.9209,32.53539],[-93.92017,32.53423],[-93.91808,32.53179],[-93.9188,32.5334],[-93.92002,32.53491],[-93.92108,32.53693],[-93.92111,32.5377],[-93.9197,32.53816],[-93.91772,32.5371],[-93.91781,32.53847],[-93.91662,32.53939],[-93.9161,32.53828],[-93.91589,32.54004],[-93.91478,32.54025],[-93.913,32.54036],[-93.91351,32.53945],[-93.91218,32.53868],[-93.91172,32.53722],[-93.91064,32.53745],[-93.90937,32.53707],[-93.90891,32.5368],[-93.90855,32.53672],[-93.90654,32.53605],[-93.9058,32.53607],[-93.90396,32.53737],[-93.90373,32.53464],[-93.90154,32.53345],[-93.904,32.53086],[-93.90161,32.52826],[-93.90178,32.52741],[-93.90352,32.52755],[-93.90283,32.52597],[-93.90001,32.52527],[-93.89904,32.5241],[-93.89734,32.52379],[-93.89663,32.52527],[-93.89512,32.5261],[-93.89238,32.52921],[-93.89025,32.52914],[-93.89162,32.52658],[-93.88777,32.52628],[-93.88546,32.52928],[-93.88312,32.52976],[-93.8799,32.5269],[-93.87932,32.5252],[-93.87601,32.52299],[-93.87561,32.52177],[-93.87751,32.51969],[-93.87733,32.51818],[-93.87453,32.51982],[-93.87398,32.5227],[-93.87412,32.52579],[-93.87584,32.52595],[-93.87461,32.52818],[-93.87315,32.52862],[-93.87298,32.52895],[-93.87157,32.52889],[-93.87036,32.52726],[-93.86984,32.52454],[-93.86768,32.52577],[-93.86865,32.527],[-93.86801,32.52775],[-93.86478,32.52559],[-93.86575,32.52731],[-93.86801,32.52828],[-93.86788,32.53087],[-93.86761,32.53134],[-93.86971,32.53016],[-93.87174,32.53259],[-93.8709,32.53451],[-93.87245,32.53622],[-93.87411,32.5352],[-93.87243,32.5369],[-93.8733,32.53884],[-93.86929,32.53802],[-93.86752,32.54005],[-93.87029,32.54238],[-93.86999,32.54405],[-93.86819,32.54613],[-93.86613,32.54448],[-93.86421,32.54574],[-93.86411,32.54417],[-93.86654,32.54276],[-93.86512,32.54228],[-93.86456,32.54099],[-93.86339,32.54227],[-93.86236,32.5416],[-93.86316,32.53882],[-93.86429,32.53781],[-93.86738,32.53734],[-93.86869,32.53606],[-93.86699,32.53399],[-93.86746,32.5316],[-93.86697,32.53246],[-93.86565,32.5326],[-93.8641,32.53141],[-93.86242,32.53127],[-93.86228,32.53336],[-93.8606,32.53315],[-93.86061,32.53526],[-93.85678,32.53447],[-93.8549,32.5351],[-93.85402,32.53661],[-93.854,32.53662],[-93.85338,32.53534],[-93.8527,32.53515],[-93.85203,32.53548],[-93.85125,32.53634],[-93.85118,32.53673],[-93.85142,32.53773],[-93.85117,32.53842],[-93.85108,32.53847],[-93.85101,32.53707],[-93.85149,32.5345],[-93.85416,32.53329],[-93.85423,32.53255],[-93.85081,32.53078],[-93.85159,32.52978],[-93.85548,32.53104],[-93.85842,32.53084],[-93.85784,32.52896],[-93.85934,32.52721],[-93.85855,32.52467],[-93.85575,32.52378],[-93.8574,32.52194],[-93.85763,32.52027],[-93.85678,32.52005],[-93.8616,32.51891],[-93.86156,32.51806],[-93.86025,32.51767],[-93.85812,32.51904],[-93.85668,32.51772],[-93.85773,32.51738],[-93.85924,32.51427],[-93.85666,32.51385],[-93.85542,32.51476],[-93.85431,32.51421],[-93.8507,32.5144],[-93.85137,32.51543],[-93.8509,32.51702],[-93.84864,32.51694],[-93.84799,32.51647],[-93.84896,32.51452],[-93.84726,32.51423],[-93.848,32.51089],[-93.84653,32.51063],[-93.84371,32.51142],[-93.84232,32.51026],[-93.83845,32.51016],[-93.83618,32.51266],[-93.83935,32.5124],[-93.84079,32.51306],[-93.84199,32.51526],[-93.84067,32.51567],[-93.84107,32.51775],[-93.84443,32.52073],[-93.84217,32.51932],[-93.83956,32.51992],[-93.8385,32.51615],[-93.83747,32.51741],[-93.83672,32.52003],[-93.83566,32.52155],[-93.83626,32.5198],[-93.83556,32.5164],[-93.83338,32.51707],[-93.83106,32.51994],[-93.8314,32.51788],[-93.82826,32.51869],[-93.82594,32.51646],[-93.8243,32.51735],[-93.82478,32.519],[-93.82392,32.51947],[-93.82237,32.51803],[-93.82006,32.51736],[-93.81863,32.51777],[-93.81768,32.51928],[-93.81747,32.5217],[-93.81745,32.52209],[-93.82351,32.52497],[-93.82619,32.52686],[-93.83657,32.53518],[-93.84596,32.54283],[-93.846,32.54437],[-93.84606,32.54512],[-93.84647,32.54422],[-93.84702,32.54371],[-93.84929,32.54551],[-93.84606,32.54538],[-93.84605,32.54722],[-93.85023,32.54725],[-93.85022,32.54627],[-93.85235,32.54796],[-93.85237,32.5491],[-93.85216,32.55094],[-93.85615,32.55101],[-93.86092,32.55109],[-93.86086,32.55261],[-93.86032,32.55439],[-93.85901,32.55336],[-93.85905,32.55467],[-93.8503,32.55468],[-93.85041,32.55732],[-93.84767,32.55573],[-93.84627,32.55428],[-93.84595,32.55473],[-93.84591,32.55804],[-93.82876,32.55817],[-93.81143,32.55829],[-93.81115,32.56828],[-93.81104,32.57199],[-93.80667,32.57207],[-93.80672,32.57073],[-93.80395,32.57075],[-93.80394,32.57312],[-93.80169,32.57314],[-93.80172,32.57648],[-93.7982,32.57664],[-93.79809,32.57952],[-93.79975,32.58038],[-93.80786,32.58039],[-93.80797,32.58442],[-93.80895,32.58514],[-93.80675,32.58408],[-93.80673,32.58821],[-93.80486,32.5897],[-93.80519,32.58773],[-93.80302,32.58778],[-93.80166,32.5855],[-93.80008,32.58352],[-93.79692,32.58114],[-93.79579,32.58557],[-93.79578,32.58713],[-93.79482,32.58707],[-93.7943,32.58721],[-93.79431,32.58494],[-93.79226,32.58361],[-93.79129,32.5803],[-93.78945,32.58111],[-93.78951,32.58857],[-93.78818,32.58736],[-93.78693,32.58686],[-93.78617,32.58545],[-93.78526,32.58434],[-93.7852,32.58079],[-93.78512,32.57939],[-93.78179,32.57579],[-93.7802,32.57849],[-93.77524,32.57594],[-93.7787,32.57325],[-93.77645,32.57326],[-93.77664,32.57185],[-93.77445,32.57094],[-93.77436,32.56377],[-93.77536,32.56376],[-93.77408,32.56245],[-93.77331,32.55998],[-93.77515,32.55877],[-93.77397,32.55739],[-93.77351,32.55614],[-93.77259,32.55614],[-93.7709,32.55446],[-93.77239,32.55185],[-93.77262,32.54827],[-93.77266,32.54756],[-93.77207,32.54729],[-93.77031,32.54791],[-93.76715,32.54495],[-93.76478,32.5456],[-93.76397,32.54575],[-93.75917,32.54407],[-93.75484,32.54412],[-93.75429,32.54476],[-93.75082,32.5434],[-93.74983,32.5448],[-93.75276,32.54638],[-93.75076,32.54881],[-93.74731,32.54921],[-93.7404,32.55087],[-93.73969,32.55134],[-93.73406,32.55214],[-93.73132,32.55173],[-93.72818,32.54839],[-93.72637,32.54295],[-93.72468,32.54295],[-93.7224,32.54294],[-93.72285,32.54486],[-93.72488,32.54486],[-93.7257,32.54778],[-93.72352,32.54777],[-93.72449,32.55123],[-93.72509,32.55321],[-93.7277,32.55263],[-93.73032,32.55728],[-93.73079,32.55859],[-93.73039,32.57026],[-93.73067,32.57107],[-93.73137,32.57355],[-93.73154,32.57658],[-93.73143,32.58559],[-93.7272,32.5856],[-93.72717,32.58374],[-93.72017,32.58371],[-93.71841,32.58289],[-93.71843,32.58047],[-93.71412,32.58047],[-93.71412,32.58167],[-93.71619,32.58168],[-93.7162,32.58289],[-93.71413,32.58288],[-93.71412,32.58171],[-93.70983,32.58168],[-93.7099,32.572],[-93.71302,32.57198],[-93.71231,32.56979],[-93.7121,32.56852],[-93.70882,32.56871],[-93.70881,32.56748],[-93.71015,32.56746],[-93.71007,32.56688],[-93.70563,32.56733],[-93.70559,32.56479],[-93.68849,32.56466],[-93.68847,32.56258],[-93.68083,32.56234],[-93.68023,32.56256],[-93.67958,32.56101],[-93.68082,32.5609],[-93.68079,32.55878],[-93.67889,32.55894],[-93.67111,32.55815],[-93.66569,32.55808],[-93.66583,32.55842],[-93.66667,32.56047],[-93.66678,32.56411],[-93.66952,32.56828],[-93.67004,32.56788],[-93.66985,32.56761],[-93.67614,32.56772],[-93.67658,32.57492],[-93.67637,32.57545],[-93.67609,32.5754],[-93.67575,32.57639],[-93.67414,32.57987],[-93.67381,32.5809],[-93.67373,32.58183],[-93.6732,32.58356],[-93.67321,32.58526],[-93.67355,32.58523],[-93.67509,32.58511],[-93.67412,32.58918],[-93.67335,32.59027],[-93.67238,32.59027],[-93.66931,32.5908],[-93.66833,32.59048],[-93.66394,32.58665],[-93.66046,32.58666],[-93.65828,32.58667],[-93.65998,32.58369],[-93.66061,32.57872],[-93.66134,32.57638],[-93.66341,32.57426],[-93.66709,32.57215],[-93.67117,32.57135],[-93.67116,32.57008],[-93.66886,32.56948],[-93.66781,32.5714],[-93.65354,32.571],[-93.65371,32.57013],[-93.65669,32.56671],[-93.65683,32.56457],[-93.6524,32.56873],[-93.64982,32.57241],[-93.6511,32.57321],[-93.65217,32.57177],[-93.65266,32.57353],[-93.65223,32.57649],[-93.64981,32.57626],[-93.65017,32.57383],[-93.64703,32.57309],[-93.64481,32.57115],[-93.64532,32.57472],[-93.64804,32.57472],[-93.64805,32.57601],[-93.64575,32.57605],[-93.6461,32.57711],[-93.64849,32.57715],[-93.64852,32.57871],[-93.64153,32.57856],[-93.64007,32.57853],[-93.64005,32.58089],[-93.63998,32.58651],[-93.63631,32.58646],[-93.63557,32.58644],[-93.63561,32.58392],[-93.63564,32.58191],[-93.63545,32.57855],[-93.6297,32.57846],[-93.63236,32.57511],[-93.63274,32.57382],[-93.63162,32.57186],[-93.63464,32.56981],[-93.63273,32.56759],[-93.63374,32.56496],[-93.63211,32.56333],[-93.62948,32.56266],[-93.62773,32.56369],[-93.6267,32.5621],[-93.62701,32.56146],[-93.63278,32.5601],[-93.63433,32.55906],[-93.63438,32.55801],[-93.63139,32.55431],[-93.6307,32.55434],[-93.62842,32.55548],[-93.62464,32.55423],[-93.61913,32.54986],[-93.61787,32.54735],[-93.61999,32.54201],[-93.61961,32.54074],[-93.61811,32.53937],[-93.61475,32.53893],[-93.61305,32.53704],[-93.60958,32.53147],[-93.60955,32.53122],[-93.59963,32.53295],[-93.59586,32.53308],[-93.58539,32.53331],[-93.58433,32.53333],[-93.58434,32.49815],[-93.64998,32.49846],[-93.66513,32.49889],[-93.66496,32.48479],[-93.65656,32.48482],[-93.65654,32.47842],[-93.65652,32.47308],[-93.65398,32.47309],[-93.65054,32.46892],[-93.65392,32.46889],[-93.65001,32.4623],[-93.64519,32.4542],[-93.64048,32.45416],[-93.64088,32.45185],[-93.6413,32.45134],[-93.64142,32.45046],[-93.64053,32.44849],[-93.64083,32.44738],[-93.64056,32.44693],[-93.63874,32.44555],[-93.63755,32.44204],[-93.63692,32.44129],[-93.63617,32.44072],[-93.63603,32.43926],[-93.63608,32.43867],[-93.64132,32.439],[-93.64333,32.43787],[-93.63471,32.4268],[-93.63026,32.42681],[-93.63056,32.41987],[-93.63645,32.42714],[-93.63968,32.42531],[-93.64049,32.42635],[-93.63712,32.42825],[-93.64515,32.43828],[-93.64735,32.44113],[-93.64982,32.4399],[-93.64931,32.43912],[-93.6603,32.434],[-93.66497,32.43399],[-93.66505,32.43943],[-93.66295,32.43941],[-93.6632,32.4426],[-93.6652,32.44544],[-93.66526,32.44694],[-93.66418,32.44694],[-93.66983,32.44846],[-93.67017,32.45009],[-93.67082,32.44888],[-93.67483,32.45032],[-93.67681,32.45241],[-93.6744,32.45569],[-93.67485,32.45636],[-93.68016,32.45578],[-93.68693,32.45582],[-93.68699,32.45578],[-93.69072,32.45573],[-93.69135,32.45593],[-93.69047,32.45735],[-93.68954,32.46063],[-93.69092,32.46196],[-93.69207,32.46119],[-93.69491,32.4609],[-93.69662,32.46131],[-93.69485,32.46854],[-93.69972,32.4718],[-93.70445,32.47496],[-93.70531,32.47412],[-93.70577,32.47295],[-93.7055,32.47008],[-93.70278,32.46359],[-93.69611,32.45977],[-93.69583,32.45859],[-93.69716,32.45877],[-93.69821,32.45561],[-93.70059,32.45304],[-93.70248,32.45033],[-93.70291,32.44732],[-93.70329,32.44649],[-93.70036,32.44696],[-93.69446,32.45259],[-93.6944,32.45216],[-93.69609,32.44865],[-93.69954,32.44602],[-93.70005,32.44477],[-93.69651,32.44571],[-93.69366,32.4448],[-93.6885,32.44481],[-93.68794,32.44429],[-93.68542,32.44306],[-93.68292,32.44302],[-93.68308,32.4422],[-93.68335,32.43883],[-93.6826,32.43727],[-93.67954,32.43445],[-93.68005,32.43358],[-93.68258,32.43008],[-93.6837,32.42651],[-93.68466,32.42569],[-93.69159,32.42347],[-93.69444,32.42376],[-93.69404,32.42128],[-93.69331,32.41767],[-93.68767,32.4179],[-93.68627,32.41705],[-93.68613,32.41514],[-93.68413,32.41521],[-93.68524,32.41328],[-93.69186,32.41316],[-93.69119,32.4101],[-93.6909,32.40899],[-93.69433,32.40896],[-93.69532,32.41005],[-93.699,32.40977],[-93.69701,32.40646],[-93.69089,32.40648],[-93.69085,32.4037],[-93.69123,32.40093],[-93.69312,32.4009],[-93.69118,32.39876],[-93.69138,32.39863],[-93.69128,32.39852],[-93.69165,32.39828],[-93.69397,32.40087],[-93.70719,32.40081],[-93.70497,32.39911],[-93.70367,32.39909],[-93.70099,32.39717],[-93.69714,32.39701],[-93.69699,32.38919],[-93.70058,32.389],[-93.70462,32.38999],[-93.70967,32.39331],[-93.70976,32.38362],[-93.71375,32.38364],[-93.7136,32.38345],[-93.71375,32.36926],[-93.70501,32.36919],[-93.70472,32.36914],[-93.69992,32.37222],[-93.69921,32.37148],[-93.7025,32.36944],[-93.70144,32.36945],[-93.69883,32.37105],[-93.69581,32.3678],[-93.69266,32.36427],[-93.68614,32.35716],[-93.68807,32.35551],[-93.68632,32.35494],[-93.6901,32.3521],[-93.68874,32.35109],[-93.68948,32.34592],[-93.69099,32.34641],[-93.69099,32.34936],[-93.69171,32.35049],[-93.69213,32.34653],[-93.69504,32.34832],[-93.69499,32.34962],[-93.69613,32.34964],[-93.69726,32.35127],[-93.69672,32.35216],[-93.69024,32.35546],[-93.69183,32.35585],[-93.69152,32.3568],[-93.69306,32.35723],[-93.69299,32.35832],[-93.68822,32.35835],[-93.6882,32.35922],[-93.69405,32.36562],[-93.69678,32.36566],[-93.69675,32.36199],[-93.7011,32.36209],[-93.70166,32.35797],[-93.69957,32.35682],[-93.69832,32.3519],[-93.69973,32.35161],[-93.70256,32.3529],[-93.70234,32.35412],[-93.7048,32.35748],[-93.70412,32.36073],[-93.70517,32.36167],[-93.70691,32.36167],[-93.70674,32.35741],[-93.70562,32.35743],[-93.70418,32.35538],[-93.70364,32.35351],[-93.70576,32.3529],[-93.70381,32.3527],[-93.70302,32.35171],[-93.70382,32.35055],[-93.70162,32.35078],[-93.69905,32.35017],[-93.69967,32.34834],[-93.70428,32.34647],[-93.70853,32.35386],[-93.70691,32.35461],[-93.70939,32.35911],[-93.71075,32.36027],[-93.71021,32.36154],[-93.70749,32.36074],[-93.70757,32.36328],[-93.71374,32.36328],[-93.71395,32.36327],[-93.71391,32.36926],[-93.71741,32.36924],[-93.71802,32.36924],[-93.71805,32.37645],[-93.7223,32.37648],[-93.72231,32.38009],[-93.72398,32.38011],[-93.73076,32.3916],[-93.73216,32.39108],[-93.73467,32.39095],[-93.73459,32.38366],[-93.73861,32.38419],[-93.73847,32.39093],[-93.74219,32.39092],[-93.74218,32.39021],[-93.74686,32.3902],[-93.74819,32.38952],[-93.7482,32.38383],[-93.75127,32.38381],[-93.75128,32.3874],[-93.75044,32.39044],[-93.75128,32.39044],[-93.75128,32.3875],[-93.75246,32.3875],[-93.75246,32.38973],[-93.75478,32.38972],[-93.75478,32.39095],[-93.75909,32.39098],[-93.75908,32.39282],[-93.7634,32.39317],[-93.7634,32.39461],[-93.76547,32.39465],[-93.76552,32.3929],[-93.7634,32.39285],[-93.76235,32.39099],[-93.76289,32.38919],[-93.76342,32.38923],[-93.76342,32.3893],[-93.76556,32.38928],[-93.76557,32.38738],[-93.76343,32.38737],[-93.75639,32.38741],[-93.75639,32.3862],[-93.75799,32.38618],[-93.75799,32.38558],[-93.76343,32.38555],[-93.76344,32.38464],[-93.77194,32.38466],[-93.77195,32.38384],[-93.78053,32.38376],[-93.78053,32.38355],[-93.78054,32.38171],[-93.78055,32.38016],[-93.78157,32.38015],[-93.78155,32.38171],[-93.78577,32.38175],[-93.78581,32.38013],[-93.7879,32.38014],[-93.78786,32.38177],[-93.78917,32.38178],[-93.78922,32.37656],[-93.79352,32.37659],[-93.79353,32.37277],[-93.79775,32.37277],[-93.79781,32.38185],[-93.80746,32.38195],[-93.81916,32.38201],[-93.81962,32.38104],[-93.82329,32.3807],[-93.8233,32.37685],[-93.82231,32.37678],[-93.82229,32.37471],[-93.82267,32.37413],[-93.82846,32.37415],[-93.82842,32.37689],[-93.83172,32.37692],[-93.83612,32.37695],[-93.83612,32.37762],[-93.83613,32.38043],[-93.84039,32.38042],[-93.84037,32.38244],[-93.83862,32.38428],[-93.83862,32.39138],[-93.83625,32.39139],[-93.83614,32.38427],[-93.82944,32.38715],[-93.83172,32.38845],[-93.83194,32.38893],[-93.83194,32.39401],[-93.83528,32.39402],[-93.83573,32.39543],[-93.83577,32.39768],[-93.83513,32.39869],[-93.83725,32.39867],[-93.83721,32.40206],[-93.83191,32.4021],[-93.8319,32.40221],[-93.83178,32.40754],[-93.83173,32.40954],[-93.82941,32.40947],[-93.82943,32.40754],[-93.82696,32.40754],[-93.82596,32.40768],[-93.82585,32.41311],[-93.82418,32.41311],[-93.82421,32.41765],[-93.82496,32.41776],[-93.82735,32.4183],[-93.82742,32.41832],[-93.82739,32.42042],[-93.82934,32.42039],[-93.82428,32.42542],[-93.82891,32.43047],[-93.83045,32.42947],[-93.8314,32.43029],[-93.83282,32.42928],[-93.8328,32.4276],[-93.83841,32.42755],[-93.83581,32.42335],[-93.83163,32.42009],[-93.83163,32.41867],[-93.83682,32.41356],[-93.83986,32.41353],[-93.84035,32.41082],[-93.84789,32.4095],[-93.84887,32.40879],[-93.84772,32.4079],[-93.84646,32.4036],[-93.84486,32.40267],[-93.84474,32.40262],[-93.84403,32.40447],[-93.84283,32.40411],[-93.84353,32.40214],[-93.84049,32.40216],[-93.84041,32.39515],[-93.84498,32.3948],[-93.84461,32.39141],[-93.84892,32.39142],[-93.84893,32.39264],[-93.85749,32.39409],[-93.85747,32.39878],[-93.85875,32.39879],[-93.85873,32.40192],[-93.8607,32.40191],[-93.86069,32.39885],[-93.86172,32.39886],[-93.86175,32.40204],[-93.86169,32.40603],[-93.85742,32.40599],[-93.85759,32.40957],[-93.85966,32.40959],[-93.85937,32.41289],[-93.87426,32.41863],[-93.87429,32.41327],[-93.86596,32.41333],[-93.86609,32.40338],[-93.8662,32.39525],[-93.87449,32.39521],[-93.87459,32.39899],[-93.88313,32.39885],[-93.88311,32.4043],[-93.89178,32.40443],[-93.89166,32.39548],[-93.88756,32.39536],[-93.88742,32.39223],[-93.89005,32.39214],[-93.88998,32.39055],[-93.89177,32.39076],[-93.89203,32.39193],[-93.90013,32.39176],[-93.90013,32.38445],[-93.90447,32.38454],[-93.9044,32.39184],[-93.90013,32.39188],[-93.90013,32.39373],[-93.89358,32.39366],[-93.8937,32.39907],[-93.89592,32.39906],[-93.89586,32.39582],[-93.90013,32.39589],[-93.90013,32.40026],[-93.90118,32.39982],[-93.90222,32.39945],[-93.90226,32.40625],[-93.92478,32.40638],[-93.92478,32.4103],[-93.92361,32.41027],[-93.92376,32.41342],[-93.92272,32.41222],[-93.92155,32.41354],[-93.92042,32.41353],[-93.91729,32.41351],[-93.91731,32.40986],[-93.9151,32.40983],[-93.91516,32.41363],[-93.9116,32.4136],[-93.91158,32.41456],[-93.91139,32.40983],[-93.90872,32.40983],[-93.90869,32.41345],[-93.90018,32.41338],[-93.90015,32.41699],[-93.89973,32.41716],[-93.89995,32.41759],[-93.89775,32.41805],[-93.89676,32.41669],[-93.89846,32.41588],[-93.8971,32.41505],[-93.89164,32.41299],[-93.89152,32.42084],[-93.88732,32.42079],[-93.88738,32.42403],[-93.88307,32.42235],[-93.88297,32.41461],[-93.88016,32.41626],[-93.87796,32.41858],[-93.8816,32.42002],[-93.88092,32.42138],[-93.87731,32.42004],[-93.87732,32.4227],[-93.88047,32.42271],[-93.88058,32.42779],[-93.87674,32.42777],[-93.87672,32.4296],[-93.87777,32.43137],[-93.87776,32.43318],[-93.87669,32.43318],[-93.87665,32.43865],[-93.87433,32.43863],[-93.8743,32.44226],[-93.8829,32.44228],[-93.88303,32.43512],[-93.88734,32.43509],[-93.88729,32.44053],[-93.89142,32.4406],[-93.89144,32.43874],[-93.89785,32.43874],[-93.89786,32.43969],[-93.89996,32.4397],[-93.89998,32.4379],[-93.89787,32.43788],[-93.89787,32.43518],[-93.90015,32.43526],[-93.90015,32.43486],[-93.90805,32.43494],[-93.90914,32.43744],[-93.91189,32.43747],[-93.91183,32.4423],[-93.91944,32.44238],[-93.91951,32.43678],[-93.92048,32.43715],[-93.92042,32.44239],[-93.92332,32.44243],[-93.9247,32.44244],[-93.92472,32.43856],[-93.92511,32.43871],[-93.92853,32.44002],[-93.92855,32.43336],[-93.92682,32.43332],[-93.92678,32.43516],[-93.92502,32.43516],[-93.92511,32.43257],[-93.93422,32.43265],[-93.93422,32.44219],[-93.9363,32.44333],[-93.9358,32.44399],[-93.93408,32.44488],[-93.92763,32.44523],[-93.91492,32.44647],[-93.91365,32.44659],[-93.91362,32.45084],[-93.9127,32.45084],[-93.91244,32.45701],[-93.90821,32.45694],[-93.90816,32.46416],[-93.89968,32.46411],[-93.89966,32.45033],[-93.8991,32.44942],[-93.89682,32.45071],[-93.89673,32.44776],[-93.87425,32.44992],[-93.87412,32.45676],[-93.87468,32.45676],[-93.87466,32.45287],[-93.87743,32.45302],[-93.87697,32.45676],[-93.87846,32.45676],[-93.87838,32.46401],[-93.88283,32.46407],[-93.88281,32.46859],[-93.88279,32.47131],[-93.87418,32.47126],[-93.87405,32.47961],[-93.88102,32.47865],[-93.88256,32.47862],[-93.88259,32.47285],[-93.88568,32.47287],[-93.88496,32.4758],[-93.88499,32.47817],[-93.88725,32.47778],[-93.88963,32.47819],[-93.88953,32.48172],[-93.88687,32.48119],[-93.88675,32.48578],[-93.87831,32.48589],[-93.87824,32.49117],[-93.87613,32.49117],[-93.87611,32.49299],[-93.87822,32.493],[-93.87821,32.49468],[-93.88218,32.49545],[-93.88341,32.49433],[-93.88517,32.49967],[-93.88832,32.50287],[-93.8896,32.50234],[-93.88862,32.50401],[-93.89049,32.50329],[-93.8908,32.50342],[-93.89043,32.50419],[-93.89045,32.50485],[-93.88983,32.5047],[-93.88917,32.50502],[-93.88864,32.50619],[-93.88798,32.50603],[-93.88852,32.50566],[-93.88798,32.50483],[-93.88585,32.50534],[-93.88685,32.50822],[-93.88942,32.51176],[-93.89045,32.51092],[-93.89306,32.51149],[-93.89453,32.51113],[-93.8972,32.51229],[-93.89843,32.51144],[-93.90207,32.51031],[-93.90056,32.50776],[-93.90238,32.5069],[-93.90264,32.50566],[-93.90134,32.50574],[-93.90234,32.50439],[-93.90288,32.50197],[-93.90393,32.50477],[-93.90385,32.50585],[-93.90317,32.50809],[-93.90549,32.50948],[-93.90967,32.50923],[-93.91074,32.51003],[-93.91226,32.51248],[-93.91328,32.51141],[-93.91207,32.51099],[-93.91369,32.50791],[-93.91487,32.50966],[-93.91651,32.50751],[-93.91743,32.50794],[-93.92012,32.50705],[-93.92289,32.50339],[-93.92234,32.50107],[-93.92377,32.49945],[-93.92552,32.49552],[-93.92785,32.49606],[-93.92657,32.49712],[-93.92819,32.497],[-93.92926,32.49967],[-93.93094,32.4988],[-93.93231,32.49893],[-93.93199,32.50082],[-93.93504,32.5017],[-93.9377,32.5014],[-93.93841,32.50252],[-93.93893,32.5011],[-93.9402,32.50302],[-93.93634,32.50251],[-93.93268,32.50339],[-93.93212,32.50488],[-93.92988,32.50528],[-93.92843,32.50681],[-93.9291,32.50764],[-93.93102,32.5072],[-93.93259,32.50901],[-93.93263,32.50807],[-93.93507,32.50905],[-93.93388,32.51113],[-93.93129,32.51184],[-93.93255,32.51255],[-93.93304,32.51411],[-93.93534,32.51253],[-93.93747,32.51292],[-93.94105,32.51263],[-93.9426,32.5134],[-93.94057,32.51379],[-93.94191,32.51466],[-93.94267,32.51365],[-93.94432,32.51574],[-93.94591,32.5152],[-93.94643,32.51389],[-93.94818,32.51449],[-93.94616,32.51527],[-93.94716,32.51618],[-93.94589,32.51668],[-93.94705,32.51789],[-93.94767,32.51678],[-93.94917,32.51636],[-93.94761,32.51835],[-93.94662,32.51823],[-93.94549,32.51868]],[[-93.70214,32.49539],[-93.70167,32.49577],[-93.7056,32.49882],[-93.70538,32.49793],[-93.70214,32.49539]],[[-93.68113,32.46682],[-93.68078,32.46594],[-93.68196,32.47103],[-93.68377,32.47611],[-93.68465,32.47712],[-93.68596,32.47955],[-93.68306,32.47358],[-93.68113,32.46682]],[[-93.92744,32.51255],[-93.92682,32.5127],[-93.92642,32.51203],[-93.92639,32.51153],[-93.92671,32.50956],[-93.92663,32.5096],[-93.92643,32.50966],[-93.92629,32.50974],[-93.92611,32.50963],[-93.92601,32.50964],[-93.92603,32.50971],[-93.926,32.50971],[-93.92575,32.50966],[-93.92573,32.50963],[-93.92566,32.50959],[-93.92535,32.50956],[-93.92516,32.50948],[-93.92499,32.50925],[-93.92492,32.50915],[-93.92476,32.50908],[-93.92464,32.5091],[-93.92457,32.50917],[-93.92462,32.50927],[-93.92473,32.5095],[-93.92494,32.50971],[-93.92503,32.50975],[-93.92534,32.50977],[-93.92572,32.50974],[-93.92578,32.50979],[-93.92555,32.51007],[-93.92548,32.51011],[-93.9253,32.51013],[-93.92499,32.51029],[-93.92475,32.51045],[-93.92436,32.51061],[-93.92403,32.5105],[-93.92378,32.5103],[-93.9234,32.51006],[-93.92346,32.50979],[-93.92343,32.50975],[-93.92338,32.50973],[-93.92307,32.5097],[-93.92275,32.50968],[-93.92248,32.50971],[-93.92136,32.51057],[-93.92114,32.51143],[-93.92352,32.51043],[-93.92409,32.51077],[-93.92504,32.51075],[-93.92583,32.51009],[-93.92644,32.51082],[-93.92586,32.51291],[-93.92762,32.51389],[-93.92691,32.51286],[-93.9284,32.51358],[-93.93042,32.5151],[-93.92866,32.5161],[-93.92926,32.51683],[-93.93153,32.51666],[-93.93279,32.5157],[-93.93266,32.51322],[-93.92833,32.51222],[-93.92792,32.51229],[-93.92744,32.51255]],[[-93.92734,32.50902],[-93.92582,32.50771],[-93.92685,32.50889],[-93.92645,32.51181],[-93.92816,32.51218],[-93.92866,32.51036],[-93.92781,32.5071],[-93.92656,32.50654],[-93.92734,32.50902]],[[-93.87399,32.49492],[-93.87274,32.49541],[-93.87272,32.49742],[-93.87402,32.49743],[-93.87517,32.49617],[-93.87521,32.49871],[-93.87616,32.4987],[-93.87625,32.50032],[-93.87756,32.50186],[-93.87601,32.50424],[-93.87649,32.5048],[-93.87846,32.50604],[-93.87955,32.50406],[-93.87902,32.50218],[-93.87945,32.50212],[-93.87935,32.4982],[-93.87973,32.49721],[-93.87718,32.49752],[-93.87536,32.49554],[-93.87399,32.49492]],[[-93.86072,32.47122],[-93.84143,32.47103],[-93.84189,32.47336],[-93.84086,32.47326],[-93.84094,32.47124],[-93.83991,32.4734],[-93.84319,32.47358],[-93.84416,32.47477],[-93.84413,32.47838],[-93.84844,32.47838],[-93.84861,32.48],[-93.85044,32.47998],[-93.85083,32.4767],[-93.84947,32.47657],[-93.84849,32.47615],[-93.84964,32.47517],[-93.84995,32.47295],[-93.84993,32.47637],[-93.85176,32.47651],[-93.85178,32.47295],[-93.8528,32.47293],[-93.85278,32.4767],[-93.85586,32.47682],[-93.85595,32.47841],[-93.8573,32.47892],[-93.85694,32.48241],[-93.85938,32.48181],[-93.85956,32.47749],[-93.85929,32.47747],[-93.85923,32.47657],[-93.86139,32.47773],[-93.86204,32.47799],[-93.86435,32.47957],[-93.8655,32.48013],[-93.8655,32.48007],[-93.86553,32.47539],[-93.86141,32.4754],[-93.86072,32.47348],[-93.86072,32.47122]],[[-93.84155,32.43669],[-93.84095,32.43384],[-93.84219,32.43487],[-93.84867,32.43556],[-93.85147,32.43669],[-93.85624,32.43472],[-93.85564,32.43368],[-93.85724,32.43303],[-93.85726,32.42767],[-93.84012,32.42756],[-93.84023,32.43669],[-93.84155,32.43669]],[[-93.84869,32.43797],[-93.8487,32.44216],[-93.84939,32.44216],[-93.84934,32.43868],[-93.85076,32.43865],[-93.85066,32.43702],[-93.84987,32.43735],[-93.84908,32.43774],[-93.84869,32.43797]],[[-93.83989,32.47503],[-93.83775,32.47474],[-93.83744,32.47318],[-93.83563,32.47296],[-93.83563,32.47403],[-93.83279,32.47838],[-93.83129,32.47834],[-93.83144,32.47144],[-93.82756,32.47118],[-93.82705,32.47133],[-93.82483,32.47237],[-93.82486,32.47323],[-93.82673,32.47318],[-93.82703,32.47689],[-93.82484,32.47692],[-93.82484,32.47476],[-93.82271,32.47476],[-93.82271,32.47831],[-93.81694,32.4783],[-93.81696,32.48385],[-93.81658,32.48565],[-93.82222,32.48562],[-93.82141,32.48961],[-93.81731,32.49102],[-93.81709,32.49451],[-93.82154,32.49515],[-93.82328,32.4925],[-93.82549,32.49326],[-93.82477,32.4942],[-93.82717,32.49419],[-93.83124,32.49221],[-93.83138,32.48713],[-93.83833,32.4871],[-93.83889,32.48834],[-93.84063,32.48937],[-93.8419,32.48866],[-93.84211,32.48709],[-93.84136,32.48586],[-93.83915,32.48567],[-93.83989,32.47503]],[[-93.82302,32.41313],[-93.81553,32.41319],[-93.81559,32.41744],[-93.81464,32.41744],[-93.81463,32.41845],[-93.81433,32.4183],[-93.81237,32.41792],[-93.81236,32.42034],[-93.81462,32.42032],[-93.81908,32.42038],[-93.82011,32.42083],[-93.82384,32.42493],[-93.82571,32.42308],[-93.82671,32.42042],[-93.82305,32.42041],[-93.82307,32.41762],[-93.82302,32.41313]],[[-93.82485,32.40579],[-93.82484,32.40224],[-93.82323,32.40224],[-93.82324,32.40579],[-93.82485,32.40579]],[[-93.81948,32.40534],[-93.81949,32.40225],[-93.81842,32.40225],[-93.81843,32.40535],[-93.81948,32.40534]],[[-93.80755,32.42031],[-93.80755,32.4177],[-93.80649,32.4177],[-93.80649,32.4203],[-93.80755,32.42031]],[[-93.8043,32.49824],[-93.80267,32.49687],[-93.80026,32.49725],[-93.8003,32.49997],[-93.79866,32.49991],[-93.79862,32.50138],[-93.80014,32.50235],[-93.80103,32.50236],[-93.80225,32.50163],[-93.80559,32.50146],[-93.80664,32.50052],[-93.80645,32.49931],[-93.80569,32.49882],[-93.80511,32.49908],[-93.8043,32.49824]],[[-93.80388,32.42027],[-93.80388,32.41768],[-93.80275,32.41766],[-93.80274,32.42027],[-93.80388,32.42027]],[[-93.77048,32.40439],[-93.77047,32.40561],[-93.77182,32.40563],[-93.77183,32.40497],[-93.77115,32.40497],[-93.77116,32.4044],[-93.77048,32.40439]],[[-93.75888,32.40924],[-93.75901,32.40558],[-93.75168,32.40567],[-93.7482,32.40566],[-93.7482,32.40753],[-93.74927,32.40753],[-93.74926,32.40929],[-93.75033,32.4093],[-93.7503,32.41103],[-93.74903,32.41105],[-93.74955,32.4147],[-93.74983,32.41508],[-93.75036,32.41546],[-93.75457,32.41961],[-93.75544,32.42035],[-93.75991,32.42035],[-93.75991,32.42033],[-93.76,32.42034],[-93.76,32.41904],[-93.75885,32.41982],[-93.75453,32.41927],[-93.75451,32.41475],[-93.75348,32.41474],[-93.75345,32.41294],[-93.75592,32.41295],[-93.75593,32.41106],[-93.75887,32.41107],[-93.75886,32.41296],[-93.76098,32.41297],[-93.76101,32.41108],[-93.75994,32.41108],[-93.75995,32.40924],[-93.75888,32.40924]],[[-93.73049,32.39756],[-93.73007,32.39813],[-93.72693,32.39896],[-93.72464,32.39814],[-93.72335,32.39728],[-93.72291,32.39769],[-93.72312,32.40442],[-93.72846,32.40632],[-93.72897,32.40557],[-93.72985,32.40557],[-93.73095,32.40557],[-93.73434,32.40923],[-93.73734,32.40916],[-93.73685,32.40795],[-93.73845,32.40811],[-93.73791,32.40515],[-93.7356,32.40118],[-93.73394,32.39906],[-93.73049,32.39756]],[[-93.72451,32.391],[-93.7249,32.39355],[-93.72797,32.39276],[-93.73026,32.39181],[-93.72566,32.38378],[-93.72456,32.38374],[-93.72451,32.391]],[[-93.72605,32.39791],[-93.72731,32.39604],[-93.72677,32.39568],[-93.7254,32.39633],[-93.72473,32.3971],[-93.72605,32.39791]],[[-93.71152,32.40538],[-93.71151,32.40096],[-93.71088,32.40094],[-93.70913,32.40114],[-93.70751,32.40112],[-93.70877,32.40287],[-93.70855,32.4041],[-93.71067,32.40964],[-93.71112,32.41048],[-93.71222,32.4115],[-93.71276,32.41178],[-93.7129,32.41184],[-93.71412,32.41106],[-93.72349,32.41498],[-93.7254,32.41015],[-93.72206,32.40783],[-93.72197,32.40684],[-93.71152,32.40538]],[[-93.7163,32.38518],[-93.71399,32.38389],[-93.71412,32.3945],[-93.71633,32.39482],[-93.71878,32.39582],[-93.7215,32.39614],[-93.72301,32.39721],[-93.72482,32.39387],[-93.72386,32.39151],[-93.72129,32.38958],[-93.71808,32.38695],[-93.7163,32.38518]],[[-93.71643,32.49095],[-93.71436,32.49092],[-93.71373,32.48819],[-93.71229,32.48901],[-93.71426,32.49353],[-93.71789,32.49209],[-93.71765,32.48846],[-93.71748,32.48833],[-93.71743,32.49158],[-93.71643,32.49095]],[[-93.70754,32.43242],[-93.70333,32.43438],[-93.70268,32.43483],[-93.70359,32.43708],[-93.70455,32.43883],[-93.7054,32.43921],[-93.70564,32.43812],[-93.70925,32.44007],[-93.71123,32.44072],[-93.70988,32.43879],[-93.71094,32.43523],[-93.7106,32.43485],[-93.70754,32.43242]],[[-93.69275,32.40351],[-93.69539,32.40351],[-93.69521,32.40322],[-93.69354,32.40257],[-93.69281,32.40255],[-93.69275,32.40351]],[[-93.68834,32.43072],[-93.68581,32.4339],[-93.68452,32.43391],[-93.68323,32.4333],[-93.68204,32.43413],[-93.68458,32.43567],[-93.68503,32.43603],[-93.68629,32.43497],[-93.68847,32.43279],[-93.68986,32.43177],[-93.69191,32.43076],[-93.69472,32.43026],[-93.69421,32.42938],[-93.69151,32.42909],[-93.68922,32.42998],[-93.68834,32.43072]],[[-93.69233,32.41497],[-93.69215,32.41435],[-93.68623,32.4145],[-93.68626,32.41514],[-93.69233,32.41497]],[[-93.72886,32.58041],[-93.72715,32.57989],[-93.72717,32.5829],[-93.73135,32.58291],[-93.73131,32.58147],[-93.73057,32.581],[-93.73057,32.58028],[-93.72886,32.58041]],[[-93.7289,32.58025],[-93.73,32.58014],[-93.73001,32.57925],[-93.72714,32.57924],[-93.72715,32.57976],[-93.7289,32.58025]],[[-93.701,32.56007],[-93.70545,32.56106],[-93.70542,32.55754],[-93.70306,32.5575],[-93.70115,32.55765],[-93.701,32.56007]],[[-93.70169,32.55678],[-93.70166,32.5533],[-93.69686,32.55291],[-93.697,32.55681],[-93.70169,32.55678]],[[-93.69242,32.54755],[-93.69685,32.54756],[-93.6968,32.54299],[-93.69654,32.54304],[-93.69246,32.54421],[-93.69242,32.54755]],[[-93.68882,32.55205],[-93.6888,32.55102],[-93.68833,32.55232],[-93.6905,32.55234],[-93.69119,32.55176],[-93.69047,32.5512],[-93.68951,32.55181],[-93.68882,32.55205]],[[-93.6773,32.55164],[-93.67883,32.55439],[-93.68152,32.55385],[-93.68224,32.55371],[-93.6823,32.55206],[-93.681,32.55204],[-93.68103,32.55069],[-93.6773,32.55164]],[[-93.66443,32.4631],[-93.66488,32.46368],[-93.66556,32.46299],[-93.66557,32.46254],[-93.66635,32.4622],[-93.66765,32.4622],[-93.66765,32.46154],[-93.6652,32.46155],[-93.6652,32.46268],[-93.66443,32.4631]],[[-93.65775,32.46518],[-93.65896,32.46518],[-93.65894,32.4649],[-93.6567,32.46493],[-93.6567,32.46498],[-93.65775,32.46518]],[[-93.6576,32.45398],[-93.65894,32.4501],[-93.65825,32.44694],[-93.65653,32.44695],[-93.65664,32.45277],[-93.6576,32.45398]],[[-93.63984,32.57255],[-93.63965,32.57416],[-93.64123,32.57433],[-93.64271,32.57464],[-93.64322,32.57098],[-93.64047,32.57052],[-93.64038,32.57096],[-93.63984,32.57255]]],[[[-93.7142,32.59678],[-93.71419,32.59395],[-93.71402,32.59247],[-93.71198,32.59247],[-93.71195,32.59024],[-93.70632,32.59026],[-93.70559,32.59002],[-93.70534,32.58847],[-93.70536,32.5829],[-93.71413,32.58292],[-93.71418,32.59022],[-93.71418,32.591],[-93.71521,32.59022],[-93.72061,32.59017],[-93.72271,32.5935],[-93.72284,32.59575],[-93.71809,32.59573],[-93.71801,32.59678],[-93.7142,32.59678]]]]}},{"type":"Feature","properties":{"name":"St. Landry Parish CAA Transit","boundary_type":"county","source":"Census TIGER county","fidelity":"approximate","updated":"2026-09","units":"St. Landry Parish","note":"Primary service in St. Landry Parish (Opelousas area); trips extend into Lafayette Parish and neighboring parishes as scheduling permits. Scoped to primary parish.","confidence":0.75},"geometry":{"type":"Polygon","coordinates":[[[-92.491,30.48286],[-92.49069,30.4843],[-92.48954,30.48577],[-92.48839,30.48576],[-92.48796,30.48719],[-92.48566,30.48921],[-92.4845,30.48872],[-92.48364,30.48993],[-92.48393,30.49117],[-92.48201,30.49052],[-92.48241,30.49131],[-92.48034,30.49166],[-92.47798,30.49294],[-92.47851,30.49451],[-92.47749,30.49535],[-92.47587,30.49439],[-92.47333,30.49526],[-92.47161,30.49465],[-92.47149,30.49361],[-92.47004,30.49375],[-92.46903,30.49472],[-92.46744,30.49515],[-92.46463,30.49498],[-92.46484,30.49889],[-92.46286,30.49962],[-92.46272,30.50194],[-92.46415,30.5033],[-92.46337,30.50594],[-92.46481,30.50745],[-92.46397,30.50827],[-92.46361,30.51047],[-92.46432,30.5127],[-92.46422,30.51403],[-92.46251,30.51477],[-92.46129,30.516],[-92.46223,30.5176],[-92.46008,30.5181],[-92.46066,30.51924],[-92.45993,30.52201],[-92.46143,30.52396],[-92.46112,30.52462],[-92.45928,30.52468],[-92.45817,30.52609],[-92.45891,30.52793],[-92.45765,30.52803],[-92.45701,30.52709],[-92.45513,30.52725],[-92.45428,30.52859],[-92.45269,30.52785],[-92.45248,30.53063],[-92.45015,30.53084],[-92.44997,30.53272],[-92.44875,30.53286],[-92.44937,30.53419],[-92.44689,30.53383],[-92.44546,30.53473],[-92.44397,30.53328],[-92.44347,30.53434],[-92.44121,30.53341],[-92.44096,30.53454],[-92.43811,30.53484],[-92.43729,30.53617],[-92.43557,30.53571],[-92.43462,30.53679],[-92.43325,30.53657],[-92.43069,30.53374],[-92.4302,30.53481],[-92.42834,30.53458],[-92.4265,30.53596],[-92.42729,30.53689],[-92.4268,30.53852],[-92.42604,30.53835],[-92.42454,30.53678],[-92.42112,30.5373],[-92.42078,30.53882],[-92.41764,30.53798],[-92.41497,30.53881],[-92.35951,30.53891],[-92.28098,30.53886],[-92.27971,30.53877],[-92.26272,30.53874],[-92.26236,30.56827],[-92.2139,30.56823],[-92.21314,30.56811],[-92.21148,30.56813],[-92.21138,30.57553],[-92.21151,30.5765],[-92.21155,30.58884],[-92.21152,30.61717],[-92.21042,30.61946],[-92.20773,30.62025],[-92.20616,30.62216],[-92.2061,30.62307],[-92.20394,30.6252],[-92.20429,30.62772],[-92.20534,30.62959],[-92.20447,30.63293],[-92.20512,30.63539],[-92.20337,30.63705],[-92.20467,30.63921],[-92.20467,30.64075],[-92.20295,30.64393],[-92.20028,30.6478],[-92.20085,30.65116],[-92.20045,30.65615],[-92.19757,30.65682],[-92.19396,30.65933],[-92.19027,30.66327],[-92.18706,30.66593],[-92.18543,30.66658],[-92.18076,30.66579],[-92.17866,30.66685],[-92.17701,30.6717],[-92.17675,30.67322],[-92.17439,30.67601],[-92.17329,30.67555],[-92.17248,30.67383],[-92.17249,30.68474],[-92.17251,30.71815],[-92.17238,30.76244],[-92.17235,30.76461],[-92.17269,30.76799],[-92.17665,30.7682],[-92.18237,30.77021],[-92.18555,30.77422],[-92.1886,30.77702],[-92.19113,30.77837],[-92.19753,30.77964],[-92.19929,30.78143],[-92.20279,30.78225],[-92.20691,30.78475],[-92.208,30.78668],[-92.20758,30.78775],[-92.21023,30.79225],[-92.21139,30.79316],[-92.21141,30.83169],[-92.21273,30.84692],[-92.21259,30.84861],[-92.21034,30.84865],[-92.10052,30.84996],[-92.05702,30.84963],[-92.02998,30.84946],[-91.96409,30.8495],[-91.94904,30.84935],[-91.8557,30.84817],[-91.84905,30.84821],[-91.81526,30.84811],[-91.81331,30.84682],[-91.80938,30.84345],[-91.80462,30.84073],[-91.80111,30.83752],[-91.79945,30.83428],[-91.79846,30.82899],[-91.8016,30.82449],[-91.80383,30.82373],[-91.80752,30.8203],[-91.80832,30.81788],[-91.80834,30.81448],[-91.80729,30.81107],[-91.80331,30.80729],[-91.80101,30.80674],[-91.79439,30.8025],[-91.79287,30.80116],[-91.78988,30.79956],[-91.78677,30.7975],[-91.78211,30.79636],[-91.77744,30.79357],[-91.77392,30.79039],[-91.76876,30.78539],[-91.76553,30.77997],[-91.76335,30.77204],[-91.76017,30.76578],[-91.75628,30.76013],[-91.75522,30.75657],[-91.75589,30.75018],[-91.75685,30.7487],[-91.75795,30.74557],[-91.75794,30.74099],[-91.7542,30.73732],[-91.7519,30.7358],[-91.75142,30.73428],[-91.74802,30.72828],[-91.74654,30.72355],[-91.74332,30.7185],[-91.7394,30.71419],[-91.73747,30.71146],[-91.73628,30.70911],[-91.73395,30.70341],[-91.73367,30.70173],[-91.73364,30.69645],[-91.734,30.69217],[-91.73439,30.69092],[-91.73516,30.68839],[-91.73621,30.68423],[-91.7362,30.67925],[-91.73529,30.67799],[-91.73235,30.67246],[-91.73149,30.66977],[-91.73283,30.66797],[-91.73481,30.6667],[-91.73824,30.6645],[-91.74174,30.66357],[-91.74454,30.66242],[-91.74643,30.65878],[-91.746,30.65255],[-91.74396,30.63978],[-91.741,30.63254],[-91.7414,30.63084],[-91.74332,30.6275],[-91.74501,30.62519],[-91.74674,30.62462],[-91.75011,30.62272],[-91.75225,30.62054],[-91.754,30.61743],[-91.75465,30.61453],[-91.75473,30.61245],[-91.75385,30.60812],[-91.75136,30.6037],[-91.75089,30.60132],[-91.75107,30.59888],[-91.75208,30.59658],[-91.75354,30.58838],[-91.75423,30.58609],[-91.75444,30.57423],[-91.75497,30.57188],[-91.75664,30.56863],[-91.75719,30.56681],[-91.7573,30.56425],[-91.75698,30.56255],[-91.75353,30.55482],[-91.75158,30.5517],[-91.74947,30.54642],[-91.74929,30.54611],[-91.7458,30.53912],[-91.74218,30.53158],[-91.73967,30.52786],[-91.7364,30.52512],[-91.7343,30.52262],[-91.73282,30.52031],[-91.73198,30.51778],[-91.73175,30.51442],[-91.73143,30.51212],[-91.73252,30.5101],[-91.73592,30.50824],[-91.74307,30.5086],[-91.74735,30.50909],[-91.75011,30.50859],[-91.75378,30.50623],[-91.75498,30.50409],[-91.75629,30.50019],[-91.75621,30.49813],[-91.7556,30.49303],[-91.75416,30.48533],[-91.75238,30.48123],[-91.75064,30.47857],[-91.74867,30.47756],[-91.74384,30.47058],[-91.74234,30.46637],[-91.74207,30.45748],[-91.73968,30.45304],[-91.73654,30.45149],[-91.73034,30.45168],[-91.72264,30.45233],[-91.71868,30.4489],[-91.71595,30.44321],[-91.71525,30.43727],[-91.71329,30.43189],[-91.70356,30.42208],[-91.6985,30.41461],[-91.69522,30.4038],[-91.6943,30.40175],[-91.68934,30.39986],[-91.68458,30.39903],[-91.68014,30.39715],[-91.6789,30.39473],[-91.74872,30.39423],[-91.75251,30.39446],[-91.76486,30.39442],[-91.80283,30.39428],[-91.81271,30.39426],[-91.81485,30.39552],[-91.81502,30.39659],[-91.81675,30.398],[-91.82047,30.4],[-91.8238,30.39999],[-91.82694,30.40212],[-91.8286,30.40197],[-91.83188,30.40326],[-91.83234,30.40513],[-91.83504,30.40653],[-91.83662,30.40637],[-91.83869,30.40723],[-91.84237,30.40668],[-91.84721,30.40706],[-91.84942,30.40679],[-91.85222,30.41024],[-91.85311,30.41273],[-91.85622,30.41274],[-91.85751,30.41225],[-91.8616,30.41311],[-91.86304,30.41352],[-91.86413,30.41304],[-91.86927,30.41724],[-91.87146,30.41656],[-91.90424,30.40546],[-91.9074,30.40441],[-91.92548,30.39827],[-91.92633,30.39804],[-91.93052,30.39662],[-91.93163,30.39675],[-91.93691,30.39474],[-91.9379,30.39503],[-91.94129,30.39559],[-91.94264,30.39717],[-91.94753,30.40017],[-91.95002,30.40008],[-91.95705,30.40345],[-91.95837,30.40512],[-91.96229,30.40695],[-91.96337,30.4089],[-91.9657,30.41037],[-91.96747,30.40986],[-91.97003,30.41021],[-91.97818,30.4074],[-91.98032,30.40339],[-91.98,30.40161],[-91.98172,30.39659],[-91.98153,30.39526],[-91.98251,30.39306],[-91.98192,30.39017],[-91.98317,30.38864],[-91.98147,30.38169],[-91.98419,30.3783],[-91.9858,30.37568],[-91.98584,30.37405],[-91.98866,30.36962],[-91.98872,30.3686],[-91.99205,30.36943],[-91.99339,30.37029],[-91.99585,30.36989],[-92.00012,30.3678],[-92.00068,30.36641],[-92.00024,30.36502],[-92.00102,30.3645],[-92.00439,30.36574],[-92.00653,30.36741],[-92.00889,30.3675],[-92.00956,30.36769],[-92.01145,30.37062],[-92.01477,30.37168],[-92.01577,30.37139],[-92.01773,30.36827],[-92.01985,30.3666],[-92.02312,30.3665],[-92.02432,30.3653],[-92.02412,30.36324],[-92.02513,30.36108],[-92.02702,30.3599],[-92.02931,30.36142],[-92.03119,30.3611],[-92.03242,30.36217],[-92.03529,30.36275],[-92.03512,30.364],[-92.03622,30.36538],[-92.03875,30.36605],[-92.03801,30.3676],[-92.04137,30.36849],[-92.04212,30.3714],[-92.04028,30.37352],[-92.04262,30.3765],[-92.04483,30.37819],[-92.04695,30.37808],[-92.04885,30.37956],[-92.04943,30.38131],[-92.05049,30.38083],[-92.05043,30.37931],[-92.0528,30.37908],[-92.0533,30.37899],[-92.05607,30.37824],[-92.05728,30.37608],[-92.06132,30.3732],[-92.06271,30.37062],[-92.06479,30.36929],[-92.06505,30.36832],[-92.06714,30.36689],[-92.07029,30.36633],[-92.07377,30.36456],[-92.07457,30.36594],[-92.07706,30.36524],[-92.07834,30.3623],[-92.08332,30.3606],[-92.08394,30.36008],[-92.08456,30.35821],[-92.08414,30.35478],[-92.08455,30.35281],[-92.08618,30.35091],[-92.08481,30.34808],[-92.08482,30.34579],[-92.08679,30.34392],[-92.08712,30.3426],[-92.08546,30.341],[-92.08542,30.33952],[-92.08852,30.336],[-92.08949,30.33374],[-92.08921,30.33051],[-92.09057,30.32942],[-92.09523,30.32988],[-92.09785,30.32796],[-92.09822,30.3275],[-92.10174,30.32569],[-92.11613,30.3161],[-92.14218,30.29882],[-92.14179,30.30984],[-92.14151,30.32076],[-92.15845,30.32079],[-92.1586,30.34991],[-92.17578,30.3497],[-92.17595,30.37147],[-92.17612,30.38598],[-92.17606,30.40047],[-92.17643,30.42103],[-92.17644,30.43685],[-92.20724,30.43689],[-92.21767,30.43681],[-92.21847,30.43678],[-92.24425,30.43668],[-92.24479,30.48019],[-92.26903,30.48019],[-92.27231,30.48044],[-92.33449,30.48028],[-92.35711,30.48021],[-92.38176,30.48028],[-92.38354,30.48002],[-92.38918,30.48],[-92.39765,30.48004],[-92.40193,30.48004],[-92.41287,30.48007],[-92.41357,30.48006],[-92.41476,30.48004],[-92.4158,30.47997],[-92.42009,30.48001],[-92.42367,30.48002],[-92.42681,30.48005],[-92.42748,30.48005],[-92.43154,30.48007],[-92.43175,30.4802],[-92.43611,30.48026],[-92.45885,30.48041],[-92.45916,30.48037],[-92.46568,30.48037],[-92.49326,30.4805],[-92.49302,30.48157],[-92.491,30.48286]]]}}]}