{"type":"FeatureCollection","features":[{"type":"Feature","properties":{"name":"BAT Flex","boundary_type":"places","source":"Census TIGER place","fidelity":"exact","updated":"2026-09","units":"Rockland town; Bridgewater Town city","note":"Two towns in Plymouth County area (Bridgewater Cares Microtransit component)","confidence":0.85},"geometry":{"type":"MultiPolygon","coordinates":[[[[-71.02526,41.99134],[-71.00272,41.99805],[-70.99061,42.00391],[-70.98097,42.00675],[-70.97879,42.0074],[-70.97958,42.011],[-70.96549,42.00821],[-70.95398,42.00591],[-70.94255,42.00661],[-70.93919,42.00735],[-70.93917,42.00731],[-70.93479,42.00785],[-70.93147,42.00778],[-70.93031,42.0078],[-70.92602,42.00894],[-70.92539,42.00886],[-70.92048,42.00715],[-70.91863,42.00596],[-70.91754,42.00473],[-70.91755,42.00243],[-70.91414,41.99881],[-70.91407,41.99855],[-70.91306,41.99708],[-70.91092,41.99672],[-70.90927,41.99623],[-70.90285,41.99659],[-70.89918,41.99632],[-70.89977,41.98828],[-70.9014,41.98298],[-70.91148,41.98023],[-70.91223,41.97845],[-70.91173,41.97701],[-70.90862,41.97424],[-70.90887,41.97241],[-70.90728,41.9702],[-70.90728,41.96747],[-70.90853,41.96639],[-70.91083,41.96601],[-70.90985,41.96418],[-70.91248,41.96313],[-70.91343,41.96336],[-70.91481,41.96214],[-70.91355,41.96131],[-70.91472,41.96099],[-70.91741,41.96191],[-70.91962,41.96206],[-70.92038,41.96313],[-70.92179,41.96248],[-70.92284,41.95956],[-70.92378,41.95902],[-70.92824,41.96018],[-70.93206,41.9591],[-70.93393,41.95703],[-70.93437,41.95526],[-70.93584,41.95356],[-70.93678,41.94998],[-70.93653,41.94748],[-70.93667,41.94545],[-70.93777,41.9439],[-70.93863,41.9415],[-70.94105,41.93847],[-70.94264,41.93739],[-70.94369,41.93492],[-70.94595,41.93283],[-70.94671,41.93264],[-70.94829,41.93418],[-70.9543,41.93461],[-70.95629,41.93398],[-70.95931,41.93479],[-70.96043,41.93582],[-70.96565,41.93675],[-70.96852,41.93851],[-70.97339,41.94005],[-70.97606,41.93939],[-70.97922,41.94045],[-70.98726,41.93748],[-70.98735,41.93628],[-70.98955,41.93201],[-70.99152,41.93162],[-70.99752,41.93424],[-70.99869,41.93214],[-70.99829,41.93063],[-70.99977,41.92967],[-71.01057,41.94008],[-71.01659,41.94387],[-71.02105,41.94641],[-71.04263,41.95952],[-71.04948,41.96309],[-71.04978,41.96431],[-71.05418,41.98272],[-71.02855,41.99036],[-71.02526,41.99134]]],[[[-70.92846,42.15618],[-70.92488,42.15758],[-70.91375,42.16192],[-70.91289,42.16226],[-70.89352,42.16981],[-70.89029,42.17174],[-70.88431,42.15372],[-70.90012,42.15174],[-70.89572,42.13797],[-70.89003,42.11982],[-70.88947,42.11803],[-70.88913,42.11273],[-70.88755,42.08796],[-70.90241,42.0859],[-70.91591,42.10012],[-70.92269,42.10728],[-70.9277,42.11256],[-70.93149,42.11655],[-70.93463,42.12835],[-70.94077,42.15136],[-70.93457,42.15379],[-70.92846,42.15618]]]]}},{"type":"Feature","properties":{"name":"CATA On Demand","boundary_type":"cousubs","source":"Census TIGER county subdivision","fidelity":"exact","updated":"2026-09","units":"Gloucester city; Rockport town","note":"Cape Ann area, two-town service.","confidence":0.95},"geometry":{"type":"MultiPolygon","coordinates":[[[[-70.58804,42.62641],[-70.59161,42.6275],[-70.59219,42.62947],[-70.58824,42.63061],[-70.58682,42.62816],[-70.58804,42.62641]]],[[[-70.73246,42.65396],[-70.73198,42.65418],[-70.72504,42.6652],[-70.71915,42.66375],[-70.70583,42.65825],[-70.69594,42.65583],[-70.69123,42.65579],[-70.68877,42.65261],[-70.68463,42.65181],[-70.68339,42.65319],[-70.68229,42.65442],[-70.67992,42.66034],[-70.6813,42.66148],[-70.68138,42.66226],[-70.6761,42.66616],[-70.67314,42.66655],[-70.67169,42.66773],[-70.66685,42.67172],[-70.66355,42.6776],[-70.65744,42.68152],[-70.65439,42.68169],[-70.64908,42.68564],[-70.64711,42.68786],[-70.64506,42.68854],[-70.6436,42.68749],[-70.64322,42.68512],[-70.6414,42.68505],[-70.64138,42.68505],[-70.64062,42.68584],[-70.63629,42.69029],[-70.63008,42.6927],[-70.62732,42.69141],[-70.62724,42.68842],[-70.62325,42.6869],[-70.62085,42.68684],[-70.62051,42.68461],[-70.6237,42.68157],[-70.6227,42.67835],[-70.62406,42.67691],[-70.62147,42.67274],[-70.62358,42.66799],[-70.62391,42.66723],[-70.62388,42.66716],[-70.62346,42.66601],[-70.6234,42.66586],[-70.62316,42.66521],[-70.623,42.66479],[-70.62284,42.66436],[-70.62393,42.66163],[-70.62163,42.65956],[-70.62072,42.65873],[-70.61892,42.65895],[-70.61799,42.65907],[-70.61613,42.66031],[-70.61489,42.66022],[-70.61473,42.66006],[-70.61347,42.65876],[-70.61326,42.65883],[-70.6105,42.65977],[-70.60717,42.65856],[-70.59858,42.65988],[-70.59742,42.65961],[-70.59745,42.65934],[-70.5976,42.6581],[-70.59505,42.65607],[-70.59746,42.65349],[-70.5971,42.65147],[-70.59174,42.64851],[-70.59586,42.64251],[-70.59541,42.64032],[-70.5924,42.64049],[-70.59147,42.63982],[-70.59401,42.63503],[-70.59782,42.63499],[-70.60324,42.63493],[-70.60513,42.6349],[-70.60561,42.6349],[-70.61083,42.63235],[-70.61223,42.63167],[-70.6159,42.62987],[-70.61842,42.62864],[-70.61801,42.62601],[-70.61792,42.62547],[-70.62048,42.62303],[-70.62717,42.62134],[-70.63222,42.6168],[-70.6323,42.61011],[-70.63233,42.60788],[-70.63563,42.60024],[-70.63581,42.60007],[-70.6417,42.59452],[-70.64609,42.59221],[-70.64804,42.58755],[-70.65473,42.58223],[-70.66489,42.58044],[-70.66604,42.58408],[-70.6639,42.58828],[-70.65962,42.59213],[-70.657,42.59826],[-70.65891,42.6035],[-70.6634,42.60728],[-70.66556,42.6091],[-70.67066,42.60838],[-70.67673,42.60753],[-70.67649,42.60333],[-70.68149,42.6007],[-70.68434,42.59616],[-70.6808,42.59346],[-70.6845,42.58886],[-70.68761,42.58633],[-70.68808,42.58595],[-70.69293,42.58421],[-70.69857,42.57739],[-70.70819,42.57558],[-70.71035,42.57257],[-70.71533,42.5723],[-70.71609,42.57389],[-70.71517,42.57596],[-70.71626,42.57908],[-70.71711,42.58151],[-70.72352,42.58433],[-70.73384,42.58811],[-70.74045,42.59],[-70.74565,42.59958],[-70.74661,42.60123],[-70.75743,42.62015],[-70.75047,42.62881],[-70.73957,42.6424],[-70.73827,42.64452],[-70.73246,42.65396]]],[[[-70.57351,42.63638],[-70.57565,42.63445],[-70.57871,42.63455],[-70.58028,42.63602],[-70.57509,42.63978],[-70.57338,42.63951],[-70.57351,42.63638]]],[[[-70.5881,42.66264],[-70.58757,42.66191],[-70.59,42.65898],[-70.59309,42.65931],[-70.59368,42.66046],[-70.59295,42.6612],[-70.59106,42.66131],[-70.58925,42.66275],[-70.5881,42.66264]]]]}},{"type":"Feature","properties":{"name":"CrossTown Connect","boundary_type":"cousubs","source":"Census TIGER county subdivision","fidelity":"exact","updated":"2026-09","units":"Acton town; Boxborough town; Littleton town; Maynard town; Westford town","note":"Five-town collaborative in northern MetroWest, centralized dispatch for COA and general public.","confidence":0.95},"geometry":{"type":"Polygon","coordinates":[[[-71.49855,42.46377],[-71.51878,42.46498],[-71.52298,42.46524],[-71.54339,42.46645],[-71.56037,42.47435],[-71.55069,42.48914],[-71.53485,42.51333],[-71.53272,42.51465],[-71.52984,42.51984],[-71.53138,42.52035],[-71.53376,42.52765],[-71.53878,42.54303],[-71.54232,42.55033],[-71.53303,42.55273],[-71.53238,42.55383],[-71.52788,42.55623],[-71.52319,42.55983],[-71.52089,42.56431],[-71.51146,42.56939],[-71.51141,42.56942],[-71.50641,42.57217],[-71.50304,42.57547],[-71.49801,42.57686],[-71.49757,42.58032],[-71.4948,42.60437],[-71.49353,42.6174],[-71.46516,42.63101],[-71.42211,42.65164],[-71.41764,42.65377],[-71.41439,42.64228],[-71.4109,42.62992],[-71.40709,42.61643],[-71.4054,42.61039],[-71.40198,42.59981],[-71.40023,42.59108],[-71.39781,42.58306],[-71.39767,42.58267],[-71.39067,42.55805],[-71.38836,42.54995],[-71.38474,42.5387],[-71.39511,42.53541],[-71.39951,42.53401],[-71.39794,42.52628],[-71.39156,42.50682],[-71.38496,42.50447],[-71.39388,42.49121],[-71.40813,42.47004],[-71.40845,42.46955],[-71.41495,42.4599],[-71.41737,42.4563],[-71.41762,42.45593],[-71.43039,42.43694],[-71.43449,42.42686],[-71.43581,42.42366],[-71.43659,42.42174],[-71.44268,42.40695],[-71.46944,42.40259],[-71.47438,42.42162],[-71.4745,42.42208],[-71.47477,42.42314],[-71.47481,42.42328],[-71.4776,42.43413],[-71.47838,42.4371],[-71.46435,42.4503],[-71.48807,42.45966],[-71.49855,42.46377]]]}},{"type":"Feature","properties":{"name":"FRTA Microtransit","boundary_type":"places","source":"Census TIGER place","fidelity":"exact","updated":"2026-09","units":"Greenfield city; Deerfield CDP; Montague town","note":"Three towns in Franklin County, rural microtransit covering first/last mile gaps","confidence":0.9},"geometry":{"type":"MultiPolygon","coordinates":[[[[-72.61049,42.55238],[-72.60921,42.55416],[-72.61003,42.55614],[-72.6113,42.56313],[-72.60991,42.56485],[-72.60717,42.56312],[-72.602,42.56049],[-72.59169,42.55473],[-72.59058,42.5431],[-72.59036,42.54317],[-72.59045,42.5421],[-72.59638,42.53499],[-72.59958,42.5348],[-72.59854,42.53193],[-72.60057,42.5317],[-72.60089,42.52925],[-72.60147,42.5299],[-72.60308,42.52988],[-72.60395,42.5287],[-72.60458,42.52868],[-72.60748,42.52994],[-72.60918,42.53143],[-72.61116,42.53223],[-72.60982,42.53614],[-72.60792,42.5383],[-72.60958,42.54118],[-72.61334,42.54222],[-72.61456,42.54553],[-72.61349,42.54745],[-72.61112,42.54841],[-72.61049,42.55238]]],[[[-72.54614,42.60537],[-72.54543,42.60354],[-72.54508,42.5981],[-72.54423,42.59716],[-72.5411,42.5964],[-72.53907,42.59678],[-72.53191,42.59935],[-72.52889,42.60083],[-72.52377,42.60392],[-72.52059,42.6045],[-72.51437,42.60442],[-72.50674,42.60377],[-72.50563,42.60303],[-72.50446,42.59989],[-72.503,42.59849],[-72.50009,42.59677],[-72.49707,42.59757],[-72.49638,42.5969],[-72.49617,42.59581],[-72.49642,42.59387],[-72.49506,42.59275],[-72.49786,42.58969],[-72.49807,42.58577],[-72.50366,42.58062],[-72.50351,42.58037],[-72.50225,42.57961],[-72.49768,42.58006],[-72.49352,42.58079],[-72.49057,42.57915],[-72.48691,42.57831],[-72.48264,42.5792],[-72.48138,42.57922],[-72.47725,42.57668],[-72.47629,42.57524],[-72.47475,42.57421],[-72.47043,42.57451],[-72.4661,42.57672],[-72.46381,42.57382],[-72.46426,42.57038],[-72.46238,42.56663],[-72.4597,42.5632],[-72.45556,42.5606],[-72.45393,42.5583],[-72.45275,42.55463],[-72.45363,42.54975],[-72.45964,42.51643],[-72.52093,42.51022],[-72.55677,42.5065],[-72.55531,42.50872],[-72.55516,42.51066],[-72.55645,42.51312],[-72.56337,42.51946],[-72.56704,42.52452],[-72.56827,42.5282],[-72.56882,42.5311],[-72.56874,42.53372],[-72.56619,42.53817],[-72.56392,42.54144],[-72.56248,42.54481],[-72.56001,42.54855],[-72.55788,42.55116],[-72.5558,42.55475],[-72.55615,42.56238],[-72.55716,42.56642],[-72.55995,42.57058],[-72.56109,42.57465],[-72.56204,42.57558],[-72.56526,42.57712],[-72.57042,42.57884],[-72.57477,42.57941],[-72.57508,42.57938],[-72.57814,42.57849],[-72.57809,42.57372],[-72.57924,42.57133],[-72.57981,42.57102],[-72.59132,42.56987],[-72.59285,42.56875],[-72.59466,42.56629],[-72.59647,42.56647],[-72.60007,42.56825],[-72.60147,42.57077],[-72.60287,42.5718],[-72.60539,42.57177],[-72.60879,42.57004],[-72.61309,42.56979],[-72.61587,42.57024],[-72.61791,42.56993],[-72.62083,42.57039],[-72.62248,42.57105],[-72.62401,42.57061],[-72.62974,42.57874],[-72.63682,42.57798],[-72.64993,42.57687],[-72.6425,42.607],[-72.63854,42.62304],[-72.63304,42.64535],[-72.6209,42.64687],[-72.61564,42.64746],[-72.58579,42.65091],[-72.55412,42.6547],[-72.54368,42.65581],[-72.54078,42.65566],[-72.54127,42.65259],[-72.53996,42.65091],[-72.54133,42.64862],[-72.54076,42.64502],[-72.54247,42.64527],[-72.54453,42.6442],[-72.54575,42.6444],[-72.54792,42.64196],[-72.54913,42.64122],[-72.54907,42.6379],[-72.54683,42.63545],[-72.54843,42.63262],[-72.55004,42.63189],[-72.55136,42.63033],[-72.55069,42.62869],[-72.5517,42.62701],[-72.54971,42.62656],[-72.54892,42.62553],[-72.55006,42.62457],[-72.54925,42.61755],[-72.55186,42.61539],[-72.55225,42.615],[-72.55269,42.6122],[-72.55271,42.61106],[-72.54942,42.60747],[-72.54614,42.60537]]]]}},{"type":"Feature","properties":{"name":"GATRA GO","boundary_type":"cousubs","source":"Census TIGER county subdivision","fidelity":"exact","updated":"2026-09","units":"Plymouth town; Franklin Town city; Foxborough town; Mansfield town; Norfolk town; Wrentham town; Pembroke town; Marshfield town","note":"Eight-town service area in South Shore region. Replaces fixed routes in lower-density zones.","confidence":0.95},"geometry":{"type":"MultiPolygon","coordinates":[[[[-70.69452,41.98199],[-70.69374,41.9828],[-70.69346,41.98309],[-70.69099,41.9813],[-70.68136,41.97915],[-70.67882,41.97718],[-70.67626,41.97229],[-70.6727,41.96859],[-70.66662,41.96228],[-70.66448,41.96006],[-70.66016,41.95716],[-70.65651,41.95471],[-70.6532,41.95249],[-70.65238,41.95208],[-70.64678,41.94931],[-70.64536,41.94932],[-70.63976,41.94938],[-70.63201,41.94603],[-70.63057,41.94606],[-70.63032,41.94705],[-70.63034,41.94707],[-70.63058,41.94734],[-70.63638,41.95399],[-70.63693,41.95462],[-70.63847,41.95638],[-70.64013,41.95897],[-70.64395,41.96492],[-70.644,41.965],[-70.64593,41.968],[-70.64831,41.97171],[-70.64869,41.97229],[-70.6529,41.97684],[-70.65301,41.97696],[-70.65251,41.97887],[-70.64936,41.97862],[-70.64555,41.9752],[-70.63157,41.95302],[-70.62394,41.94306],[-70.61649,41.9402],[-70.60817,41.9407],[-70.59808,41.94777],[-70.59159,41.94933],[-70.58357,41.95001],[-70.56777,41.9395],[-70.56597,41.93623],[-70.56077,41.9336],[-70.55461,41.93049],[-70.55294,41.92964],[-70.54397,41.92628],[-70.54218,41.92646],[-70.53919,41.92677],[-70.54007,41.92367],[-70.53787,41.92095],[-70.54193,41.91894],[-70.54492,41.91864],[-70.54639,41.91675],[-70.54741,41.91193],[-70.54595,41.90716],[-70.53428,41.89236],[-70.53208,41.88957],[-70.53297,41.88582],[-70.53144,41.88086],[-70.53132,41.87827],[-70.53098,41.87042],[-70.53049,41.86549],[-70.52557,41.85873],[-70.53255,41.84066],[-70.53315,41.83969],[-70.53626,41.83466],[-70.54206,41.83126],[-70.54317,41.82445],[-70.54103,41.81575],[-70.53729,41.81086],[-70.54587,41.80352],[-70.54589,41.8035],[-70.54756,41.80206],[-70.56088,41.79054],[-70.56536,41.78667],[-70.56857,41.78565],[-70.60294,41.7747],[-70.60394,41.7743],[-70.63255,41.7629],[-70.63264,41.76327],[-70.63432,41.76522],[-70.63631,41.76896],[-70.63348,41.77105],[-70.63305,41.77245],[-70.63008,41.77449],[-70.63072,41.77616],[-70.63069,41.77669],[-70.63057,41.7769],[-70.63035,41.77699],[-70.6302,41.77717],[-70.62998,41.77731],[-70.62981,41.77714],[-70.62964,41.77741],[-70.62946,41.77779],[-70.62906,41.7794],[-70.63097,41.78204],[-70.6305,41.78437],[-70.63064,41.78688],[-70.62739,41.78734],[-70.62641,41.78933],[-70.61822,41.8028],[-70.61663,41.80541],[-70.63166,41.80632],[-70.63284,41.80626],[-70.64356,41.80568],[-70.71754,41.80151],[-70.71777,41.80381],[-70.71692,41.80408],[-70.71778,41.80588],[-70.71658,41.80849],[-70.71716,41.81002],[-70.71525,41.81287],[-70.7159,41.81503],[-70.71454,41.81647],[-70.71504,41.81746],[-70.7137,41.81878],[-70.71162,41.82124],[-70.70855,41.82393],[-70.70829,41.82683],[-70.70636,41.82906],[-70.70501,41.82944],[-70.70071,41.82871],[-70.69973,41.82972],[-70.69757,41.8294],[-70.69755,41.83033],[-70.69519,41.83273],[-70.69373,41.83626],[-70.68983,41.83823],[-70.68966,41.83985],[-70.68379,41.8448],[-70.68114,41.84553],[-70.68355,41.84886],[-70.70251,41.87062],[-70.71594,41.88606],[-70.72266,41.89378],[-70.73642,41.90961],[-70.75065,41.92594],[-70.75115,41.92714],[-70.75353,41.93324],[-70.73493,41.94552],[-70.72171,41.95425],[-70.70427,41.97206],[-70.69452,41.98199]]],[[[-70.62986,42.00146],[-70.6242,42.00603],[-70.61422,42.01115],[-70.61555,42.01352],[-70.61265,42.01355],[-70.61282,42.01322],[-70.6089,42.0132],[-70.6093,42.01358],[-70.60847,42.01359],[-70.59789,42.00455],[-70.6027,42.00214],[-70.61405,42.00661],[-70.62254,42.00214],[-70.63192,41.99286],[-70.63914,41.9939],[-70.6412,42.00592],[-70.63965,42.0108],[-70.63639,42.01383],[-70.63395,42.01203],[-70.63443,42.00497],[-70.62986,42.00146]]],[[[-71.16603,42.04826],[-71.16409,42.03885],[-71.16398,42.03828],[-71.16145,42.02601],[-71.1587,42.01262],[-71.16827,42.00848],[-71.18243,42.00233],[-71.19091,41.99958],[-71.20228,41.99588],[-71.20679,41.99416],[-71.21052,41.99275],[-71.22147,41.98858],[-71.23516,41.98338],[-71.25929,41.97422],[-71.26036,41.97567],[-71.26874,41.9873],[-71.27514,41.99621],[-71.28826,42.01446],[-71.28869,42.03009],[-71.28908,42.04504],[-71.30539,42.04043],[-71.31405,42.03798],[-71.31955,42.03642],[-71.34742,42.02854],[-71.38133,42.01894],[-71.3814,42.0188],[-71.41442,42.01835],[-71.42436,42.01822],[-71.4581,42.01776],[-71.4559,42.0349],[-71.45475,42.04412],[-71.45486,42.05901],[-71.45494,42.06218],[-71.45496,42.06313],[-71.45587,42.06319],[-71.45527,42.07275],[-71.4537,42.07262],[-71.45193,42.08384],[-71.44659,42.10214],[-71.44641,42.1033],[-71.44401,42.1173],[-71.44255,42.13164],[-71.44196,42.13353],[-71.44253,42.13448],[-71.44143,42.13483],[-71.43853,42.13517],[-71.43457,42.13433],[-71.43392,42.13512],[-71.4311,42.13819],[-71.42801,42.13811],[-71.42294,42.13907],[-71.41894,42.13879],[-71.41848,42.13651],[-71.41519,42.13825],[-71.41586,42.13581],[-71.41391,42.13385],[-71.41106,42.13445],[-71.40895,42.13414],[-71.40418,42.13756],[-71.40234,42.13954],[-71.39909,42.13877],[-71.3971,42.13732],[-71.38395,42.13517],[-71.3821,42.13555],[-71.38282,42.13316],[-71.38019,42.13293],[-71.37979,42.13559],[-71.37562,42.13545],[-71.37126,42.13321],[-71.36676,42.13383],[-71.36633,42.13193],[-71.36394,42.13309],[-71.36342,42.13224],[-71.36188,42.13351],[-71.36035,42.13499],[-71.3588,42.13453],[-71.34865,42.14058],[-71.34463,42.1463],[-71.34218,42.14827],[-71.34018,42.14876],[-71.33966,42.14938],[-71.30375,42.1495],[-71.30012,42.14718],[-71.3007,42.14507],[-71.29947,42.14188],[-71.29908,42.1393],[-71.30129,42.13785],[-71.30171,42.13637],[-71.30012,42.13022],[-71.29894,42.1265],[-71.30022,42.12591],[-71.29715,42.12051],[-71.29635,42.11802],[-71.2959,42.11661],[-71.29097,42.10778],[-71.28829,42.10289],[-71.28027,42.08849],[-71.27174,42.09844],[-71.26342,42.10133],[-71.25944,42.10269],[-71.2555,42.10408],[-71.2533,42.10534],[-71.2388,42.1064],[-71.23888,42.10421],[-71.22345,42.09012],[-71.20592,42.07411],[-71.19586,42.08182],[-71.17846,42.05736],[-71.16868,42.06116],[-71.16603,42.04826]]],[[[-70.84101,42.06041],[-70.83822,42.06389],[-70.84276,42.07428],[-70.8439,42.07719],[-70.84266,42.08887],[-70.84555,42.09188],[-70.84335,42.09476],[-70.84059,42.09454],[-70.8381,42.0966],[-70.83145,42.09852],[-70.82665,42.10033],[-70.82309,42.10054],[-70.82,42.09953],[-70.81864,42.09968],[-70.8117,42.09805],[-70.80975,42.09905],[-70.81229,42.10388],[-70.80865,42.10738],[-70.80495,42.11117],[-70.80385,42.11148],[-70.80057,42.10971],[-70.79992,42.11206],[-70.79844,42.11239],[-70.79505,42.10941],[-70.794,42.10717],[-70.79267,42.10617],[-70.7897,42.10642],[-70.79231,42.10886],[-70.79023,42.10865],[-70.79053,42.11008],[-70.78968,42.11069],[-70.78806,42.11015],[-70.78855,42.11128],[-70.78672,42.11129],[-70.78486,42.11202],[-70.78301,42.11201],[-70.7821,42.11451],[-70.78288,42.11576],[-70.7823,42.11675],[-70.78094,42.11675],[-70.77936,42.11564],[-70.7784,42.11593],[-70.77712,42.11675],[-70.77782,42.11877],[-70.77756,42.12082],[-70.7793,42.12148],[-70.7779,42.12492],[-70.7795,42.12671],[-70.77882,42.12783],[-70.77924,42.12963],[-70.78124,42.12964],[-70.78185,42.13125],[-70.77987,42.13235],[-70.7814,42.13459],[-70.78062,42.13716],[-70.783,42.13927],[-70.78291,42.14169],[-70.78778,42.14495],[-70.78635,42.14683],[-70.78531,42.14978],[-70.78352,42.14999],[-70.78244,42.15582],[-70.78196,42.15639],[-70.77877,42.1564],[-70.77565,42.15521],[-70.77159,42.15511],[-70.76837,42.15413],[-70.76618,42.15813],[-70.76465,42.15879],[-70.76181,42.15695],[-70.76019,42.15925],[-70.75539,42.15941],[-70.75418,42.16117],[-70.75432,42.16299],[-70.75239,42.16394],[-70.74903,42.16498],[-70.74558,42.16162],[-70.74239,42.16109],[-70.73706,42.16249],[-70.73295,42.16068],[-70.73133,42.16205],[-70.73015,42.16445],[-70.72865,42.16534],[-70.72416,42.16539],[-70.71968,42.16487],[-70.71668,42.16221],[-70.71328,42.16121],[-70.71044,42.15388],[-70.7089,42.15227],[-70.70532,42.15094],[-70.70209,42.15107],[-70.70134,42.14527],[-70.69719,42.1423],[-70.69398,42.13924],[-70.69316,42.13772],[-70.69206,42.13531],[-70.68831,42.13297],[-70.68729,42.13075],[-70.6844,42.1279],[-70.68297,42.12525],[-70.67946,42.12627],[-70.66393,42.10834],[-70.66022,42.10526],[-70.65203,42.09846],[-70.64509,42.09272],[-70.64017,42.08863],[-70.63848,42.08158],[-70.64401,42.07831],[-70.64735,42.07633],[-70.6477,42.073],[-70.648,42.07244],[-70.65239,42.07075],[-70.66901,42.06348],[-70.68276,42.05747],[-70.69072,42.06305],[-70.69586,42.06667],[-70.6966,42.06691],[-70.69745,42.06742],[-70.69848,42.06902],[-70.69844,42.0705],[-70.71563,42.07938],[-70.73847,42.09117],[-70.74972,42.09698],[-70.75036,42.09595],[-70.76143,42.07847],[-70.77197,42.06176],[-70.78144,42.04678],[-70.76872,42.04513],[-70.76724,42.0424],[-70.76507,42.03998],[-70.76506,42.03979],[-70.76493,42.03967],[-70.76499,42.03952],[-70.7651,42.03949],[-70.76511,42.03925],[-70.76523,42.03918],[-70.76532,42.03898],[-70.76544,42.03891],[-70.76552,42.03873],[-70.76549,42.03846],[-70.76489,42.03827],[-70.76472,42.03813],[-70.76289,42.03816],[-70.76144,42.03696],[-70.76092,42.03549],[-70.75917,42.03424],[-70.75963,42.03299],[-70.76152,42.03143],[-70.76538,42.03132],[-70.76606,42.0285],[-70.7668,42.02815],[-70.76883,42.02547],[-70.76949,42.02206],[-70.77553,42.02317],[-70.79334,42.021],[-70.79672,42.02059],[-70.80038,42.0161],[-70.79933,42.01361],[-70.80725,42.01288],[-70.80968,42.01531],[-70.80939,42.01667],[-70.81185,42.01763],[-70.81373,42.01961],[-70.8134,42.02302],[-70.81498,42.02398],[-70.82137,42.02245],[-70.83346,42.01955],[-70.84477,42.0427],[-70.84219,42.0435],[-70.84107,42.04489],[-70.8458,42.04642],[-70.84701,42.04816],[-70.84721,42.0505],[-70.84537,42.05409],[-70.84583,42.05507],[-70.83682,42.05929],[-70.84101,42.06041]]]]}},{"type":"Feature","properties":{"name":"MART OnDemand","boundary_type":"cousubs","source":"Census TIGER county subdivision","fidelity":"exact","updated":"2026-09","units":"Athol town; Gardner city; Fitchburg city","note":"Three-town service in North Central Massachusetts, integrates with traditional dial-a-ride.","confidence":0.9},"geometry":{"type":"MultiPolygon","coordinates":[[[[-72.27384,42.57743],[-72.27323,42.57934],[-72.27181,42.5783],[-72.27139,42.57627],[-72.27,42.57634],[-72.26861,42.57787],[-72.2654,42.57761],[-72.26346,42.57596],[-72.26133,42.57592],[-72.26306,42.58343],[-72.26706,42.60081],[-72.26545,42.60096],[-72.26215,42.60025],[-72.26005,42.60114],[-72.25881,42.60372],[-72.25633,42.60512],[-72.25331,42.60534],[-72.25474,42.61161],[-72.25177,42.61214],[-72.24001,42.61372],[-72.23841,42.61462],[-72.23196,42.61395],[-72.22995,42.61439],[-72.22776,42.61622],[-72.22833,42.61886],[-72.22755,42.62207],[-72.22986,42.62208],[-72.22907,42.624],[-72.23054,42.62378],[-72.23159,42.62486],[-72.23118,42.62586],[-72.2278,42.6265],[-72.22624,42.62949],[-72.22531,42.63043],[-72.22645,42.63495],[-72.22821,42.63649],[-72.22908,42.63835],[-72.22493,42.63894],[-72.16747,42.64652],[-72.16437,42.63261],[-72.15835,42.63321],[-72.15665,42.6236],[-72.15437,42.62383],[-72.15478,42.62004],[-72.15804,42.61755],[-72.17074,42.597],[-72.16789,42.60014],[-72.1636,42.59829],[-72.1613,42.60108],[-72.15891,42.59942],[-72.1571,42.59946],[-72.15763,42.59892],[-72.15957,42.59703],[-72.16052,42.59507],[-72.16241,42.59372],[-72.16551,42.59031],[-72.16314,42.58886],[-72.16759,42.58487],[-72.17556,42.58987],[-72.1781,42.57997],[-72.18564,42.55036],[-72.19638,42.54892],[-72.24487,42.51344],[-72.26911,42.53343],[-72.27135,42.54723],[-72.27359,42.561],[-72.2741,42.56257],[-72.27666,42.57044],[-72.27643,42.57737],[-72.27507,42.57669],[-72.27384,42.57743]]],[[[-72.00838,42.62038],[-71.98607,42.63002],[-71.98611,42.62776],[-71.9759,42.62751],[-71.96102,42.61429],[-71.95645,42.61027],[-71.95212,42.6107],[-71.9503,42.60808],[-71.95173,42.60756],[-71.95019,42.6049],[-71.94881,42.60252],[-71.95057,42.60171],[-71.94581,42.59491],[-71.92802,42.60201],[-71.9235,42.59542],[-71.94379,42.57026],[-71.95091,42.56143],[-71.95181,42.56031],[-71.96392,42.54943],[-71.9594,42.54638],[-71.97252,42.53617],[-71.97558,42.53586],[-71.97969,42.53231],[-72.00138,42.54661],[-72.02067,42.55913],[-72.02701,42.56324],[-72.015,42.56794],[-72.01658,42.56988],[-72.01949,42.57101],[-72.0172,42.57214],[-72.01601,42.57377],[-72.01832,42.57665],[-72.02324,42.57385],[-72.02697,42.57337],[-72.02744,42.57393],[-72.03136,42.57444],[-72.03111,42.57595],[-72.03293,42.57632],[-72.03171,42.57821],[-72.0344,42.5799],[-72.03569,42.57991],[-72.03684,42.57759],[-72.04066,42.57879],[-72.04202,42.57979],[-72.04151,42.58289],[-72.04195,42.5845],[-72.03883,42.58622],[-72.03972,42.5877],[-72.04221,42.58936],[-72.04181,42.59198],[-72.03814,42.59316],[-72.03598,42.59386],[-72.04607,42.60184],[-72.03505,42.60886],[-72.00945,42.61992],[-72.00838,42.62038]]],[[[-71.85513,42.55829],[-71.86234,42.55805],[-71.86208,42.56355],[-71.86059,42.59164],[-71.85866,42.62903],[-71.85848,42.63381],[-71.84484,42.63799],[-71.79419,42.63703],[-71.77532,42.63666],[-71.77345,42.61457],[-71.7715,42.60627],[-71.77089,42.60366],[-71.77152,42.59352],[-71.77197,42.58597],[-71.77294,42.56965],[-71.76489,42.56284],[-71.76295,42.56392],[-71.76145,42.56344],[-71.75725,42.56207],[-71.75587,42.56117],[-71.7541,42.55946],[-71.74998,42.55281],[-71.74777,42.54993],[-71.74987,42.54976],[-71.74968,42.5452],[-71.75417,42.54605],[-71.75777,42.54857],[-71.75983,42.54782],[-71.76195,42.54981],[-71.76159,42.5519],[-71.76328,42.55387],[-71.76428,42.55502],[-71.76918,42.55814],[-71.77134,42.55925],[-71.77339,42.5581],[-71.77646,42.55638],[-71.78337,42.5525],[-71.78602,42.55105],[-71.78937,42.55093],[-71.79318,42.55174],[-71.79758,42.55262],[-71.80062,42.55173],[-71.80375,42.5489],[-71.80655,42.54747],[-71.81346,42.54729],[-71.82073,42.54652],[-71.82233,42.54666],[-71.83088,42.54902],[-71.83169,42.54903],[-71.83283,42.549],[-71.83712,42.54855],[-71.83781,42.54378],[-71.86295,42.5447],[-71.86251,42.55247],[-71.85559,42.55206],[-71.85548,42.55351],[-71.85513,42.55829]]]]}},{"type":"Feature","properties":{"name":"MeVa On Demand","boundary_type":"cousubs","source":"Census TIGER county subdivision","fidelity":"exact","updated":"2026-09","units":"Haverhill city; Lawrence city; Andover town","note":"Three-town Merrimack Valley service with zero-fare policy.","confidence":0.95},"geometry":{"type":"MultiPolygon","coordinates":[[[[-71.25011,42.66099],[-71.24417,42.66151],[-71.24249,42.66235],[-71.2404,42.66673],[-71.23818,42.66942],[-71.23803,42.66954],[-71.23773,42.66979],[-71.23696,42.6703],[-71.23561,42.67116],[-71.23152,42.67561],[-71.22937,42.6782],[-71.22772,42.6809],[-71.22607,42.68443],[-71.2254,42.68677],[-71.22481,42.69343],[-71.22117,42.6985],[-71.21982,42.69981],[-71.21817,42.70063],[-71.21495,42.70126],[-71.20994,42.70062],[-71.20342,42.69908],[-71.19537,42.69848],[-71.19196,42.69775],[-71.18886,42.69627],[-71.18927,42.69852],[-71.19026,42.70463],[-71.19092,42.71074],[-71.18359,42.71505],[-71.18314,42.71531],[-71.18245,42.71572],[-71.17883,42.71786],[-71.17603,42.7195],[-71.17314,42.7212],[-71.17238,42.72164],[-71.17242,42.72166],[-71.17088,42.7233],[-71.16897,42.72235],[-71.16569,42.7223],[-71.16472,42.72226],[-71.16024,42.72213],[-71.1584,42.72209],[-71.15602,42.72202],[-71.15219,42.72192],[-71.14913,42.72183],[-71.14856,42.72127],[-71.14781,42.72173],[-71.14192,42.72164],[-71.13732,42.72152],[-71.1342,42.72151],[-71.13497,42.71822],[-71.1335,42.71355],[-71.13362,42.71144],[-71.13506,42.70877],[-71.13629,42.70721],[-71.13728,42.70664],[-71.13712,42.70439],[-71.13996,42.70338],[-71.14278,42.69892],[-71.14487,42.69899],[-71.14571,42.69863],[-71.14339,42.69703],[-71.14254,42.69425],[-71.1408,42.69394],[-71.13793,42.69222],[-71.13732,42.68934],[-71.13981,42.68719],[-71.13768,42.68644],[-71.13948,42.68551],[-71.13788,42.6849],[-71.13922,42.68438],[-71.13508,42.68086],[-71.13364,42.67962],[-71.13368,42.67952],[-71.13454,42.67681],[-71.13445,42.67678],[-71.12883,42.67445],[-71.1275,42.67269],[-71.12683,42.67182],[-71.11876,42.66102],[-71.09326,42.62698],[-71.07617,42.60414],[-71.08936,42.60301],[-71.111,42.60116],[-71.12136,42.60028],[-71.13546,42.59912],[-71.1412,42.60321],[-71.1432,42.60404],[-71.14594,42.60833],[-71.14865,42.61317],[-71.15442,42.61527],[-71.15656,42.61498],[-71.15862,42.61295],[-71.15952,42.60766],[-71.16067,42.60532],[-71.16391,42.60185],[-71.16488,42.59802],[-71.18135,42.60837],[-71.18202,42.60843],[-71.17749,42.60896],[-71.17839,42.6108],[-71.17612,42.61461],[-71.17296,42.61501],[-71.17176,42.61655],[-71.176,42.61862],[-71.17621,42.61872],[-71.19895,42.62965],[-71.22926,42.64421],[-71.23906,42.64892],[-71.25619,42.65715],[-71.25497,42.65778],[-71.25172,42.66033],[-71.25011,42.66099]]],[[[-71.16627,42.80827],[-71.1656,42.80869],[-71.1497,42.81549],[-71.14791,42.81611],[-71.1325,42.82139],[-71.11575,42.81769],[-71.10279,42.81482],[-71.09974,42.81415],[-71.09118,42.81225],[-71.06542,42.80656],[-71.0642,42.80629],[-71.0536,42.83309],[-71.05359,42.83311],[-71.02332,42.82041],[-71.02002,42.81903],[-70.99961,42.81054],[-70.9986,42.80753],[-70.99983,42.80504],[-71.00343,42.8011],[-71.00552,42.7998],[-71.01231,42.79654],[-71.01498,42.79488],[-71.01871,42.7916],[-71.01959,42.79008],[-71.02038,42.7843],[-71.0219,42.77963],[-71.02461,42.77523],[-71.03006,42.76922],[-71.03421,42.76388],[-71.03796,42.75894],[-71.04182,42.7572],[-71.04257,42.75704],[-71.04182,42.75458],[-71.0441,42.75321],[-71.04452,42.74903],[-71.04834,42.74614],[-71.05285,42.73989],[-71.05812,42.73421],[-71.05888,42.73246],[-71.07211,42.73267],[-71.07406,42.73449],[-71.08191,42.73669],[-71.08417,42.73649],[-71.08806,42.73614],[-71.09247,42.737],[-71.09783,42.73522],[-71.10863,42.73528],[-71.11228,42.73835],[-71.11558,42.7411],[-71.11559,42.74195],[-71.11644,42.74424],[-71.11918,42.74731],[-71.11966,42.74782],[-71.12218,42.75009],[-71.12558,42.75204],[-71.12759,42.75467],[-71.12978,42.758],[-71.13065,42.7608],[-71.15338,42.77546],[-71.18228,42.79425],[-71.1744,42.80159],[-71.17437,42.80162],[-71.1677,42.80739],[-71.16627,42.80827]]]]}},{"type":"Feature","properties":{"name":"MWRTA Catch Connect","boundary_type":"cousubs","source":"Census TIGER county subdivision","fidelity":"exact","updated":"2026-09","units":"Wellesley town; Hudson town; Berlin town","note":"Launched in Wellesley, expanded Feb 2025 to Hudson and Berlin. Connections to nearby stations/facilities noted.","confidence":0.9},"geometry":{"type":"MultiPolygon","coordinates":[[[[-71.29785,42.27218],[-71.2976,42.27236],[-71.2968,42.27261],[-71.29565,42.27248],[-71.29974,42.26961],[-71.2999,42.27029],[-71.29977,42.27052],[-71.29877,42.27106],[-71.29839,42.27134],[-71.29785,42.27218]]],[[[-71.29179,42.3226],[-71.28137,42.32523],[-71.26996,42.32809],[-71.26569,42.32724],[-71.26309,42.32605],[-71.259,42.32634],[-71.25847,42.3253],[-71.2574,42.32448],[-71.25459,42.32529],[-71.25294,42.32676],[-71.24919,42.32364],[-71.2468,42.32106],[-71.24615,42.32101],[-71.24079,42.3209],[-71.23842,42.32179],[-71.23442,42.32081],[-71.23091,42.32073],[-71.22826,42.31885],[-71.22803,42.31684],[-71.22754,42.3154],[-71.22889,42.31634],[-71.23268,42.31634],[-71.23301,42.31627],[-71.24565,42.30745],[-71.25541,42.30063],[-71.2592,42.29798],[-71.26627,42.29303],[-71.26941,42.29084],[-71.27191,42.28909],[-71.27968,42.28365],[-71.29484,42.27305],[-71.29562,42.274],[-71.29947,42.27476],[-71.29968,42.27634],[-71.29779,42.27921],[-71.29751,42.28091],[-71.29822,42.28176],[-71.29995,42.28291],[-71.30464,42.27836],[-71.3093,42.27638],[-71.30846,42.27071],[-71.32154,42.29369],[-71.32166,42.29389],[-71.32366,42.29742],[-71.32635,42.30429],[-71.3264,42.3044],[-71.32975,42.31299],[-71.32733,42.31375],[-71.31721,42.31626],[-71.30598,42.31907],[-71.29179,42.3226]]],[[[-71.66063,42.41823],[-71.63042,42.40954],[-71.60806,42.39943],[-71.60425,42.3977],[-71.60263,42.3985],[-71.58526,42.4071],[-71.57909,42.40824],[-71.56458,42.41093],[-71.5591,42.41194],[-71.55105,42.40924],[-71.54456,42.40706],[-71.53442,42.40366],[-71.52805,42.40152],[-71.52682,42.39607],[-71.52396,42.39674],[-71.51792,42.39815],[-71.5108,42.39752],[-71.50385,42.39748],[-71.50045,42.39542],[-71.49298,42.3964],[-71.49088,42.39523],[-71.48992,42.39633],[-71.48695,42.39602],[-71.48774,42.39497],[-71.48612,42.39327],[-71.47268,42.39003],[-71.4755,42.38065],[-71.4755,42.38063],[-71.51512,42.3765],[-71.52142,42.37584],[-71.52831,42.37512],[-71.5294,42.375],[-71.55408,42.37242],[-71.56205,42.37158],[-71.56861,42.37089],[-71.57014,42.37072],[-71.59429,42.3682],[-71.60306,42.36727],[-71.61001,42.3574],[-71.6247,42.35047],[-71.62843,42.35364],[-71.63394,42.3584],[-71.67636,42.36488],[-71.67779,42.36515],[-71.67055,42.38667],[-71.67877,42.38916],[-71.67652,42.39612],[-71.66807,42.39457],[-71.6666,42.39923],[-71.66063,42.41823]]]]}},{"type":"Feature","properties":{"name":"NewMo (Newton in Motion)","boundary_type":"cousub","source":"Census TIGER county subdivision","fidelity":"exact","updated":"2026-09","units":"Newton city","note":"Citywide service in Newton, first-mile/last-mile to MBTA.","confidence":0.95},"geometry":{"type":"Polygon","coordinates":[[[-71.26818,42.33058],[-71.26513,42.33183],[-71.26473,42.33394],[-71.26314,42.3349],[-71.2592,42.33542],[-71.25858,42.33683],[-71.25583,42.339],[-71.25825,42.34119],[-71.26092,42.34098],[-71.26188,42.34215],[-71.25976,42.34611],[-71.26018,42.34838],[-71.25863,42.35005],[-71.26038,42.35363],[-71.25646,42.35491],[-71.25611,42.35382],[-71.25476,42.35423],[-71.25373,42.35504],[-71.25293,42.35596],[-71.25244,42.35611],[-71.24308,42.35887],[-71.23932,42.35999],[-71.23762,42.3605],[-71.23659,42.36081],[-71.23148,42.36232],[-71.22664,42.36375],[-71.22623,42.36387],[-71.21719,42.36653],[-71.21706,42.36657],[-71.21634,42.36585],[-71.21328,42.36496],[-71.20722,42.36414],[-71.20449,42.36579],[-71.20203,42.36582],[-71.19835,42.36739],[-71.19633,42.36718],[-71.19521,42.36773],[-71.1945,42.36672],[-71.19221,42.36542],[-71.1963,42.3618],[-71.19309,42.36105],[-71.19023,42.36038],[-71.18523,42.3592],[-71.18368,42.35883],[-71.18237,42.36041],[-71.18213,42.36068],[-71.17527,42.35927],[-71.17275,42.35933],[-71.16865,42.36021],[-71.16762,42.36007],[-71.16947,42.35805],[-71.17139,42.35609],[-71.17393,42.3534],[-71.1748,42.35027],[-71.17426,42.34958],[-71.1667,42.34001],[-71.16674,42.33985],[-71.16894,42.33845],[-71.16889,42.33583],[-71.16756,42.33344],[-71.16273,42.33396],[-71.16092,42.33364],[-71.15704,42.33039],[-71.1646,42.32463],[-71.16735,42.32264],[-71.16922,42.32199],[-71.17048,42.32154],[-71.17172,42.31949],[-71.17371,42.31805],[-71.17893,42.31432],[-71.1698,42.30761],[-71.16642,42.30475],[-71.1647,42.30383],[-71.16981,42.30044],[-71.17864,42.2946],[-71.1909,42.28325],[-71.19125,42.28299],[-71.19089,42.28582],[-71.19322,42.28801],[-71.19527,42.28797],[-71.19579,42.2862],[-71.19673,42.28608],[-71.20159,42.28863],[-71.20297,42.28857],[-71.20524,42.28957],[-71.20635,42.29427],[-71.20788,42.29716],[-71.21156,42.29973],[-71.21125,42.30227],[-71.21129,42.30311],[-71.21327,42.30616],[-71.21819,42.3068],[-71.22051,42.30641],[-71.22411,42.3073],[-71.22669,42.30825],[-71.22631,42.31028],[-71.22707,42.3124],[-71.22629,42.31412],[-71.22754,42.3154],[-71.22803,42.31684],[-71.22826,42.31885],[-71.23091,42.32073],[-71.23442,42.32081],[-71.23842,42.32179],[-71.24079,42.3209],[-71.24615,42.32101],[-71.2468,42.32106],[-71.24919,42.32364],[-71.25294,42.32676],[-71.25459,42.32529],[-71.2574,42.32448],[-71.25847,42.3253],[-71.259,42.32634],[-71.26309,42.32605],[-71.26569,42.32724],[-71.26996,42.32809],[-71.27029,42.33086],[-71.26818,42.33058]]]}},{"type":"Feature","properties":{"name":"NRTA Wave On-Demand","boundary_type":"city","source":"Census TIGER place","fidelity":"exact","updated":"2026-09","units":"Nantucket CDP","note":"Island municipality, townwide service","confidence":0.9},"geometry":{"type":"Polygon","coordinates":[[[-70.11957,41.26306],[-70.12331,41.26926],[-70.12331,41.27079],[-70.12196,41.2728],[-70.11914,41.27461],[-70.11598,41.27661],[-70.11519,41.27678],[-70.12346,41.27831],[-70.11684,41.27934],[-70.11956,41.28113],[-70.11963,41.28228],[-70.11905,41.2853],[-70.1213,41.28799],[-70.12101,41.28918],[-70.12225,41.29334],[-70.12286,41.29402],[-70.10961,41.29538],[-70.10441,41.29733],[-70.09469,41.29766],[-70.09305,41.29421],[-70.08253,41.28621],[-70.08579,41.27891],[-70.08677,41.27734],[-70.08868,41.27695],[-70.08946,41.27509],[-70.0872,41.27401],[-70.08585,41.27536],[-70.0836,41.2731],[-70.08588,41.27102],[-70.07159,41.27086],[-70.07033,41.27077],[-70.05418,41.26842],[-70.05635,41.26204],[-70.059,41.25983],[-70.06504,41.25998],[-70.0665,41.25561],[-70.0673,41.25462],[-70.0774,41.25539],[-70.07848,41.25504],[-70.08035,41.25297],[-70.08089,41.25135],[-70.08422,41.25161],[-70.08463,41.24893],[-70.08588,41.2501],[-70.09738,41.25936],[-70.09741,41.25939],[-70.09836,41.26036],[-70.09986,41.26293],[-70.10174,41.26192],[-70.10222,41.26132],[-70.10336,41.26194],[-70.10441,41.26039],[-70.10632,41.25832],[-70.1118,41.25476],[-70.11301,41.25488],[-70.11323,41.2534],[-70.11557,41.25235],[-70.11577,41.25264],[-70.11864,41.25453],[-70.12454,41.25739],[-70.12513,41.25842],[-70.11957,41.26306]]]}},{"type":"Feature","properties":{"name":"Quaboag Connector","boundary_type":"cousubs","source":"Census TIGER county subdivision","fidelity":"exact","updated":"2026-09","units":"Ware town; Palmer Town city; Belchertown town; Brookfield town","note":"Four-town rural service area in Central Massachusetts, supports same-day local trips.","confidence":0.95},"geometry":{"type":"MultiPolygon","coordinates":[[[[-72.25567,42.20971],[-72.2575,42.20781],[-72.26016,42.20587],[-72.26279,42.20253],[-72.26411,42.1995],[-72.26469,42.19673],[-72.2644,42.19353],[-72.26328,42.1926],[-72.26313,42.19011],[-72.26375,42.18832],[-72.26392,42.18383],[-72.26325,42.18208],[-72.26395,42.18071],[-72.2632,42.17875],[-72.26165,42.17693],[-72.26237,42.17565],[-72.26394,42.17474],[-72.26347,42.1733],[-72.2616,42.1717],[-72.26207,42.16985],[-72.26474,42.16711],[-72.26711,42.16597],[-72.26823,42.16271],[-72.26682,42.16052],[-72.26822,42.15939],[-72.26838,42.15829],[-72.26716,42.15646],[-72.2659,42.15613],[-72.26527,42.15462],[-72.26677,42.15353],[-72.26796,42.14874],[-72.26925,42.14756],[-72.26899,42.14593],[-72.27113,42.14329],[-72.27308,42.14286],[-72.27445,42.14375],[-72.2804,42.14341],[-72.28148,42.14155],[-72.28464,42.14115],[-72.2907,42.14206],[-72.29382,42.1439],[-72.29638,42.1437],[-72.29727,42.14453],[-72.30267,42.14419],[-72.30874,42.14474],[-72.31138,42.14326],[-72.31376,42.14396],[-72.31441,42.14655],[-72.31653,42.14825],[-72.31888,42.14636],[-72.32339,42.14936],[-72.32473,42.14972],[-72.32614,42.15144],[-72.3303,42.152],[-72.33248,42.15629],[-72.33497,42.15863],[-72.33869,42.1594],[-72.34151,42.1591],[-72.342,42.1605],[-72.34333,42.16114],[-72.34509,42.16014],[-72.34651,42.16162],[-72.34842,42.16085],[-72.35451,42.16095],[-72.35794,42.15904],[-72.36059,42.15869],[-72.36495,42.15553],[-72.36553,42.15465],[-72.37013,42.15374],[-72.37878,42.15267],[-72.38255,42.15236],[-72.38619,42.15225],[-72.38903,42.15234],[-72.38904,42.15242],[-72.39525,42.18482],[-72.39548,42.18574],[-72.40292,42.22628],[-72.40395,42.23185],[-72.44712,42.22725],[-72.44955,42.23876],[-72.455,42.26456],[-72.45866,42.2819],[-72.46419,42.30805],[-72.46519,42.31341],[-72.46871,42.33227],[-72.47229,42.35146],[-72.47138,42.35158],[-72.40942,42.35876],[-72.40545,42.33644],[-72.39347,42.33817],[-72.39371,42.3393],[-72.38037,42.34061],[-72.3554,42.34068],[-72.35406,42.34009],[-72.35288,42.33817],[-72.3512,42.33442],[-72.35252,42.33244],[-72.35253,42.33114],[-72.35113,42.32956],[-72.35359,42.32769],[-72.35118,42.32488],[-72.3543,42.32368],[-72.353,42.32125],[-72.35523,42.3182],[-72.35456,42.31605],[-72.35616,42.31437],[-72.35733,42.31039],[-72.35903,42.30976],[-72.35873,42.30882],[-72.36048,42.3087],[-72.36037,42.30779],[-72.35602,42.30328],[-72.35421,42.30568],[-72.35189,42.30641],[-72.35169,42.30426],[-72.35037,42.30417],[-72.34956,42.30603],[-72.35066,42.30739],[-72.35228,42.30794],[-72.34989,42.30804],[-72.35146,42.30999],[-72.35016,42.31031],[-72.34866,42.30918],[-72.34589,42.30997],[-72.3436,42.31189],[-72.34209,42.31433],[-72.3377,42.31454],[-72.33525,42.31514],[-72.33471,42.31762],[-72.3323,42.31941],[-72.32912,42.31969],[-72.32833,42.31856],[-72.32722,42.32047],[-72.3274,42.32348],[-72.32822,42.32525],[-72.32676,42.32681],[-72.32621,42.32516],[-72.32467,42.32677],[-72.32605,42.32848],[-72.32486,42.33082],[-72.32272,42.33104],[-72.32316,42.33352],[-72.31763,42.33963],[-72.31505,42.33941],[-72.31492,42.34264],[-72.31425,42.34369],[-72.31218,42.3428],[-72.30941,42.34376],[-72.30879,42.34489],[-72.3068,42.34428],[-72.30614,42.34613],[-72.30375,42.34576],[-72.3014,42.34823],[-72.29874,42.34932],[-72.29671,42.34937],[-72.29539,42.35057],[-72.29133,42.35174],[-72.28873,42.35202],[-72.28856,42.35208],[-72.28423,42.35201],[-72.28138,42.33613],[-72.27849,42.33646],[-72.27708,42.32941],[-72.28,42.32909],[-72.27464,42.30196],[-72.26865,42.30352],[-72.26192,42.30526],[-72.26154,42.30333],[-72.24454,42.30603],[-72.23293,42.30788],[-72.21079,42.31138],[-72.21214,42.31022],[-72.21285,42.30757],[-72.21307,42.30381],[-72.21277,42.30151],[-72.21626,42.29931],[-72.21674,42.29406],[-72.21397,42.29426],[-72.2108,42.29448],[-72.20328,42.29118],[-72.20396,42.28888],[-72.20711,42.28525],[-72.21204,42.28265],[-72.21278,42.2698],[-72.21765,42.27017],[-72.21757,42.2682],[-72.21651,42.25965],[-72.21609,42.2562],[-72.2111,42.25568],[-72.21108,42.25126],[-72.21046,42.24721],[-72.21458,42.24757],[-72.21482,42.24904],[-72.21807,42.2486],[-72.22122,42.24525],[-72.23913,42.22681],[-72.25567,42.20971]]],[[[-72.12984,42.22124],[-72.12457,42.21636],[-72.12191,42.21466],[-72.11986,42.21407],[-72.11943,42.22112],[-72.11879,42.23095],[-72.11274,42.2332],[-72.11125,42.23858],[-72.09924,42.23076],[-72.07857,42.23106],[-72.07537,42.23204],[-72.07283,42.23209],[-72.07411,42.22958],[-72.07428,42.22712],[-72.07282,42.22365],[-72.07329,42.22229],[-72.07418,42.22038],[-72.0765,42.21944],[-72.07696,42.21694],[-72.07881,42.21461],[-72.07727,42.21363],[-72.0605,42.203],[-72.07,42.18565],[-72.07045,42.1841],[-72.07001,42.18246],[-72.0727,42.1805],[-72.0742,42.17663],[-72.07348,42.17463],[-72.07185,42.1728],[-72.07171,42.17121],[-72.07245,42.16928],[-72.07735,42.16861],[-72.08941,42.16714],[-72.08675,42.15444],[-72.10868,42.15159],[-72.11152,42.16445],[-72.13501,42.16178],[-72.14189,42.161],[-72.14721,42.18147],[-72.1397,42.17955],[-72.14226,42.19745],[-72.12984,42.22124]]]]}},{"type":"Feature","properties":{"name":"RC Link","boundary_type":"places","source":"Census TIGER place","fidelity":"exact","updated":"2026-09","units":"Revere city; Chelsea city","note":"Two adjacent cities in Suffolk County, joint municipal service","confidence":0.85},"geometry":{"type":"Polygon","coordinates":[[[-71.0533,42.39618],[-71.05194,42.39762],[-71.04814,42.39663],[-71.04616,42.39804],[-71.04615,42.39804],[-71.04089,42.40175],[-71.04057,42.40198],[-71.03949,42.40363],[-71.03907,42.40426],[-71.03774,42.40632],[-71.0371,42.40731],[-71.03563,42.40964],[-71.03491,42.41088],[-71.03344,42.41338],[-71.03318,42.41421],[-71.03257,42.41553],[-71.03173,42.41739],[-71.03109,42.41878],[-71.02932,42.42188],[-71.02823,42.4242],[-71.02409,42.43158],[-71.02304,42.43346],[-71.023,42.43352],[-71.02135,42.4365],[-71.021,42.43712],[-71.02038,42.43825],[-71.025,42.44371],[-71.02584,42.44471],[-71.01876,42.45012],[-71.01461,42.44529],[-71.01324,42.44371],[-71.01192,42.44216],[-71.00967,42.44105],[-71.01227,42.43972],[-71.0101,42.43819],[-71.01142,42.43599],[-71.01078,42.43457],[-71.00697,42.43384],[-71.00592,42.43304],[-71.00215,42.43261],[-70.99986,42.4313],[-70.99735,42.43107],[-70.99723,42.43105],[-70.99202,42.43413],[-70.99012,42.43488],[-70.98371,42.43166],[-70.98229,42.4313],[-70.97945,42.43281],[-70.97519,42.4369],[-70.97159,42.4427],[-70.96859,42.4444],[-70.96614,42.44349],[-70.96631,42.44305],[-70.96654,42.44245],[-70.95993,42.44122],[-70.9597,42.44067],[-70.96864,42.43553],[-70.97551,42.43158],[-70.97664,42.43044],[-70.98299,42.424],[-70.9837,42.42289],[-70.98682,42.41806],[-70.98769,42.4167],[-70.99056,42.40721],[-70.99059,42.4071],[-70.98919,42.4026],[-70.98772,42.4024],[-70.98507,42.40204],[-70.98343,42.39625],[-70.98301,42.3956],[-70.98296,42.39551],[-70.98051,42.39168],[-70.98299,42.39069],[-70.9833,42.38939],[-70.98605,42.38812],[-70.98729,42.38873],[-70.98797,42.39282],[-70.98977,42.39324],[-70.99445,42.39332],[-70.99505,42.39357],[-70.99647,42.39631],[-71.00068,42.39682],[-71.00141,42.39674],[-71.00586,42.39389],[-71.01,42.39549],[-71.01193,42.39575],[-71.01127,42.39659],[-71.01339,42.3974],[-71.01609,42.3959],[-71.01779,42.3907],[-71.02051,42.38764],[-71.02267,42.38627],[-71.02771,42.38404],[-71.03199,42.3846],[-71.03836,42.38653],[-71.03926,42.38683],[-71.04326,42.38359],[-71.0443,42.38321],[-71.04728,42.38528],[-71.04819,42.38569],[-71.05529,42.3871],[-71.05069,42.392],[-71.05,42.39347],[-71.0533,42.39618]]]}},{"type":"Feature","properties":{"name":"Salem Skipper","boundary_type":"cousubs","source":"Census TIGER county subdivision","fidelity":"exact","updated":"2026-09","units":"Salem city; Danvers town; Peabody city","note":"Three-town service area on North Shore, connects to MBTA commuter rail.","confidence":0.95},"geometry":{"type":"MultiPolygon","coordinates":[[[[-70.8337,42.48527],[-70.833,42.48419],[-70.83345,42.48363],[-70.83396,42.48355],[-70.83405,42.48319],[-70.83357,42.48287],[-70.8335,42.48226],[-70.83346,42.48199],[-70.83462,42.48196],[-70.83535,42.48226],[-70.83555,42.48294],[-70.83558,42.48383],[-70.83488,42.48488],[-70.83429,42.48534],[-70.8337,42.48527]]],[[[-70.81206,42.51199],[-70.81194,42.51102],[-70.81193,42.51091],[-70.81215,42.51033],[-70.81266,42.51012],[-70.81407,42.5104],[-70.81574,42.51235],[-70.8169,42.51332],[-70.81743,42.51403],[-70.8164,42.51461],[-70.81509,42.51405],[-70.81363,42.51276],[-70.81206,42.51199]]],[[[-70.90276,42.54483],[-70.89843,42.54291],[-70.89439,42.5407],[-70.89029,42.5393],[-70.8881,42.539],[-70.88814,42.53649],[-70.88753,42.53638],[-70.88719,42.53794],[-70.88061,42.5374],[-70.88256,42.53489],[-70.88122,42.53388],[-70.87892,42.53214],[-70.87551,42.53375],[-70.87187,42.53548],[-70.87163,42.53559],[-70.86759,42.53629],[-70.86421,42.53343],[-70.86632,42.52673],[-70.87757,42.5235],[-70.88175,42.51898],[-70.88413,42.5164],[-70.88518,42.51527],[-70.88572,42.51224],[-70.88604,42.51041],[-70.88637,42.50861],[-70.88185,42.50563],[-70.87873,42.50533],[-70.87954,42.50375],[-70.88224,42.50271],[-70.88676,42.49845],[-70.88573,42.49771],[-70.886,42.4963],[-70.88679,42.49511],[-70.8908,42.49356],[-70.8909,42.49325],[-70.89021,42.48959],[-70.89424,42.48595],[-70.89586,42.48552],[-70.89903,42.48467],[-70.89937,42.48475],[-70.90025,42.48495],[-70.90178,42.48536],[-70.90659,42.48428],[-70.91355,42.48594],[-70.93411,42.49083],[-70.93546,42.49117],[-70.94932,42.49458],[-70.94992,42.49478],[-70.95086,42.49498],[-70.95714,42.49653],[-70.95953,42.49783],[-70.96459,42.50035],[-70.97832,42.50736],[-70.98691,42.51177],[-70.98714,42.5119],[-70.99653,42.51765],[-70.99938,42.51939],[-71.00529,42.52299],[-71.01699,42.53555],[-71.01969,42.53846],[-71.03156,42.5512],[-71.0319,42.55266],[-71.03485,42.5655],[-71.02981,42.56516],[-71.02937,42.56943],[-71.02921,42.56997],[-71.02444,42.56936],[-71.02325,42.57039],[-71.02093,42.56869],[-71.01532,42.56793],[-71.00839,42.56407],[-71.00402,42.5652],[-71.00281,42.56336],[-71.00196,42.56561],[-70.99783,42.56708],[-70.99636,42.56915],[-70.99677,42.57128],[-70.99447,42.57238],[-70.99345,42.57394],[-70.99264,42.57697],[-70.98984,42.58097],[-70.9913,42.5814],[-70.99083,42.58256],[-70.99165,42.58645],[-70.98809,42.58822],[-70.98733,42.58889],[-70.98558,42.58989],[-70.98606,42.59183],[-70.97437,42.59454],[-70.96589,42.599],[-70.96481,42.59958],[-70.95838,42.60318],[-70.95472,42.60532],[-70.94386,42.60957],[-70.93242,42.61324],[-70.93121,42.61244],[-70.93109,42.61244],[-70.92945,42.60898],[-70.93386,42.59958],[-70.92955,42.5946],[-70.9275,42.59223],[-70.92234,42.59151],[-70.90838,42.57305],[-70.9084,42.57154],[-70.90859,42.55759],[-70.9089,42.55674],[-70.91239,42.5467],[-70.9084,42.54556],[-70.90921,42.54625],[-70.90276,42.54483]]],[[[-70.78559,42.53698],[-70.78453,42.53636],[-70.78301,42.53548],[-70.78265,42.53461],[-70.78225,42.53372],[-70.78304,42.53326],[-70.78354,42.53285],[-70.78427,42.53249],[-70.78491,42.53254],[-70.78531,42.53196],[-70.78562,42.53121],[-70.78649,42.53083],[-70.78722,42.5309],[-70.78771,42.53058],[-70.78867,42.53092],[-70.7894,42.53193],[-70.78878,42.53401],[-70.78866,42.53578],[-70.78824,42.53684],[-70.78703,42.5373],[-70.78559,42.53698]]],[[[-70.79757,42.54971],[-70.79627,42.55113],[-70.79503,42.55068],[-70.79461,42.54893],[-70.7944,42.54804],[-70.79667,42.54646],[-70.80006,42.5477],[-70.80209,42.54719],[-70.80334,42.5483],[-70.80223,42.55105],[-70.80163,42.55147],[-70.79938,42.55124],[-70.79851,42.54976],[-70.79757,42.54971]]]]}},{"type":"Feature","properties":{"name":"SmartDART","boundary_type":"cousubs","source":"Census TIGER county subdivision","fidelity":"exact","updated":"2026-09","units":"Barnstable Town city; Yarmouth town; Dennis town","note":"Three towns on Cape Cod, serves tourist and resident needs.","confidence":0.9},"geometry":{"type":"MultiPolygon","coordinates":[[[[-70.45436,41.63919],[-70.45256,41.63875],[-70.45309,41.6418],[-70.45171,41.64248],[-70.44651,41.65034],[-70.4479,41.65235],[-70.45106,41.65691],[-70.45846,41.66379],[-70.45874,41.66404],[-70.44116,41.68169],[-70.43608,41.6868],[-70.42393,41.69901],[-70.41219,41.7108],[-70.39672,41.72635],[-70.39604,41.72703],[-70.39524,41.7251],[-70.38555,41.72063],[-70.38212,41.72148],[-70.36259,41.7119],[-70.36087,41.70881],[-70.36287,41.70509],[-70.35731,41.70253],[-70.34205,41.70136],[-70.34131,41.7015],[-70.3285,41.70392],[-70.32708,41.70562],[-70.32922,41.70892],[-70.32736,41.71126],[-70.3198,41.70967],[-70.30654,41.7103],[-70.30072,41.70854],[-70.30055,41.70849],[-70.29428,41.71084],[-70.28401,41.70988],[-70.27802,41.70999],[-70.26855,41.71293],[-70.2671,41.71287],[-70.26427,41.71171],[-70.26418,41.71129],[-70.26633,41.70867],[-70.26535,41.70719],[-70.26313,41.70705],[-70.2628,41.70757],[-70.26191,41.709],[-70.25814,41.71004],[-70.25701,41.70995],[-70.25618,41.70937],[-70.25614,41.70827],[-70.25571,41.70791],[-70.25498,41.70805],[-70.25342,41.70804],[-70.25284,41.70746],[-70.25119,41.70734],[-70.25024,41.70774],[-70.25035,41.70845],[-70.25066,41.70926],[-70.24837,41.71168],[-70.24432,41.71227],[-70.24267,41.71115],[-70.24102,41.71054],[-70.24019,41.71065],[-70.23993,41.71117],[-70.24059,41.71264],[-70.24109,41.71463],[-70.2393,41.71622],[-70.23951,41.71814],[-70.23817,41.72007],[-70.2353,41.72246],[-70.23932,41.72562],[-70.23932,41.72603],[-70.23932,41.72688],[-70.24078,41.72753],[-70.23465,41.73204],[-70.21607,41.74298],[-70.20602,41.74636],[-70.18925,41.75198],[-70.1838,41.75058],[-70.18072,41.75116],[-70.14991,41.75698],[-70.14153,41.76007],[-70.12198,41.75884],[-70.12196,41.75885],[-70.1228,41.75776],[-70.12587,41.75693],[-70.12958,41.75504],[-70.13074,41.75354],[-70.12955,41.75252],[-70.13121,41.75306],[-70.1307,41.75155],[-70.13307,41.75178],[-70.13281,41.75063],[-70.1353,41.75017],[-70.14004,41.74783],[-70.14419,41.74681],[-70.14511,41.74481],[-70.14583,41.74449],[-70.14021,41.7269],[-70.13385,41.70614],[-70.13211,41.70072],[-70.12874,41.69021],[-70.12774,41.68704],[-70.12051,41.66437],[-70.11929,41.6606],[-70.11756,41.65528],[-70.11775,41.65524],[-70.13671,41.65129],[-70.14088,41.65042],[-70.15752,41.65177],[-70.15811,41.65182],[-70.16834,41.652],[-70.16836,41.652],[-70.18717,41.64944],[-70.19331,41.64827],[-70.19519,41.64791],[-70.198,41.64415],[-70.20329,41.64319],[-70.20708,41.6425],[-70.21977,41.63647],[-70.22042,41.63627],[-70.23544,41.63167],[-70.24587,41.62848],[-70.25621,41.6207],[-70.25542,41.61754],[-70.2596,41.61086],[-70.26542,41.60933],[-70.26759,41.61091],[-70.26969,41.61778],[-70.26913,41.62574],[-70.27079,41.62795],[-70.27452,41.63293],[-70.28132,41.63513],[-70.29062,41.6352],[-70.29601,41.63438],[-70.30025,41.63246],[-70.30065,41.62951],[-70.31169,41.62741],[-70.31663,41.62545],[-70.32159,41.63051],[-70.32237,41.63089],[-70.32992,41.63458],[-70.33398,41.63546],[-70.33807,41.63634],[-70.33857,41.63628],[-70.35054,41.63482],[-70.35163,41.63469],[-70.36035,41.63107],[-70.36489,41.62672],[-70.36476,41.62407],[-70.36474,41.62367],[-70.36985,41.61589],[-70.37915,41.61136],[-70.40058,41.60638],[-70.40115,41.60645],[-70.40853,41.60735],[-70.42474,41.60502],[-70.42681,41.60472],[-70.43165,41.60572],[-70.43275,41.60564],[-70.43725,41.60533],[-70.44157,41.60028],[-70.44262,41.59905],[-70.44438,41.59428],[-70.44529,41.59181],[-70.44655,41.59024],[-70.45018,41.58904],[-70.45036,41.58759],[-70.45092,41.58729],[-70.45301,41.58634],[-70.45859,41.58867],[-70.46252,41.59358],[-70.46482,41.59654],[-70.46498,41.59674],[-70.46105,41.60636],[-70.45734,41.61076],[-70.45264,41.61596],[-70.45042,41.61674],[-70.44901,41.62124],[-70.45009,41.62474],[-70.45101,41.62638],[-70.451,41.62704],[-70.45108,41.62715],[-70.45125,41.62725],[-70.45127,41.62729],[-70.45125,41.62736],[-70.45117,41.62741],[-70.45107,41.62754],[-70.45106,41.6278],[-70.45267,41.63333],[-70.45306,41.63491],[-70.45599,41.63433],[-70.45646,41.63499],[-70.45775,41.63445],[-70.45973,41.63377],[-70.46039,41.63359],[-70.46099,41.63348],[-70.46457,41.63261],[-70.46568,41.63309],[-70.46645,41.63374],[-70.46758,41.63427],[-70.4663,41.63708],[-70.45848,41.63747],[-70.45436,41.63919]]],[[[-70.36342,41.73813],[-70.32069,41.73579],[-70.29556,41.73441],[-70.28834,41.73198],[-70.28309,41.72895],[-70.27525,41.72581],[-70.27388,41.72431],[-70.2744,41.7235],[-70.2789,41.72257],[-70.28177,41.72242],[-70.28552,41.72525],[-70.28817,41.72921],[-70.29025,41.7295],[-70.29212,41.72877],[-70.29205,41.72757],[-70.29319,41.72534],[-70.29627,41.72526],[-70.30326,41.72749],[-70.31924,41.72889],[-70.3325,41.73181],[-70.34079,41.73078],[-70.34604,41.73213],[-70.3489,41.73149],[-70.3633,41.73298],[-70.37314,41.73298],[-70.38284,41.73468],[-70.38526,41.73393],[-70.38412,41.73095],[-70.38897,41.72915],[-70.39325,41.72983],[-70.38359,41.73976],[-70.37534,41.73878],[-70.36342,41.73813]]]]}},{"type":"Feature","properties":{"name":"SRTA MicroConnector","boundary_type":"places","source":"Census TIGER place","fidelity":"exact","updated":"2026-09","units":"Fall River city; New Bedford city","note":"Two cities with 3 service zones total (Fall River, New Bedford North, New Bedford South); feeds South Coast Rail","confidence":0.8},"geometry":{"type":"MultiPolygon","coordinates":[[[[-70.96465,41.73435],[-70.9578,41.73761],[-70.94299,41.74467],[-70.93919,41.73318],[-70.93338,41.7156],[-70.93172,41.71056],[-70.92883,41.70182],[-70.92656,41.69483],[-70.92573,41.69235],[-70.92451,41.6886],[-70.92357,41.68575],[-70.91974,41.68358],[-70.91905,41.6818],[-70.91897,41.68183],[-70.91744,41.68103],[-70.9167,41.67838],[-70.91606,41.67645],[-70.91548,41.6741],[-70.91748,41.6663],[-70.91718,41.6636],[-70.91708,41.6633],[-70.91649,41.65961],[-70.91659,41.65909],[-70.91739,41.65611],[-70.91781,41.65469],[-70.91869,41.65293],[-70.91998,41.6492],[-70.91983,41.6487],[-70.91918,41.6465],[-70.91698,41.64471],[-70.91188,41.64421],[-70.90998,41.64161],[-70.91038,41.63981],[-70.91388,41.6375],[-70.91318,41.6345],[-70.91028,41.632],[-70.90758,41.6305],[-70.90669,41.62513],[-70.90597,41.6238],[-70.90883,41.62358],[-70.90886,41.62354],[-70.9132,41.61927],[-70.9117,41.61772],[-70.90983,41.61581],[-70.90717,41.61308],[-70.90537,41.61123],[-70.90452,41.61036],[-70.90331,41.60672],[-70.89966,41.59582],[-70.89956,41.5955],[-70.89861,41.59265],[-70.90205,41.59158],[-70.90908,41.5937],[-70.91081,41.59551],[-70.91234,41.59867],[-70.91658,41.60748],[-70.91705,41.60793],[-70.91841,41.60923],[-70.92007,41.61081],[-70.92177,41.61341],[-70.92237,41.61434],[-70.92269,41.6143],[-70.92564,41.61391],[-70.93046,41.61327],[-70.92972,41.60948],[-70.93029,41.60845],[-70.93059,41.60792],[-70.93235,41.60821],[-70.93297,41.61091],[-70.93334,41.61063],[-70.93461,41.60994],[-70.93465,41.61004],[-70.93575,41.61274],[-70.93642,41.61437],[-70.94263,41.61743],[-70.94528,41.61874],[-70.94816,41.62016],[-70.94973,41.62093],[-70.95164,41.62396],[-70.95382,41.62742],[-70.95844,41.63474],[-70.95901,41.63565],[-70.95964,41.63666],[-70.96045,41.64022],[-70.96969,41.64865],[-70.97116,41.65432],[-70.97278,41.66051],[-70.9775,41.67871],[-70.97607,41.68518],[-70.96539,41.734],[-70.96465,41.73435]]],[[[-71.17419,41.7022],[-71.16852,41.70823],[-71.16843,41.70834],[-71.16271,41.71561],[-71.15829,41.7212],[-71.15545,41.7238],[-71.14918,41.72991],[-71.14049,41.7386],[-71.13874,41.74079],[-71.13189,41.7494],[-71.13129,41.7575],[-71.12938,41.7599],[-71.12399,41.7667],[-71.12008,41.76761],[-71.11995,41.76529],[-71.11337,41.76497],[-71.10609,41.76365],[-71.07203,41.7575],[-71.00954,41.7462],[-71.0119,41.71178],[-71.04153,41.69761],[-71.06663,41.68562],[-71.07667,41.68747],[-71.10569,41.6928],[-71.11441,41.6928],[-71.11893,41.68076],[-71.11914,41.68009],[-71.11922,41.67982],[-71.12518,41.66093],[-71.13276,41.63643],[-71.13419,41.634],[-71.13405,41.63202],[-71.13304,41.63097],[-71.13394,41.62871],[-71.1354,41.62565],[-71.1383,41.60405],[-71.13855,41.60343],[-71.14059,41.6051],[-71.14087,41.6071],[-71.14091,41.6074],[-71.14151,41.61608],[-71.14047,41.62389],[-71.13569,41.6284],[-71.13568,41.62853],[-71.1347,41.63889],[-71.13448,41.6412],[-71.13448,41.64126],[-71.13267,41.65874],[-71.13289,41.6601],[-71.13469,41.6605],[-71.13519,41.6605],[-71.14587,41.6628],[-71.15359,41.66404],[-71.15399,41.6641],[-71.16215,41.66558],[-71.17609,41.6681],[-71.17609,41.6685],[-71.17609,41.6686],[-71.17599,41.6714],[-71.18129,41.6725],[-71.18433,41.67305],[-71.19117,41.67429],[-71.19118,41.67422],[-71.19439,41.6748],[-71.19564,41.67509],[-71.19569,41.6751],[-71.20122,41.68186],[-71.19619,41.6863],[-71.18979,41.6915],[-71.17419,41.7022]]]]}},{"type":"Feature","properties":{"name":"Stoneham Shuttle","boundary_type":"city","source":"Census TIGER place","fidelity":"exact","updated":"2026-09","units":"Stoneham CDP","note":"All-electric townwide microtransit operated by Town of Stoneham","confidence":0.95},"geometry":{"type":"Polygon","coordinates":[[[-71.10179,42.50213],[-71.10073,42.50224],[-71.09007,42.50118],[-71.08638,42.49398],[-71.08555,42.49234],[-71.08536,42.4922],[-71.07524,42.48801],[-71.07581,42.48357],[-71.0766,42.47749],[-71.07771,42.47739],[-71.07815,42.47402],[-71.07844,42.47061],[-71.07891,42.46498],[-71.07924,42.46132],[-71.0798,42.45798],[-71.08059,42.45314],[-71.08212,42.44394],[-71.08564,42.44469],[-71.10472,42.44885],[-71.1194,42.45345],[-71.11462,42.46334],[-71.10952,42.4739],[-71.11206,42.47382],[-71.11317,42.4787],[-71.11564,42.48959],[-71.11677,42.49455],[-71.1215,42.49854],[-71.11976,42.50029],[-71.10179,42.50213]]]}},{"type":"Feature","properties":{"name":"Tri-Town Connector","boundary_type":"cousubs","source":"Census TIGER county subdivision","fidelity":"exact","updated":"2026-09","units":"Great Barrington town; Stockbridge town; Egremont town; Sheffield town; Monterey town","note":"Five-town rural microtransit in southern Berkshires, replaces fixed routes in transit desert.","confidence":0.95},"geometry":{"type":"Polygon","coordinates":[[[-73.41995,42.10385],[-73.42875,42.12126],[-73.43654,42.11815],[-73.47252,42.15043],[-73.48296,42.15482],[-73.47592,42.174],[-73.45994,42.21753],[-73.41408,42.21272],[-73.41436,42.22523],[-73.39624,42.22504],[-73.40245,42.25854],[-73.38075,42.25853],[-73.37883,42.25851],[-73.37673,42.25853],[-73.37574,42.25853],[-73.36594,42.25853],[-73.36592,42.25914],[-73.36473,42.31903],[-73.35853,42.31957],[-73.3523,42.32011],[-73.35051,42.33941],[-73.34099,42.35188],[-73.33077,42.35198],[-73.30164,42.35222],[-73.28814,42.35234],[-73.28815,42.34929],[-73.28821,42.33674],[-73.28828,42.32354],[-73.28863,42.29772],[-73.28895,42.27504],[-73.28919,42.25751],[-73.24399,42.25706],[-73.2568,42.24167],[-73.16209,42.19699],[-73.16197,42.17867],[-73.16679,42.16286],[-73.16617,42.15735],[-73.18672,42.15582],[-73.1863,42.15357],[-73.22447,42.14819],[-73.24708,42.16858],[-73.27171,42.16581],[-73.27324,42.1663],[-73.27511,42.16811],[-73.28277,42.16954],[-73.28914,42.17228],[-73.28724,42.1592],[-73.29709,42.15921],[-73.29442,42.14161],[-73.29127,42.12074],[-73.30436,42.10671],[-73.3019,42.08832],[-73.29633,42.04703],[-73.32563,42.0478],[-73.32773,42.04785],[-73.34053,42.04818],[-73.42617,42.05041],[-73.43281,42.05059],[-73.43675,42.05052],[-73.43466,42.05459],[-73.42819,42.08179],[-73.42535,42.08939],[-73.41995,42.10385]]]}},{"type":"Feature","properties":{"name":"VTA On Demand","boundary_type":"places","source":"Census TIGER place","fidelity":"exact","updated":"2026-09","units":"Edgartown CDP; Oak Bluffs CDP","note":"CSV lists this as an off-season/evening microtransit covering Edgartown and Oak Bluffs, so units are those two towns per SPEC RULES. Note for follow-up: VTA's only documented on-demand microtransit pilot found in research (vineyardgazette.com, Nov 2020 \"VTA Launches Micro Transit\") served up-Island riders (Aquinnah/Chilmark/West Tisbury/Tisbury area), not Edgartown/Oak Bluffs, and the CSV pin (41.389,-70.6298) sits ~8.6km west of these two towns, closer to that up-Island area \u2013 no current vineyardtransit.com page documents a distinct \"On Demand\" service by name (checked vineyardtransit.com, route-maps, and 2025 RFP PDF). Town pairing not independently confirmed; may need human verification against VTA directly (508-693-9440).","confidence":0.6},"geometry":{"type":"MultiPolygon","coordinates":[[[[-70.52854,41.39512],[-70.52277,41.3961],[-70.52267,41.39917],[-70.51823,41.39908],[-70.51818,41.39984],[-70.51649,41.39906],[-70.51366,41.39642],[-70.50768,41.39747],[-70.50538,41.39519],[-70.50518,41.39232],[-70.50577,41.39114],[-70.50794,41.39114],[-70.5105,41.38872],[-70.51213,41.38883],[-70.51369,41.38741],[-70.51357,41.38594],[-70.5104,41.38174],[-70.51215,41.38174],[-70.51655,41.38001],[-70.51689,41.3809],[-70.51881,41.379],[-70.51953,41.37882],[-70.52197,41.38232],[-70.52451,41.38131],[-70.52627,41.38493],[-70.52782,41.38438],[-70.52853,41.38624],[-70.53115,41.38862],[-70.53252,41.39079],[-70.53131,41.39267],[-70.5341,41.39409],[-70.53068,41.39684],[-70.52854,41.39512]]],[[[-70.56736,41.47121],[-70.56328,41.46913],[-70.55941,41.46287],[-70.56212,41.45814],[-70.56091,41.45742],[-70.55865,41.45787],[-70.55767,41.46006],[-70.55328,41.45296],[-70.55324,41.45201],[-70.55311,41.4481],[-70.55294,41.44339],[-70.55303,41.443],[-70.55383,41.43922],[-70.55575,41.43917],[-70.55549,41.44004],[-70.55947,41.44111],[-70.5607,41.4425],[-70.5636,41.44339],[-70.56749,41.44267],[-70.56925,41.4433],[-70.56743,41.44531],[-70.57004,41.44641],[-70.5738,41.44251],[-70.57477,41.44682],[-70.57545,41.45343],[-70.57612,41.45617],[-70.57628,41.46031],[-70.57929,41.46178],[-70.57753,41.46338],[-70.57945,41.46396],[-70.57844,41.46519],[-70.57485,41.46826],[-70.56736,41.47121]]]]}},{"type":"Feature","properties":{"name":"WRTA Via","boundary_type":"cousubs","source":"Census TIGER county subdivision","fidelity":"approximate","updated":"2026-09","units":"Westborough town; Shrewsbury town","note":"Service zones are subsets of town limits, not full towns: Shrewsbury zone runs N of Rte 9 to Rte 20/Grafton State Hospital between Lake Quinsigamond and Northborough Crossing; Westborough/Northborough zone runs from downtown Northborough to south of Nourse St/W Main St between Northborough Crossing and I-495 (service also expanded to Northborough by July 2025, not reflected in this row's CSV text). CSV pin (42.2625,-71.8022) matches Worcester's coordinates, not Westborough/Shrewsbury - likely a mislabeled pin in the source CSV, not a boundary error; flagging for CSV correction rather than widening the polygon. Sources: https://city.ridewithvia.com/via-wrta, https://www.communityadvocate.com/news/wrta-service-expands-through-westborough-northborough-shrewsbury/article_099e3002-3348-49f1-9e06-f1247e888139.html","confidence":0.8},"geometry":{"type":"Polygon","coordinates":[[[-71.65452,42.28412],[-71.64279,42.28815],[-71.64259,42.29025],[-71.63797,42.29263],[-71.6377,42.29393],[-71.63728,42.29445],[-71.63702,42.29629],[-71.6345,42.29681],[-71.63321,42.30056],[-71.59084,42.3048],[-71.58003,42.30589],[-71.56243,42.28884],[-71.54602,42.27293],[-71.54274,42.26974],[-71.54294,42.26718],[-71.55011,42.26602],[-71.55241,42.26743],[-71.55658,42.26813],[-71.5585,42.26754],[-71.55853,42.26782],[-71.56456,42.26687],[-71.58676,42.25955],[-71.58985,42.25126],[-71.59287,42.24321],[-71.59932,42.22596],[-71.62107,42.23087],[-71.64444,42.22663],[-71.64467,42.22769],[-71.64829,42.2446],[-71.6484,42.24515],[-71.65017,42.2478],[-71.66259,42.24594],[-71.67093,42.2447],[-71.67417,42.24859],[-71.67445,42.25236],[-71.70466,42.24836],[-71.7114,42.24514],[-71.71799,42.24506],[-71.73124,42.24129],[-71.74196,42.24313],[-71.74608,42.24384],[-71.74997,42.25181],[-71.75119,42.25425],[-71.75227,42.26019],[-71.75286,42.2636],[-71.75351,42.26749],[-71.75474,42.27439],[-71.75575,42.2802],[-71.75811,42.29375],[-71.75854,42.29622],[-71.7631,42.30326],[-71.76827,42.31126],[-71.7672,42.31323],[-71.76446,42.31286],[-71.75651,42.31213],[-71.74142,42.31732],[-71.74174,42.31573],[-71.73679,42.31683],[-71.73182,42.31793],[-71.73021,42.32114],[-71.7205,42.32461],[-71.69867,42.33241],[-71.69548,42.33027],[-71.69764,42.32918],[-71.69759,42.32755],[-71.69096,42.32896],[-71.69114,42.3269],[-71.68788,42.3255],[-71.68971,42.31882],[-71.68696,42.31498],[-71.68042,42.30517],[-71.68025,42.30423],[-71.677,42.28615],[-71.67293,42.2818],[-71.67157,42.28032],[-71.67011,42.27876],[-71.65864,42.28271],[-71.65452,42.28412]]]}}]}