{"type":"FeatureCollection","features":[{"type":"Feature","properties":{"name":"Go Time! Annapolis","boundary_type":"city","source":"Census TIGER place","fidelity":"approximate","updated":"2026-09","units":"Annapolis city","note":"Pickup is limited to within 3/4 mile of the former Orange Route (Church Circle, Inner West St, Spa Rd, Pip Moyer/Hilltop Ln, Robinwood, Newtowne Rd, Forest Dr/Safeway) and Purple Route (Westfield Annapolis Mall to Eastport), which together span most but not all of the city; no zone polygon or size is published, so the city is used as an approximate containing shape. Sources: https://annapolis.gov/2177/Go-Time-Annapolis-On-Demand-Transit and https://www.eyeonannapolis.net/2024/08/annapolis-sunsets-orange-and-purple-bus-lines-new-on-demand-service-takes-over/","confidence":0.7},"geometry":{"type":"Polygon","coordinates":[[[-76.53721,38.98134],[-76.53643,38.98093],[-76.53467,38.98294],[-76.53412,38.98282],[-76.52979,38.98673],[-76.52734,38.98607],[-76.53068,38.98754],[-76.52635,38.98916],[-76.52317,38.98983],[-76.51868,38.98924],[-76.51567,38.99054],[-76.50974,38.99137],[-76.50823,38.99289],[-76.50586,38.99368],[-76.50322,38.99855],[-76.49748,39.00291],[-76.49448,39.00051],[-76.48858,38.99411],[-76.49434,38.99239],[-76.49717,38.99195],[-76.49745,38.99161],[-76.49846,38.99099],[-76.49952,38.99006],[-76.50053,38.98882],[-76.501,38.98734],[-76.49665,38.98313],[-76.49592,38.98255],[-76.4956,38.98331],[-76.49515,38.98343],[-76.49391,38.9845],[-76.4938,38.98477],[-76.49026,38.98246],[-76.48759,38.98199],[-76.48717,38.98047],[-76.48586,38.97803],[-76.48384,38.9768],[-76.48098,38.97701],[-76.47975,38.9771],[-76.47858,38.97561],[-76.47632,38.97487],[-76.4742,38.97265],[-76.47486,38.96746],[-76.47488,38.96731],[-76.47324,38.9624],[-76.47285,38.96122],[-76.47554,38.96141],[-76.4777,38.96],[-76.47789,38.95662],[-76.47953,38.95595],[-76.47709,38.95559],[-76.47778,38.95421],[-76.48045,38.95462],[-76.48073,38.9535],[-76.47849,38.9529],[-76.47714,38.95403],[-76.47643,38.95649],[-76.47384,38.9562],[-76.47374,38.955],[-76.47242,38.95497],[-76.47525,38.95406],[-76.47601,38.95312],[-76.48074,38.95166],[-76.48144,38.95176],[-76.48626,38.94628],[-76.48865,38.94531],[-76.48953,38.94657],[-76.48822,38.94787],[-76.48903,38.94828],[-76.49034,38.94896],[-76.49218,38.94706],[-76.49345,38.94891],[-76.4966,38.9465],[-76.50242,38.9482],[-76.50262,38.94559],[-76.50319,38.94524],[-76.50297,38.94265],[-76.50562,38.94244],[-76.50547,38.94504],[-76.51213,38.94527],[-76.51284,38.95215],[-76.5138,38.95342],[-76.51306,38.95555],[-76.50691,38.95549],[-76.50872,38.95758],[-76.50989,38.95918],[-76.51032,38.9601],[-76.51237,38.96184],[-76.51275,38.96191],[-76.51289,38.95753],[-76.51367,38.95419],[-76.51711,38.9564],[-76.51721,38.96057],[-76.5198,38.95978],[-76.52217,38.95691],[-76.52423,38.95753],[-76.52265,38.95926],[-76.52646,38.96197],[-76.52343,38.96434],[-76.52553,38.96577],[-76.52666,38.96461],[-76.53154,38.96004],[-76.53267,38.96278],[-76.53389,38.96281],[-76.53413,38.96405],[-76.53327,38.96499],[-76.53683,38.96668],[-76.53652,38.96695],[-76.53659,38.96697],[-76.53623,38.96773],[-76.53549,38.9681],[-76.53538,38.96859],[-76.53394,38.96931],[-76.53576,38.96941],[-76.53567,38.97055],[-76.53549,38.97122],[-76.53539,38.97495],[-76.53681,38.97355],[-76.53779,38.97631],[-76.53973,38.9775],[-76.53888,38.97872],[-76.53721,38.98134]]]}},{"type":"Feature","properties":{"name":"HoCo RapidRide","boundary_type":"places","source":"Census TIGER place","fidelity":"approximate","updated":"2026-09","units":"Elkridge CDP; Jessup CDP; Savage CDP; Columbia CDP","note":"Service runs along the Route 1 corridor connecting the named communities (Elkridge, Jessup, Savage, Hanover, Columbia) to shopping destinations (Dobbin Center, Snowden Square, Gateway Overlook); it does not cover all of Howard County, so the corridor communities are used rather than the full county. Hanover, MD straddles the Howard/Anne Arundel line and has no separate Census place or county-subdivision boundary, so it is not represented as its own polygon here (it sits between the Jessup and Elkridge shapes). Jessup CDP itself also straddles that county line, so no county hint is applied to it. No zone polygon is published. Sources: https://www.howardcountymd.gov/News031425b and https://ridewithvia.com/news/howard-county-executive-ball-launches-the-transformational-hoco-rapidride-a-new-microtransit-service-along-the-route-one-corridor","confidence":0.75},"geometry":{"type":"Polygon","coordinates":[[[-76.75915,39.15965],[-76.75597,39.15795],[-76.7563,39.15619],[-76.75822,39.15268],[-76.75569,39.15157],[-76.75334,39.14941],[-76.75533,39.14706],[-76.75817,39.1464],[-76.75765,39.14363],[-76.75899,39.1418],[-76.7581,39.14156],[-76.75544,39.14005],[-76.75931,39.13256],[-76.76429,39.12539],[-76.76782,39.12163],[-76.77197,39.11821],[-76.77774,39.11425],[-76.77805,39.1143],[-76.78043,39.11793],[-76.7905,39.1255],[-76.78645,39.12951],[-76.78518,39.13208],[-76.7842,39.1396],[-76.78262,39.14381],[-76.78287,39.14396],[-76.78887,39.15205],[-76.79173,39.15654],[-76.79305,39.15647],[-76.79755,39.15699],[-76.79737,39.15803],[-76.79918,39.1604],[-76.79884,39.16274],[-76.80032,39.16459],[-76.79978,39.16625],[-76.80057,39.16677],[-76.80537,39.16738],[-76.80669,39.16721],[-76.80886,39.16571],[-76.80819,39.16152],[-76.80906,39.16089],[-76.80572,39.15008],[-76.80467,39.14925],[-76.80852,39.14601],[-76.80913,39.14488],[-76.81177,39.13974],[-76.8125,39.13865],[-76.81609,39.13504],[-76.81647,39.13433],[-76.81772,39.13474],[-76.82488,39.13475],[-76.82775,39.13483],[-76.82997,39.13422],[-76.83255,39.13489],[-76.83293,39.13786],[-76.83381,39.13912],[-76.83685,39.14054],[-76.83674,39.14203],[-76.83869,39.14422],[-76.84038,39.14343],[-76.83948,39.14233],[-76.8405,39.14162],[-76.84366,39.14292],[-76.84339,39.14411],[-76.84079,39.14489],[-76.84168,39.14721],[-76.84248,39.14765],[-76.84395,39.14782],[-76.84751,39.15083],[-76.85215,39.15991],[-76.85562,39.15923],[-76.85741,39.16161],[-76.85978,39.15902],[-76.86042,39.16082],[-76.86261,39.16028],[-76.86345,39.162],[-76.86504,39.15922],[-76.86629,39.1584],[-76.86846,39.15844],[-76.87062,39.15936],[-76.87103,39.16087],[-76.87339,39.16051],[-76.87369,39.16343],[-76.87685,39.16301],[-76.87719,39.16368],[-76.87761,39.16597],[-76.87899,39.16704],[-76.88227,39.1669],[-76.88446,39.16856],[-76.88278,39.1721],[-76.8766,39.17876],[-76.8745,39.18187],[-76.87778,39.18285],[-76.88144,39.18352],[-76.89106,39.18373],[-76.89613,39.18467],[-76.89923,39.18598],[-76.90151,39.18727],[-76.9019,39.18689],[-76.90923,39.19001],[-76.91299,39.18985],[-76.91839,39.18737],[-76.92222,39.18799],[-76.9286,39.19092],[-76.93442,39.19282],[-76.93572,39.19469],[-76.93807,39.19896],[-76.9432,39.20394],[-76.94344,39.20227],[-76.94571,39.20241],[-76.94584,39.20614],[-76.94626,39.20607],[-76.94418,39.2084],[-76.94557,39.20965],[-76.94692,39.21028],[-76.94509,39.21202],[-76.94397,39.21184],[-76.94318,39.2137],[-76.93517,39.21405],[-76.92576,39.22323],[-76.91939,39.2268],[-76.91705,39.22945],[-76.91595,39.23039],[-76.91191,39.23114],[-76.90944,39.23208],[-76.89904,39.23343],[-76.8943,39.23398],[-76.89313,39.23809],[-76.88856,39.2376],[-76.88834,39.23706],[-76.88747,39.23696],[-76.88736,39.23666],[-76.88834,39.23646],[-76.88793,39.23486],[-76.88693,39.23501],[-76.88488,39.23532],[-76.88525,39.2366],[-76.88524,39.23703],[-76.88303,39.23744],[-76.88282,39.23666],[-76.88426,39.2364],[-76.88405,39.23543],[-76.88095,39.23552],[-76.87077,39.23588],[-76.86855,39.23566],[-76.86303,39.23747],[-76.85487,39.2383],[-76.84721,39.23945],[-76.84571,39.23968],[-76.84449,39.23977],[-76.84003,39.24002],[-76.83736,39.23985],[-76.83701,39.23979],[-76.83352,39.23887],[-76.83252,39.23816],[-76.83122,39.23863],[-76.8251,39.23756],[-76.8225,39.23614],[-76.82016,39.23454],[-76.81606,39.23411],[-76.81584,39.23232],[-76.81343,39.22859],[-76.81193,39.22927],[-76.80724,39.22455],[-76.80659,39.22407],[-76.80747,39.22256],[-76.80774,39.2211],[-76.80685,39.21813],[-76.80659,39.21762],[-76.79998,39.21074],[-76.79713,39.20787],[-76.79672,39.20733],[-76.79617,39.20594],[-76.79537,39.20264],[-76.79433,39.19707],[-76.79403,39.19401],[-76.79352,39.19184],[-76.79169,39.18922],[-76.78976,39.18727],[-76.7874,39.1843],[-76.78696,39.17981],[-76.77955,39.18572],[-76.77284,39.19161],[-76.7666,39.19737],[-76.76342,39.19957],[-76.74911,39.20675],[-76.73889,39.21184],[-76.73849,39.21173],[-76.72956,39.21629],[-76.71901,39.22375],[-76.71726,39.22548],[-76.71309,39.22172],[-76.70667,39.22125],[-76.70609,39.2183],[-76.70608,39.21811],[-76.70523,39.21567],[-76.70042,39.21301],[-76.69913,39.21299],[-76.69708,39.21409],[-76.69677,39.2136],[-76.69756,39.21203],[-76.70081,39.21242],[-76.70333,39.2107],[-76.70505,39.20692],[-76.70759,39.20583],[-76.70799,39.20342],[-76.71216,39.20193],[-76.71194,39.19773],[-76.71391,39.19437],[-76.71345,39.19324],[-76.71608,39.19184],[-76.71922,39.19148],[-76.71992,39.18994],[-76.7211,39.18916],[-76.7201,39.18735],[-76.72144,39.18571],[-76.72195,39.18303],[-76.72796,39.18408],[-76.7295,39.18379],[-76.73447,39.18034],[-76.7382,39.17909],[-76.74063,39.17922],[-76.74639,39.17951],[-76.74747,39.17832],[-76.75014,39.17502],[-76.75414,39.17206],[-76.76042,39.16891],[-76.76374,39.16623],[-76.7671,39.16238],[-76.76325,39.16135],[-76.75915,39.15965]]]}},{"type":"Feature","properties":{"name":"PGC Link","boundary_type":"places","source":"Census TIGER place","fidelity":"exact","updated":"2026-09","units":"Fort Washington CDP; Oxon Hill CDP; Accokeek CDP","note":"Service covers the confirmed Fort Washington-Oxon Hill-Accokeek zone. Additional zones (Bowie, Hyattsville, Laurel) are planned but not yet confirmed operating.","confidence":0.8},"geometry":{"type":"Polygon","coordinates":[[[-77.0434,38.70361],[-77.03981,38.70987],[-77.034,38.72557],[-77.03396,38.72716],[-77.03353,38.74654],[-77.03333,38.75967],[-77.03328,38.77292],[-77.03286,38.77909],[-77.02547,38.77911],[-77.01938,38.77925],[-77.01872,38.77957],[-77.01074,38.77875],[-77.00604,38.77751],[-77.00627,38.77857],[-77.00501,38.77843],[-77.00196,38.77954],[-76.99858,38.77929],[-76.9981,38.77938],[-76.99749,38.78033],[-76.99844,38.7872],[-76.99873,38.79503],[-76.99872,38.79657],[-76.99712,38.79557],[-76.98843,38.79718],[-76.98881,38.79837],[-76.99047,38.79921],[-76.99389,38.7986],[-76.99504,38.79794],[-76.99457,38.79963],[-76.99553,38.80049],[-76.99688,38.79927],[-76.9961,38.80307],[-76.99362,38.803],[-76.99324,38.80085],[-76.98997,38.80077],[-76.99027,38.80278],[-76.9935,38.80313],[-76.99353,38.80589],[-76.99047,38.80637],[-76.98122,38.80721],[-76.97046,38.80878],[-76.97329,38.80607],[-76.97317,38.80568],[-76.97069,38.80585],[-76.966,38.80474],[-76.96269,38.80578],[-76.9597,38.80533],[-76.95897,38.80513],[-76.95858,38.80498],[-76.95739,38.80435],[-76.95253,38.8041],[-76.94545,38.80226],[-76.94275,38.80112],[-76.94842,38.79322],[-76.94973,38.79059],[-76.94364,38.79054],[-76.94138,38.78989],[-76.93845,38.78773],[-76.93987,38.78548],[-76.94427,38.78192],[-76.94552,38.78122],[-76.94891,38.77904],[-76.94968,38.77841],[-76.95123,38.77707],[-76.95208,38.77653],[-76.95372,38.7758],[-76.95761,38.7754],[-76.95939,38.77471],[-76.96202,38.77295],[-76.96523,38.77232],[-76.96773,38.77264],[-76.96997,38.7741],[-76.97322,38.77467],[-76.97644,38.77405],[-76.97899,38.77112],[-76.98322,38.76882],[-76.98551,38.76718],[-76.99059,38.76463],[-76.99344,38.76089],[-76.99381,38.76083],[-76.99329,38.75592],[-76.9902,38.75551],[-76.98082,38.75275],[-76.97914,38.75215],[-76.97859,38.75178],[-76.97597,38.74902],[-76.9733,38.74742],[-76.97305,38.74138],[-76.97583,38.73531],[-76.97598,38.7339],[-76.97604,38.73156],[-76.97326,38.7264],[-76.97345,38.72364],[-76.97447,38.7216],[-76.97384,38.71682],[-76.97084,38.71399],[-76.97078,38.71316],[-76.97154,38.70673],[-76.96985,38.7068],[-76.96602,38.70556],[-76.9638,38.70672],[-76.95986,38.70793],[-76.95706,38.7073],[-76.95391,38.7082],[-76.95245,38.70753],[-76.95099,38.70588],[-76.95001,38.7058],[-76.94881,38.70614],[-76.94777,38.70799],[-76.94613,38.70733],[-76.94147,38.70826],[-76.93932,38.70936],[-76.93866,38.70783],[-76.93625,38.70895],[-76.9327,38.70904],[-76.9208,38.70694],[-76.91913,38.70581],[-76.92342,38.70339],[-76.9259,38.69989],[-76.92626,38.69765],[-76.92528,38.69591],[-76.92063,38.6926],[-76.92043,38.68849],[-76.92157,38.6854],[-76.92359,38.68511],[-76.93373,38.68072],[-76.93642,38.67981],[-76.9392,38.67811],[-76.93658,38.67259],[-76.93495,38.67019],[-76.93154,38.67022],[-76.92888,38.66873],[-76.9283,38.66585],[-76.92749,38.66451],[-76.92482,38.66345],[-76.91761,38.66358],[-76.91664,38.6633],[-76.91501,38.66032],[-76.91539,38.65937],[-76.91424,38.65751],[-76.91342,38.655],[-76.91352,38.65293],[-76.91684,38.6525],[-76.91882,38.65352],[-76.92748,38.65485],[-76.93063,38.65409],[-76.93553,38.65524],[-76.9367,38.65492],[-76.93955,38.65459],[-76.94363,38.6569],[-76.94659,38.65893],[-76.94977,38.6585],[-76.9545,38.65846],[-76.95852,38.65892],[-76.95948,38.65948],[-76.96575,38.66127],[-76.96737,38.661],[-76.97043,38.66046],[-76.97106,38.65947],[-76.97243,38.65846],[-76.97682,38.65869],[-76.98472,38.65757],[-76.98945,38.65645],[-76.99131,38.65713],[-76.9986,38.65466],[-77.00153,38.65472],[-77.00525,38.65274],[-77.01103,38.65197],[-77.01322,38.65064],[-77.01874,38.64851],[-77.02009,38.6476],[-77.02112,38.64644],[-77.02113,38.64513],[-77.02237,38.64206],[-77.0248,38.64048],[-77.02635,38.6386],[-77.02714,38.63484],[-77.02874,38.63367],[-77.03125,38.63321],[-77.03249,38.63211],[-77.03476,38.63157],[-77.03622,38.63057],[-77.03827,38.63001],[-77.03934,38.6288],[-77.04,38.62596],[-77.0431,38.6225],[-77.04622,38.62015],[-77.04598,38.61878],[-77.04733,38.61708],[-77.04781,38.61617],[-77.0502,38.62072],[-77.05573,38.63548],[-77.05787,38.63967],[-77.0645,38.65712],[-77.0717,38.67614],[-77.07339,38.68168],[-77.076,38.68722],[-77.07846,38.69377],[-77.0786,38.69411],[-77.0595,38.70191],[-77.0434,38.70361]]]}},{"type":"Feature","properties":{"name":"Ride On Flex","boundary_type":"zone_approx","source":"Manual approximation","fidelity":"approximate","updated":"2026-09","units":"buffer 2.4 km @ 39.0700,-76.9900; clipped to Montgomery County","note":"Zone 918 is a narrow corridor along New Hampshire Ave from Cloverly St (Sandy Spring, ~39.083,-76.977) south to Lockwood Dr/White Oak Center (~39.041,-76.995), roughly 3 miles long -- far smaller than Montgomery County, so approximated as a ~1.5-mile-radius circle on the CSV pin, clipped to the county. No published zone polygon or acreage. Rockville and Glenmont/Wheaton zones were discontinued as of July 1, 2026, leaving only Zone 918. Source: https://www.montgomerycountymd.gov/department-transportation/ride-montgomery-county/ride-flex","confidence":0.7},"geometry":{"type":"Polygon","coordinates":[[[-76.96265,39.06626],[-76.96318,39.06442],[-76.96391,39.06263],[-76.96483,39.06089],[-76.96595,39.05922],[-76.96725,39.05763],[-76.96873,39.05614],[-76.97036,39.05476],[-76.97215,39.05348],[-76.97407,39.05234],[-76.97612,39.05133],[-76.97826,39.05046],[-76.9805,39.04974],[-76.98281,39.04918],[-76.98518,39.04877],[-76.98758,39.04852],[-76.99,39.04844],[-76.99242,39.04852],[-76.99482,39.04877],[-76.99719,39.04918],[-76.9995,39.04974],[-77.00174,39.05046],[-77.00388,39.05133],[-77.00593,39.05234],[-77.00785,39.05348],[-77.00964,39.05476],[-77.01127,39.05614],[-77.01275,39.05763],[-77.01405,39.05922],[-77.01517,39.06089],[-77.01609,39.06263],[-77.01682,39.06442],[-77.01735,39.06626],[-77.01766,39.06812],[-77.01777,39.07],[-77.01766,39.07188],[-77.01735,39.07374],[-77.01682,39.07558],[-77.01609,39.07737],[-77.01517,39.07911],[-77.01405,39.08078],[-77.01275,39.08237],[-77.01127,39.08386],[-77.00964,39.08524],[-77.00785,39.08652],[-77.00593,39.08766],[-77.00388,39.08867],[-77.00174,39.08954],[-76.9995,39.09026],[-76.99719,39.09082],[-76.99482,39.09123],[-76.99242,39.09148],[-76.99,39.09156],[-76.98758,39.09148],[-76.98518,39.09123],[-76.98281,39.09082],[-76.9805,39.09026],[-76.97826,39.08954],[-76.97612,39.08867],[-76.97407,39.08766],[-76.97215,39.08652],[-76.97036,39.08524],[-76.96873,39.08386],[-76.96725,39.08237],[-76.96595,39.08078],[-76.96483,39.07911],[-76.96391,39.07737],[-76.96318,39.07558],[-76.96265,39.07374],[-76.96234,39.07188],[-76.96223,39.07],[-76.96234,39.06812],[-76.96265,39.06626]]]}}]}