{"type":"FeatureCollection","features":[{"type":"Feature","properties":{"name":"Metro Connect (Falmouth)","boundary_type":"cousub","source":"Census TIGER county subdivision","fidelity":"exact","updated":"2026-09","units":"Falmouth town","note":"Service area covers Falmouth, ME.","confidence":0.95},"geometry":{"type":"MultiPolygon","coordinates":[[[[-70.19047,43.72224],[-70.18666,43.72327],[-70.18595,43.72104],[-70.18951,43.71657],[-70.19284,43.71348],[-70.19712,43.71125],[-70.19665,43.7152],[-70.19403,43.71743],[-70.19047,43.72224]]],[[[-70.3432,43.81031],[-70.33678,43.80715],[-70.30175,43.78972],[-70.26732,43.77255],[-70.26004,43.76892],[-70.22362,43.75091],[-70.21902,43.74857],[-70.19785,43.73802],[-70.218,43.71998],[-70.21786,43.71965],[-70.217,43.71766],[-70.21661,43.71674],[-70.21617,43.71613],[-70.21394,43.71305],[-70.21376,43.71279],[-70.21567,43.70774],[-70.21683,43.70482],[-70.21673,43.70471],[-70.21352,43.70128],[-70.21471,43.69733],[-70.21875,43.69819],[-70.22279,43.70145],[-70.22434,43.70159],[-70.22791,43.70191],[-70.23199,43.70482],[-70.23562,43.69888],[-70.23476,43.69715],[-70.23254,43.69269],[-70.22802,43.69183],[-70.22612,43.68874],[-70.23063,43.68616],[-70.23195,43.68598],[-70.23462,43.68561],[-70.2367,43.68748],[-70.23753,43.68822],[-70.24125,43.69201],[-70.24255,43.69333],[-70.24568,43.6904],[-70.2487,43.6947],[-70.25092,43.70015],[-70.25595,43.70093],[-70.25956,43.70145],[-70.2664,43.70246],[-70.26689,43.70129],[-70.2707,43.70044],[-70.27212,43.70207],[-70.27388,43.70344],[-70.27466,43.70537],[-70.27735,43.7055],[-70.27724,43.71087],[-70.27707,43.71385],[-70.2827,43.71663],[-70.27775,43.72228],[-70.28037,43.7225],[-70.28575,43.72769],[-70.29242,43.7259],[-70.29418,43.72394],[-70.29933,43.72015],[-70.30029,43.72027],[-70.30428,43.72319],[-70.30425,43.72387],[-70.30782,43.72402],[-70.30968,43.72256],[-70.30991,43.72041],[-70.31125,43.7199],[-70.31625,43.72516],[-70.31828,43.72732],[-70.32027,43.72846],[-70.32338,43.72809],[-70.3274,43.73225],[-70.32665,43.733],[-70.32825,43.73412],[-70.32725,43.73533],[-70.3376,43.74064],[-70.33533,43.74381],[-70.3321,43.74335],[-70.3349,43.74933],[-70.33749,43.74916],[-70.33597,43.75184],[-70.33901,43.7523],[-70.34044,43.75032],[-70.34433,43.75062],[-70.34819,43.75016],[-70.34777,43.74903],[-70.35016,43.74811],[-70.35155,43.7522],[-70.35334,43.75179],[-70.3533,43.74934],[-70.35471,43.75008],[-70.36123,43.75382],[-70.35012,43.78801],[-70.3432,43.81031]]]]}},{"type":"Feature","properties":{"name":"Standish-Gorham Microtransit Pilot","boundary_type":"cousubs","source":"Census TIGER county subdivision","fidelity":"exact","updated":"2026-09","units":"Standish town; Gorham town","note":"Serves two towns: Standish and Gorham.","confidence":0.9},"geometry":{"type":"Polygon","coordinates":[[[-70.45084,43.80889],[-70.45008,43.80249],[-70.44958,43.80203],[-70.44813,43.80149],[-70.44736,43.79959],[-70.44832,43.7967],[-70.4504,43.79369],[-70.45375,43.79138],[-70.45488,43.78587],[-70.455,43.78291],[-70.45451,43.78122],[-70.4527,43.77969],[-70.45211,43.77717],[-70.44729,43.77611],[-70.44542,43.77268],[-70.44377,43.77302],[-70.44393,43.77188],[-70.4465,43.76897],[-70.44554,43.76759],[-70.44762,43.76649],[-70.44836,43.76492],[-70.44802,43.76353],[-70.44922,43.76267],[-70.44742,43.76082],[-70.44685,43.75884],[-70.44841,43.756],[-70.44824,43.75268],[-70.44656,43.75025],[-70.444,43.74866],[-70.43852,43.74854],[-70.43851,43.74764],[-70.43947,43.74601],[-70.43838,43.74123],[-70.43732,43.73927],[-70.43576,43.73886],[-70.43531,43.7404],[-70.43234,43.74116],[-70.42753,43.7375],[-70.42733,43.73456],[-70.42578,43.73407],[-70.42485,43.73405],[-70.42363,43.7335],[-70.4225,43.72907],[-70.41855,43.72638],[-70.41551,43.72242],[-70.41318,43.72079],[-70.41171,43.7178],[-70.40959,43.71658],[-70.40554,43.71511],[-70.40455,43.71171],[-70.40215,43.70946],[-70.40241,43.7079],[-70.40369,43.70716],[-70.40348,43.70605],[-70.40261,43.70571],[-70.39719,43.70611],[-70.39493,43.70509],[-70.39402,43.7025],[-70.39096,43.7003],[-70.38763,43.69975],[-70.38581,43.69852],[-70.38244,43.69891],[-70.37925,43.69848],[-70.3781,43.69736],[-70.37993,43.6916],[-70.38475,43.67724],[-70.38909,43.66457],[-70.39201,43.65573],[-70.40618,43.64147],[-70.42703,43.62075],[-70.43484,43.61421],[-70.45533,43.6245],[-70.45918,43.62664],[-70.46846,43.63132],[-70.45774,43.64237],[-70.4737,43.65548],[-70.49075,43.6688],[-70.51461,43.68771],[-70.52242,43.69382],[-70.52965,43.69998],[-70.53833,43.70646],[-70.54077,43.70866],[-70.5466,43.71316],[-70.54996,43.7158],[-70.55291,43.71272],[-70.5774,43.68719],[-70.59534,43.6972],[-70.59817,43.69458],[-70.60564,43.6877],[-70.61207,43.6871],[-70.61169,43.68994],[-70.61085,43.69214],[-70.61104,43.69343],[-70.61284,43.69496],[-70.61449,43.69833],[-70.61728,43.6992],[-70.62215,43.6995],[-70.62329,43.70021],[-70.62388,43.70184],[-70.62796,43.70408],[-70.63087,43.70445],[-70.63353,43.70391],[-70.63843,43.70269],[-70.64121,43.70325],[-70.64256,43.70299],[-70.64669,43.70096],[-70.64974,43.69914],[-70.65195,43.69954],[-70.65737,43.70154],[-70.65928,43.70435],[-70.659,43.70748],[-70.65962,43.7109],[-70.65875,43.71394],[-70.65645,43.71734],[-70.65616,43.72071],[-70.65545,43.7228],[-70.65342,43.73143],[-70.65236,43.73352],[-70.65097,43.73683],[-70.649,43.73836],[-70.6469,43.73922],[-70.64604,43.74027],[-70.64556,43.74173],[-70.64587,43.74492],[-70.64551,43.74769],[-70.64386,43.74911],[-70.64301,43.75225],[-70.64397,43.75559],[-70.64522,43.75702],[-70.64697,43.7578],[-70.65107,43.75845],[-70.65217,43.75988],[-70.65273,43.76201],[-70.65635,43.76428],[-70.65588,43.76605],[-70.65431,43.76677],[-70.6505,43.76757],[-70.64984,43.76837],[-70.65239,43.77314],[-70.6529,43.77607],[-70.65454,43.779],[-70.6557,43.78026],[-70.65534,43.78339],[-70.65274,43.78659],[-70.65299,43.78754],[-70.65673,43.7886],[-70.65784,43.78959],[-70.66281,43.79125],[-70.6674,43.7911],[-70.6682,43.79253],[-70.66213,43.79863],[-70.63593,43.82455],[-70.62679,43.83375],[-70.61982,43.84073],[-70.61913,43.84141],[-70.61246,43.84794],[-70.53565,43.86403],[-70.4995,43.83334],[-70.48673,43.85654],[-70.46689,43.84653],[-70.46616,43.84607],[-70.46514,43.84562],[-70.45939,43.83636],[-70.45957,43.83529],[-70.46214,43.83228],[-70.46221,43.83098],[-70.46109,43.83055],[-70.45784,43.83076],[-70.45486,43.83031],[-70.45376,43.82961],[-70.45171,43.83123],[-70.4497,43.83063],[-70.44654,43.82728],[-70.44869,43.82076],[-70.44918,43.81866],[-70.4486,43.81699],[-70.44892,43.81374],[-70.45084,43.80889]],[[-70.53284,43.82876],[-70.5329,43.82536],[-70.53079,43.8244],[-70.52856,43.82529],[-70.52281,43.82529],[-70.51973,43.82219],[-70.51552,43.82349],[-70.51675,43.82587],[-70.51442,43.82966],[-70.51159,43.8316],[-70.51617,43.83791],[-70.51585,43.84235],[-70.51763,43.8437],[-70.51731,43.84728],[-70.51983,43.84888],[-70.52963,43.85389],[-70.533,43.85255],[-70.5329,43.84587],[-70.53128,43.84432],[-70.53291,43.84401],[-70.53222,43.84229],[-70.53454,43.83617],[-70.53108,43.83304],[-70.53284,43.82876]]]}}]}