{"type":"FeatureCollection","features":[{"type":"Feature","properties":{"name":"Central Community Transit (CCT) Dial-a-Ride","boundary_type":"counties","source":"Census TIGER county","fidelity":"exact","updated":"2026-09","units":"Kandiyohi County; Renville County; Meeker County","note":"CCT's own site (cctbus.org) states it \"provides transportation for all Kandiyohi County, Renville and Meeker County residents\" -- i.e. countywide demand-response, not just the three named towns; Wikipedia's Central Community Transit entry independently corroborates 'countywide demand-response services' across the three counties, with fixed routes limited to Litchfield and Willmar. Full-county units retained (not downgraded to town-only) on that basis.","confidence":0.85},"geometry":{"type":"Polygon","coordinates":[[[-95.48307,44.86518],[-95.48297,44.88979],[-95.48289,44.89071],[-95.43222,44.89092],[-95.3939,44.89104],[-95.37058,44.89111],[-95.36111,44.89115],[-95.24852,44.89131],[-95.24855,44.89989],[-95.24858,44.91436],[-95.24859,44.91767],[-95.2486,44.92028],[-95.24871,44.93467],[-95.24835,44.97829],[-95.24784,45.0125],[-95.24758,45.01903],[-95.24377,45.01877],[-95.24461,45.02133],[-95.24754,45.0213],[-95.2475,45.02338],[-95.24745,45.02666],[-95.24691,45.06538],[-95.2469,45.10179],[-95.24682,45.12339],[-95.24655,45.14522],[-95.24649,45.15238],[-95.24649,45.15243],[-95.24645,45.23868],[-95.2552,45.23871],[-95.25497,45.27819],[-95.2548,45.28034],[-95.25493,45.28171],[-95.25524,45.31093],[-95.25526,45.32523],[-95.25526,45.3255],[-95.25536,45.36952],[-95.25535,45.38392],[-95.25531,45.39084],[-95.25527,45.41274],[-95.25521,45.41274],[-95.13188,45.4125],[-95.13173,45.4124],[-95.00883,45.41227],[-94.8864,45.41296],[-94.86572,45.41299],[-94.85071,45.41295],[-94.76293,45.41286],[-94.76311,45.35506],[-94.76308,45.33333],[-94.76308,45.3261],[-94.66784,45.32574],[-94.6401,45.3256],[-94.62915,45.32566],[-94.55691,45.32589],[-94.53509,45.32611],[-94.53434,45.32612],[-94.50584,45.32597],[-94.50574,45.32597],[-94.49563,45.3259],[-94.42409,45.32613],[-94.38408,45.32663],[-94.38361,45.32664],[-94.38347,45.31195],[-94.38335,45.29719],[-94.38345,45.2828],[-94.28174,45.28299],[-94.27151,45.28362],[-94.26113,45.28394],[-94.26067,45.24988],[-94.26043,45.24296],[-94.26029,45.23927],[-94.25675,45.23927],[-94.25674,45.23578],[-94.25597,45.2113],[-94.256,45.21106],[-94.25592,45.20675],[-94.25574,45.16689],[-94.25579,45.15983],[-94.25577,45.15264],[-94.25577,45.14967],[-94.25585,45.14908],[-94.25602,45.0808],[-94.25606,45.06632],[-94.25605,44.98357],[-94.25607,44.97946],[-94.27653,44.9795],[-94.30669,44.97934],[-94.31743,44.97924],[-94.34813,44.97899],[-94.35299,44.97893],[-94.36863,44.97884],[-94.37852,44.9788],[-94.37874,44.9788],[-94.43982,44.97921],[-94.48659,44.97964],[-94.50188,44.97978],[-94.50188,44.97269],[-94.50191,44.96886],[-94.50208,44.94691],[-94.50195,44.94498],[-94.50226,44.90694],[-94.50239,44.89229],[-94.49773,44.89233],[-94.49804,44.85603],[-94.49802,44.84878],[-94.49781,44.81965],[-94.49777,44.81197],[-94.49776,44.80499],[-94.49798,44.76107],[-94.49791,44.72654],[-94.49807,44.71717],[-94.50026,44.7171],[-94.62949,44.71666],[-94.62918,44.6293],[-94.62928,44.54233],[-94.62434,44.54231],[-94.62435,44.52948],[-94.62423,44.52897],[-94.6242,44.45603],[-94.74358,44.45632],[-94.74496,44.45638],[-94.76265,44.45628],[-94.78063,44.45665],[-94.78138,44.45772],[-94.78804,44.45629],[-94.79016,44.4563],[-94.79387,44.45878],[-94.79337,44.46088],[-94.79715,44.46241],[-94.80088,44.46475],[-94.8054,44.46534],[-94.8064,44.4667],[-94.8027,44.46617],[-94.79998,44.46679],[-94.79769,44.46832],[-94.79812,44.46958],[-94.80061,44.46762],[-94.80281,44.46784],[-94.80704,44.46951],[-94.81003,44.47131],[-94.81112,44.47358],[-94.81044,44.47504],[-94.81047,44.47892],[-94.81111,44.48145],[-94.8125,44.48172],[-94.81548,44.47941],[-94.81739,44.47908],[-94.81792,44.4802],[-94.81779,44.48168],[-94.81452,44.48289],[-94.81488,44.48445],[-94.81634,44.48447],[-94.81707,44.48319],[-94.81842,44.48305],[-94.82374,44.48549],[-94.82558,44.48491],[-94.82664,44.48308],[-94.82851,44.48397],[-94.82926,44.48655],[-94.83193,44.48898],[-94.83408,44.48963],[-94.83623,44.48966],[-94.83828,44.48847],[-94.8388,44.49063],[-94.83978,44.49157],[-94.84259,44.49235],[-94.84598,44.49251],[-94.84945,44.49195],[-94.85079,44.48991],[-94.85325,44.48967],[-94.8544,44.49013],[-94.85511,44.49249],[-94.85191,44.49414],[-94.85183,44.49525],[-94.85368,44.49553],[-94.85847,44.4948],[-94.86185,44.49508],[-94.86418,44.4959],[-94.86582,44.49822],[-94.86891,44.49932],[-94.87056,44.50108],[-94.87158,44.49916],[-94.87382,44.49946],[-94.87356,44.5056],[-94.87561,44.5068],[-94.87874,44.50621],[-94.87948,44.50687],[-94.87753,44.50862],[-94.87968,44.51059],[-94.87772,44.5111],[-94.8784,44.51465],[-94.88033,44.51679],[-94.88274,44.51742],[-94.88507,44.51676],[-94.88667,44.51513],[-94.88725,44.51348],[-94.89037,44.51216],[-94.8924,44.51343],[-94.89069,44.51626],[-94.89206,44.51844],[-94.89499,44.52015],[-94.89829,44.52078],[-94.89763,44.5192],[-94.89886,44.51905],[-94.90157,44.52077],[-94.90293,44.52021],[-94.90183,44.51784],[-94.90217,44.51727],[-94.9054,44.51684],[-94.90845,44.51701],[-94.91437,44.51581],[-94.91632,44.51592],[-94.91735,44.51691],[-94.92036,44.51655],[-94.92338,44.51746],[-94.92352,44.51819],[-94.92156,44.51876],[-94.92213,44.52017],[-94.92473,44.52114],[-94.92632,44.52246],[-94.92811,44.52355],[-94.93072,44.52464],[-94.93377,44.52435],[-94.93485,44.52269],[-94.93729,44.5232],[-94.93821,44.5241],[-94.93502,44.52686],[-94.93503,44.52756],[-94.93779,44.53029],[-94.93923,44.52988],[-94.93808,44.52748],[-94.93959,44.52645],[-94.94294,44.52573],[-94.94505,44.52647],[-94.94491,44.52833],[-94.94666,44.52944],[-94.94966,44.52869],[-94.95377,44.52879],[-94.9563,44.53195],[-94.95752,44.53248],[-94.96289,44.53273],[-94.9687,44.53335],[-94.96908,44.53475],[-94.96792,44.53606],[-94.96733,44.53885],[-94.96881,44.54008],[-94.97018,44.54026],[-94.97072,44.53934],[-94.97183,44.53883],[-94.97357,44.53709],[-94.97386,44.53672],[-94.97377,44.53609],[-94.97458,44.53547],[-94.9757,44.53515],[-94.97706,44.53536],[-94.97762,44.5356],[-94.97904,44.53659],[-94.97898,44.53734],[-94.97848,44.53747],[-94.97673,44.5367],[-94.97487,44.5369],[-94.97504,44.53715],[-94.97583,44.53936],[-94.97539,44.54048],[-94.97694,44.54056],[-94.97826,44.54011],[-94.97901,44.53994],[-94.97963,44.53986],[-94.98216,44.5398],[-94.98429,44.53983],[-94.98207,44.54223],[-94.98444,44.54213],[-94.98576,44.54178],[-94.9869,44.54179],[-94.98866,44.54307],[-94.98884,44.54638],[-94.99424,44.54508],[-94.99892,44.54756],[-95.00071,44.54754],[-94.99965,44.54541],[-95.00029,44.54372],[-95.00223,44.543],[-95.00377,44.54557],[-95.00652,44.54703],[-95.00663,44.54424],[-95.00996,44.54409],[-95.01501,44.54263],[-95.01524,44.54262],[-95.01627,44.5428],[-95.01669,44.54291],[-95.01719,44.54313],[-95.01726,44.54321],[-95.01762,44.5438],[-95.01727,44.54554],[-95.01642,44.54696],[-95.01222,44.54822],[-95.0114,44.54935],[-95.01247,44.55032],[-95.01577,44.55147],[-95.01693,44.55129],[-95.02075,44.54906],[-95.0215,44.54781],[-95.02095,44.54608],[-95.02299,44.5455],[-95.02507,44.54653],[-95.02401,44.54917],[-95.025,44.55246],[-95.02602,44.55333],[-95.0276,44.5532],[-95.02782,44.55059],[-95.02994,44.55072],[-95.03092,44.55302],[-95.0333,44.55385],[-95.03225,44.55567],[-95.03352,44.55725],[-95.03708,44.557],[-95.04078,44.55815],[-95.04252,44.55786],[-95.04313,44.55644],[-95.04957,44.55816],[-95.0505,44.55913],[-95.05096,44.56171],[-95.05275,44.56246],[-95.05501,44.56164],[-95.05864,44.56236],[-95.05918,44.56381],[-95.05781,44.56663],[-95.0589,44.56785],[-95.06399,44.56811],[-95.06493,44.57023],[-95.06782,44.57206],[-95.07452,44.57381],[-95.0758,44.57391],[-95.07811,44.5724],[-95.07876,44.57057],[-95.08105,44.57004],[-95.08223,44.56912],[-95.08487,44.57054],[-95.08606,44.57167],[-95.08971,44.5714],[-95.09237,44.57206],[-95.09733,44.57182],[-95.09886,44.5726],[-95.09907,44.57376],[-95.09627,44.57649],[-95.09061,44.57732],[-95.08827,44.57912],[-95.08898,44.57969],[-95.09398,44.58013],[-95.09597,44.57974],[-95.09744,44.57854],[-95.09985,44.57827],[-95.10161,44.58123],[-95.10133,44.58294],[-95.10236,44.58537],[-95.10434,44.58744],[-95.10594,44.58755],[-95.1085,44.58651],[-95.11111,44.58834],[-95.11496,44.58932],[-95.11634,44.59119],[-95.11703,44.59325],[-95.11794,44.59483],[-95.11972,44.59576],[-95.12613,44.59773],[-95.12723,44.59747],[-95.12817,44.59557],[-95.13041,44.59522],[-95.13265,44.59644],[-95.13351,44.60099],[-95.13415,44.60183],[-95.13722,44.60235],[-95.14023,44.60432],[-95.14427,44.60596],[-95.14656,44.60753],[-95.14828,44.61118],[-95.15019,44.61284],[-95.15077,44.61534],[-95.15437,44.61535],[-95.15685,44.61594],[-95.1591,44.61761],[-95.15961,44.61912],[-95.16104,44.61985],[-95.16477,44.62014],[-95.16665,44.62168],[-95.17075,44.62004],[-95.17419,44.61908],[-95.17641,44.61935],[-95.17869,44.62052],[-95.17781,44.62215],[-95.17826,44.62295],[-95.18291,44.62377],[-95.18641,44.62448],[-95.18762,44.62825],[-95.19135,44.62866],[-95.19285,44.62946],[-95.1941,44.63273],[-95.19768,44.63575],[-95.20228,44.63822],[-95.20669,44.64093],[-95.21045,44.64169],[-95.2112,44.64262],[-95.21276,44.64669],[-95.21405,44.64676],[-95.21462,44.64523],[-95.21601,44.6449],[-95.21775,44.64546],[-95.21927,44.6468],[-95.22082,44.64942],[-95.22311,44.65197],[-95.22493,44.65279],[-95.22651,44.65178],[-95.22918,44.6529],[-95.23341,44.65595],[-95.23393,44.65781],[-95.23678,44.66005],[-95.23867,44.66041],[-95.23988,44.66067],[-95.24051,44.6626],[-95.24044,44.6646],[-95.24466,44.66722],[-95.24862,44.66718],[-95.2503,44.66522],[-95.25204,44.66417],[-95.25401,44.66461],[-95.25499,44.66395],[-95.25524,44.66226],[-95.25638,44.66147],[-95.26138,44.66114],[-95.26354,44.65995],[-95.26689,44.65933],[-95.26857,44.65918],[-95.27204,44.65999],[-95.28059,44.66025],[-95.29021,44.66141],[-95.29298,44.6607],[-95.29385,44.66105],[-95.29367,44.6643],[-95.297,44.66545],[-95.30033,44.6676],[-95.30242,44.66816],[-95.30544,44.6706],[-95.30785,44.67319],[-95.30932,44.67341],[-95.3123,44.6762],[-95.31271,44.67754],[-95.31243,44.68031],[-95.3128,44.68311],[-95.31097,44.68573],[-95.31077,44.68745],[-95.31404,44.69163],[-95.31766,44.69311],[-95.32061,44.69324],[-95.32688,44.69183],[-95.33273,44.69368],[-95.33555,44.69485],[-95.33828,44.69483],[-95.34277,44.69591],[-95.34623,44.69596],[-95.34776,44.69554],[-95.35031,44.69715],[-95.35271,44.69614],[-95.35427,44.69612],[-95.36018,44.69854],[-95.36225,44.70045],[-95.36504,44.70121],[-95.36704,44.69991],[-95.3686,44.69984],[-95.36976,44.70074],[-95.37419,44.70169],[-95.37782,44.70295],[-95.38213,44.70566],[-95.37969,44.70807],[-95.37957,44.7111],[-95.3814,44.71123],[-95.38225,44.71021],[-95.38545,44.70949],[-95.38935,44.71022],[-95.39117,44.71111],[-95.39203,44.71374],[-95.39362,44.71448],[-95.39613,44.71355],[-95.39846,44.71404],[-95.39725,44.71522],[-95.39956,44.71772],[-95.39886,44.71873],[-95.40135,44.71904],[-95.40087,44.72033],[-95.39748,44.72166],[-95.39715,44.72384],[-95.39976,44.72559],[-95.40413,44.7276],[-95.4079,44.73061],[-95.41171,44.73175],[-95.41249,44.73278],[-95.41676,44.73464],[-95.4187,44.73376],[-95.41881,44.73177],[-95.42033,44.73128],[-95.42218,44.732],[-95.42354,44.73611],[-95.42777,44.7393],[-95.42853,44.73958],[-95.43166,44.7394],[-95.43657,44.74117],[-95.44111,44.74352],[-95.4441,44.7434],[-95.44882,44.74215],[-95.45198,44.74183],[-95.45568,44.74088],[-95.45809,44.74086],[-95.46022,44.74332],[-95.46262,44.74421],[-95.46368,44.74604],[-95.46312,44.74799],[-95.46365,44.74875],[-95.4684,44.74911],[-95.47004,44.75043],[-95.4717,44.75323],[-95.47375,44.75469],[-95.47722,44.75613],[-95.47856,44.75591],[-95.48264,44.75345],[-95.48284,44.75251],[-95.48295,44.76622],[-95.48316,44.76694],[-95.4831,44.78896],[-95.48317,44.79987],[-95.48318,44.80357],[-95.4832,44.80367],[-95.48361,44.8545],[-95.48361,44.85469],[-95.4836,44.85758],[-95.48307,44.86518]]]}},{"type":"Feature","properties":{"name":"goMARTI","boundary_type":"zone_approx","source":"Manual approximation","fidelity":"approximate","updated":"2026-09","units":"buffer 4.06 km @ Grand Rapids city","note":"~20 square mile service area centered on Grand Rapids; by 2025 expanded to connect with rural and tribal communities along Highway 2 (expansion extent not specified)","confidence":0.6},"geometry":{"type":"Polygon","coordinates":[[[-93.48658,47.23557],[-93.48719,47.23242],[-93.48821,47.22931],[-93.48961,47.22628],[-93.49141,47.22334],[-93.49357,47.22051],[-93.49609,47.21783],[-93.49894,47.21531],[-93.50211,47.21296],[-93.50556,47.21081],[-93.50928,47.20887],[-93.51323,47.20716],[-93.51739,47.2057],[-93.52172,47.20448],[-93.52619,47.20352],[-93.53076,47.20283],[-93.53541,47.20242],[-93.54009,47.20228],[-93.54477,47.20242],[-93.54942,47.20283],[-93.554,47.20352],[-93.55847,47.20448],[-93.5628,47.2057],[-93.56695,47.20716],[-93.5709,47.20887],[-93.57462,47.21081],[-93.57808,47.21296],[-93.58124,47.21531],[-93.5841,47.21783],[-93.58661,47.22051],[-93.58878,47.22334],[-93.59057,47.22628],[-93.59198,47.22931],[-93.59299,47.23242],[-93.59361,47.23557],[-93.59381,47.23875],[-93.59361,47.24193],[-93.59299,47.24508],[-93.59198,47.24819],[-93.59057,47.25122],[-93.58878,47.25416],[-93.58661,47.25699],[-93.5841,47.25967],[-93.58124,47.26219],[-93.57808,47.26454],[-93.57462,47.26669],[-93.5709,47.26863],[-93.56695,47.27034],[-93.5628,47.2718],[-93.55847,47.27302],[-93.554,47.27398],[-93.54942,47.27467],[-93.54477,47.27508],[-93.54009,47.27522],[-93.53541,47.27508],[-93.53076,47.27467],[-93.52619,47.27398],[-93.52172,47.27302],[-93.51739,47.2718],[-93.51323,47.27034],[-93.50928,47.26863],[-93.50556,47.26669],[-93.50211,47.26454],[-93.49894,47.26219],[-93.49609,47.25967],[-93.49357,47.25699],[-93.49141,47.25416],[-93.48961,47.25122],[-93.48821,47.24819],[-93.48719,47.24508],[-93.48658,47.24193],[-93.48638,47.23875],[-93.48658,47.23557]]]}},{"type":"Feature","properties":{"name":"Maple Grove My Ride","boundary_type":"city","source":"Census TIGER place","fidelity":"approximate","updated":"2026-09","units":"Maple Grove city","note":"Service is subset of Maple Grove city limits; also extends to parts of Osseo, Brooklyn Park, Brooklyn Center","confidence":0.6},"geometry":{"type":"Polygon","coordinates":[[[-93.52552,45.10487],[-93.52646,45.10614],[-93.52302,45.10858],[-93.5235,45.10434],[-93.52222,45.10923],[-93.52221,45.10947],[-93.52222,45.1172],[-93.52222,45.11979],[-93.52212,45.13109],[-93.52182,45.15291],[-93.50564,45.15273],[-93.50509,45.15273],[-93.4927,45.15256],[-93.48701,45.15247],[-93.47197,45.15233],[-93.4278,45.15226],[-93.42436,45.15225],[-93.42164,45.15224],[-93.41783,45.15224],[-93.40696,45.1521],[-93.4029,45.15205],[-93.40161,45.15203],[-93.4019,45.13771],[-93.40199,45.13047],[-93.40207,45.12323],[-93.40719,45.12335],[-93.40959,45.12193],[-93.40956,45.1234],[-93.41361,45.12347],[-93.41357,45.12009],[-93.40722,45.11946],[-93.40725,45.11611],[-93.40345,45.11553],[-93.40348,45.11069],[-93.40228,45.11069],[-93.40234,45.10878],[-93.40218,45.09859],[-93.40224,45.09458],[-93.40203,45.0829],[-93.40181,45.07859],[-93.40133,45.07298],[-93.40069,45.06574],[-93.41504,45.06564],[-93.43101,45.06563],[-93.43269,45.06563],[-93.43958,45.06564],[-93.44133,45.0647],[-93.44662,45.06639],[-93.44808,45.06568],[-93.46149,45.06574],[-93.46652,45.06575],[-93.4817,45.06575],[-93.50208,45.06558],[-93.51736,45.06561],[-93.51735,45.0649],[-93.52208,45.06556],[-93.52206,45.07283],[-93.52201,45.07656],[-93.52197,45.08037],[-93.52222,45.0871],[-93.52225,45.10346],[-93.52572,45.10326],[-93.52575,45.10397],[-93.52845,45.10483],[-93.52552,45.10487]]]}},{"type":"Feature","properties":{"name":"Metro Transit Micro","boundary_type":"places","source":"Census TIGER place","fidelity":"approximate","updated":"2026-09","units":"Minneapolis city; Roseville city; Woodbury city; Bloomington city; Blaine city","note":"Metro micro is 5 small, non-contiguous zones, each a subset of its city, not full-city coverage. North Minneapolis zone launched at 2.5 sq mi (bounded by I-94, I-394, Theodore Wirth Regional Park, Golden Valley Rd/W Broadway per masstransitmag.com; current metrotransit.org/micro-n-mpls page describes a somewhat larger boundary: 34th Ave N, I-94/Mississippi River, Dunwoody Blvd/I-394, Xerxes Ave N, but no current sq-mi figure). Roseville zone bounded by County Rd B, Old Hwy 8, County Rd F, Victoria St. Bloomington zone bounded by 94th St, Hwy 169, Minnesota River, 3rd Ave. Blaine zone bounded by Central Ave, 81st Ave NE, BNSF rail line, Erlandson/Sand Creek parks, 117th Ave. Woodbury zone spans parts of Woodbury, Oakdale, Lake Elmo. City-level polygons used as approximate containing units since no current per-zone size is published; see metrotransit.org/micro.","confidence":0.65},"geometry":{"type":"MultiPolygon","coordinates":[[[[-93.39875,44.85574],[-93.39878,44.85951],[-93.39886,44.86068],[-93.39877,44.86204],[-93.39537,44.86202],[-93.39105,44.86002],[-93.38657,44.8601],[-93.38655,44.86199],[-93.378,44.86197],[-93.37514,44.86199],[-93.37352,44.86198],[-93.36242,44.86204],[-93.36131,44.86204],[-93.35825,44.86205],[-93.35473,44.86205],[-93.35447,44.86205],[-93.35448,44.86325],[-93.35128,44.86325],[-93.351,44.86306],[-93.35073,44.86275],[-93.3507,44.86207],[-93.35017,44.86207],[-93.32893,44.86197],[-93.32389,44.86193],[-93.32388,44.86103],[-93.32248,44.86145],[-93.32067,44.86183],[-93.31927,44.86197],[-93.31883,44.862],[-93.30868,44.86207],[-93.29833,44.8619],[-93.2885,44.86199],[-93.28403,44.86205],[-93.28335,44.86201],[-93.28258,44.86202],[-93.27447,44.86175],[-93.27156,44.86192],[-93.26815,44.86185],[-93.25799,44.86186],[-93.24798,44.86192],[-93.24734,44.86192],[-93.23757,44.86195],[-93.22913,44.86197],[-93.19794,44.862],[-93.19728,44.86011],[-93.1983,44.85816],[-93.20341,44.85236],[-93.20776,44.84363],[-93.21144,44.83974],[-93.21649,44.83871],[-93.22111,44.83848],[-93.22191,44.83696],[-93.21906,44.83224],[-93.22052,44.83105],[-93.22746,44.82909],[-93.23089,44.82748],[-93.23206,44.82671],[-93.23492,44.82461],[-93.23935,44.8202],[-93.24796,44.81532],[-93.25187,44.81148],[-93.26171,44.80926],[-93.27246,44.80687],[-93.28082,44.80635],[-93.28236,44.8059],[-93.28412,44.80447],[-93.2853,44.80207],[-93.28983,44.80018],[-93.29001,44.80013],[-93.29036,44.80003],[-93.2941,44.79902],[-93.29818,44.79742],[-93.30453,44.7945],[-93.31412,44.79247],[-93.31941,44.79282],[-93.32573,44.79267],[-93.32959,44.7911],[-93.32961,44.79109],[-93.33596,44.78648],[-93.33839,44.78648],[-93.34365,44.78848],[-93.34597,44.79036],[-93.34856,44.79135],[-93.3519,44.79019],[-93.35215,44.79],[-93.35236,44.78958],[-93.35606,44.78544],[-93.35867,44.78596],[-93.36302,44.78889],[-93.36424,44.78916],[-93.36658,44.78891],[-93.37236,44.78719],[-93.3738,44.78665],[-93.37824,44.78519],[-93.38032,44.78531],[-93.38099,44.78583],[-93.38338,44.79196],[-93.38481,44.79729],[-93.38755,44.79861],[-93.39632,44.79708],[-93.39859,44.79827],[-93.39853,44.80059],[-93.39839,44.80826],[-93.39841,44.81892],[-93.39846,44.83325],[-93.39864,44.83687],[-93.39866,44.83696],[-93.39867,44.83707],[-93.3989,44.83984],[-93.39858,44.84951],[-93.39873,44.85158],[-93.39875,44.85574]]],[[[-92.96456,44.94915],[-92.9638,44.94898],[-92.95905,44.94905],[-92.93595,44.94892],[-92.93452,44.94902],[-92.9342,44.94905],[-92.92558,44.9493],[-92.91905,44.94907],[-92.9187,44.94907],[-92.90342,44.94916],[-92.88307,44.94927],[-92.86492,44.94933],[-92.86268,44.9492],[-92.86262,44.92006],[-92.86253,44.90196],[-92.86253,44.90178],[-92.86252,44.89111],[-92.86241,44.86194],[-92.92343,44.86203],[-92.92492,44.86198],[-92.93367,44.86196],[-92.94873,44.86196],[-92.94899,44.86196],[-92.984,44.86195],[-92.98408,44.8719],[-92.98412,44.88742],[-92.98069,44.88742],[-92.98024,44.88504],[-92.97814,44.88382],[-92.97416,44.88385],[-92.97433,44.88926],[-92.97941,44.88921],[-92.97946,44.89082],[-92.97958,44.89462],[-92.98421,44.89459],[-92.9844,44.91181],[-92.98439,44.91252],[-92.98444,44.91957],[-92.98446,44.92791],[-92.98446,44.92802],[-92.9845,44.94142],[-92.9846,44.94497],[-92.98456,44.94553],[-92.98466,44.94852],[-92.98466,44.94899],[-92.98342,44.94871],[-92.97273,44.94892],[-92.96456,44.94915]]],[[[-93.32885,44.94848],[-93.3289,44.94893],[-93.32878,44.95206],[-93.32874,44.95837],[-93.32873,44.95933],[-93.3287,44.96504],[-93.32869,44.96648],[-93.32869,44.97002],[-93.32865,44.97714],[-93.31837,44.9773],[-93.31852,44.97783],[-93.3185,44.98075],[-93.31847,44.98405],[-93.31847,44.98696],[-93.31848,44.98795],[-93.31847,44.99156],[-93.31846,44.99891],[-93.31852,45.00604],[-93.31852,45.01021],[-93.3185,45.01287],[-93.31849,45.01325],[-93.31844,45.01868],[-93.31853,45.02409],[-93.31862,45.02772],[-93.3187,45.03134],[-93.31879,45.03546],[-93.31942,45.03545],[-93.31929,45.0369],[-93.31927,45.03856],[-93.31931,45.04042],[-93.32323,45.04045],[-93.32261,45.04264],[-93.31943,45.04217],[-93.31944,45.0476],[-93.3195,45.05125],[-93.31419,45.05124],[-93.30431,45.05118],[-93.29919,45.05114],[-93.29409,45.05113],[-93.29153,45.05113],[-93.28223,45.05116],[-93.28083,45.04357],[-93.28343,45.03536],[-93.27215,45.0355],[-93.27203,45.0355],[-93.25992,45.03554],[-93.24985,45.03555],[-93.24739,45.03555],[-93.24218,45.03558],[-93.23711,45.03561],[-93.22693,45.03567],[-93.2269,45.02773],[-93.2269,45.02771],[-93.22688,45.0241],[-93.22687,45.02047],[-93.22686,45.01951],[-93.22686,45.01892],[-93.22686,45.01684],[-93.22684,45.01321],[-93.22663,45.01324],[-93.2205,45.01326],[-93.2196,45.01335],[-93.21787,45.01337],[-93.21767,45.00604],[-93.20764,45.00621],[-93.2078,45.02058],[-93.20787,45.02462],[-93.20793,45.02756],[-93.20795,45.0278],[-93.20809,45.03574],[-93.19789,45.03573],[-93.19065,45.03574],[-93.18771,45.03575],[-93.1775,45.03574],[-93.16304,45.03573],[-93.15833,45.03574],[-93.14812,45.03578],[-93.14708,45.03576],[-93.13677,45.03584],[-93.11006,45.03588],[-93.10621,45.03587],[-93.10617,45.03158],[-93.10609,45.02075],[-93.10599,45.01351],[-93.10587,45.0077],[-93.10588,45.00629],[-93.10588,44.99402],[-93.10588,44.99187],[-93.10967,44.99184],[-93.1261,44.99179],[-93.13772,44.99191],[-93.13939,44.99192],[-93.14136,44.99194],[-93.14646,44.99198],[-93.15135,44.99191],[-93.15655,44.99184],[-93.15658,44.99909],[-93.16421,44.999],[-93.16649,44.99897],[-93.17696,44.99895],[-93.18712,44.99892],[-93.19737,44.99892],[-93.19988,44.99892],[-93.19988,45.00069],[-93.2076,45.00064],[-93.20756,44.99168],[-93.20759,44.98807],[-93.20765,44.98033],[-93.20767,44.97633],[-93.2077,44.97159],[-93.20773,44.96801],[-93.20774,44.96461],[-93.20777,44.96001],[-93.20777,44.95966],[-93.20777,44.95843],[-93.20776,44.95321],[-93.2036,44.95098],[-93.20206,44.94838],[-93.2001,44.94151],[-93.20079,44.9343],[-93.2003,44.93071],[-93.19981,44.92693],[-93.20136,44.91976],[-93.20121,44.9178],[-93.20037,44.90962],[-93.19874,44.90776],[-93.19404,44.90541],[-93.19845,44.90541],[-93.20338,44.9054],[-93.2076,44.90539],[-93.20763,44.9018],[-93.20765,44.89996],[-93.20766,44.8985],[-93.20769,44.89632],[-93.21075,44.89631],[-93.21075,44.89614],[-93.21089,44.89309],[-93.21627,44.89309],[-93.21719,44.89614],[-93.21903,44.8949],[-93.22264,44.89605],[-93.22259,44.89682],[-93.21977,44.89697],[-93.21902,44.89674],[-93.21902,44.8979],[-93.22035,44.89713],[-93.22296,44.89715],[-93.23176,44.89686],[-93.23176,44.89647],[-93.2324,44.89514],[-93.23495,44.89511],[-93.23495,44.89609],[-93.23238,44.89645],[-93.23238,44.89687],[-93.23747,44.89695],[-93.23868,44.89697],[-93.23998,44.89694],[-93.24128,44.89701],[-93.24128,44.89713],[-93.24186,44.89714],[-93.24186,44.89699],[-93.24253,44.897],[-93.24253,44.89768],[-93.24505,44.89724],[-93.24507,44.89661],[-93.24499,44.89599],[-93.24714,44.89601],[-93.24718,44.89698],[-93.24716,44.89764],[-93.24831,44.89795],[-93.25464,44.89793],[-93.25529,44.89544],[-93.25465,44.89433],[-93.2541,44.89442],[-93.25413,44.89272],[-93.25294,44.89253],[-93.2529,44.89072],[-93.25717,44.89072],[-93.2588,44.89045],[-93.26169,44.89052],[-93.26483,44.89064],[-93.27442,44.89057],[-93.27682,44.89055],[-93.27811,44.89016],[-93.28321,44.89006],[-93.28835,44.89008],[-93.29322,44.8899],[-93.29597,44.89017],[-93.29732,44.8903],[-93.30505,44.8906],[-93.30866,44.89061],[-93.31882,44.89075],[-93.31882,44.8944],[-93.31883,44.898],[-93.31882,44.90162],[-93.31882,44.90524],[-93.32899,44.90531],[-93.32902,44.90892],[-93.32903,44.91253],[-93.32909,44.91792],[-93.3291,44.92194],[-93.3291,44.92263],[-93.3291,44.92338],[-93.32909,44.92694],[-93.32906,44.93059],[-93.32902,44.93406],[-93.329,44.93982],[-93.32914,44.94059],[-93.32911,44.94438],[-93.32883,44.94581],[-93.32885,44.94829],[-93.32885,44.94848]]],[[[-93.26663,45.14239],[-93.26663,45.14336],[-93.26654,45.15006],[-93.26646,45.154],[-93.26638,45.15822],[-93.26626,45.16443],[-93.2662,45.16821],[-93.2662,45.17155],[-93.26612,45.17994],[-93.2661,45.18249],[-93.26609,45.18347],[-93.26596,45.19092],[-93.26587,45.19712],[-93.26586,45.21152],[-93.25501,45.2115],[-93.23485,45.21144],[-93.23457,45.21144],[-93.21407,45.21142],[-93.16293,45.21116],[-93.14234,45.21095],[-93.14243,45.20351],[-93.14258,45.19637],[-93.14257,45.18898],[-93.14262,45.18177],[-93.14277,45.16741],[-93.1428,45.16381],[-93.14294,45.15293],[-93.16332,45.1532],[-93.16348,45.15321],[-93.16353,45.14599],[-93.17388,45.14605],[-93.17393,45.14243],[-93.17397,45.13891],[-93.18102,45.13892],[-93.18061,45.13769],[-93.174,45.13766],[-93.17391,45.13538],[-93.1843,45.13523],[-93.18428,45.13161],[-93.17962,45.13161],[-93.16369,45.13154],[-93.1636,45.13807],[-93.16375,45.13884],[-93.16361,45.13884],[-93.15841,45.13874],[-93.15855,45.12776],[-93.15335,45.12777],[-93.15339,45.12422],[-93.16519,45.1243],[-93.18841,45.12438],[-93.18836,45.11893],[-93.18863,45.11893],[-93.1988,45.11895],[-93.19882,45.1244],[-93.20467,45.1244],[-93.21361,45.12445],[-93.21738,45.12447],[-93.2277,45.12453],[-93.23554,45.12457],[-93.23551,45.12477],[-93.23895,45.12475],[-93.23802,45.12457],[-93.2484,45.12453],[-93.26415,45.12455],[-93.26578,45.12458],[-93.26689,45.1246],[-93.26683,45.1281],[-93.26677,45.13292],[-93.26685,45.13397],[-93.26683,45.13494],[-93.26663,45.14239]],[[-93.17385,45.14789],[-93.17879,45.14783],[-93.17891,45.1461],[-93.17388,45.14605],[-93.17385,45.14789]]]]}},{"type":"Feature","properties":{"name":"MVTA Connect","boundary_type":"places","source":"Census TIGER place","fidelity":"exact","updated":"2026-09","units":"Apple Valley city; Burnsville city; Rosemount city; Savage city; Eagan city; Prior Lake city; Shakopee city","note":"Service across three distinct zones: Zone 1 (Apple Valley, Burnsville, Rosemount, Savage), Zone 2 (Eagan), Zone 3 (Prior Lake, Shakopee)","confidence":0.8},"geometry":{"type":"Polygon","coordinates":[[[-93.50809,44.7141],[-93.50811,44.71573],[-93.50581,44.71573],[-93.50582,44.71775],[-93.52074,44.71771],[-93.52071,44.72975],[-93.52059,44.7306],[-93.52041,44.74679],[-93.52027,44.76112],[-93.52023,44.7683],[-93.52542,44.76858],[-93.52542,44.76713],[-93.53057,44.76722],[-93.53057,44.76813],[-93.53569,44.76906],[-93.53572,44.76555],[-93.54084,44.76575],[-93.5409,44.76214],[-93.55099,44.76162],[-93.56117,44.76167],[-93.56121,44.7653],[-93.55612,44.7654],[-93.55615,44.76905],[-93.56024,44.76898],[-93.56127,44.76949],[-93.56125,44.76829],[-93.56638,44.76827],[-93.56631,44.76176],[-93.57144,44.76185],[-93.57147,44.76549],[-93.57403,44.76696],[-93.57616,44.76748],[-93.57391,44.76918],[-93.57186,44.76914],[-93.57187,44.77074],[-93.56984,44.77175],[-93.56643,44.7721],[-93.56644,44.7745],[-93.56481,44.77454],[-93.56479,44.77316],[-93.56117,44.77309],[-93.56133,44.77798],[-93.5612,44.78037],[-93.55971,44.78193],[-93.55924,44.78287],[-93.55565,44.7862],[-93.55245,44.78905],[-93.54934,44.79164],[-93.55264,44.79162],[-93.5514,44.79231],[-93.55115,44.79789],[-93.54827,44.79574],[-93.54569,44.79617],[-93.54118,44.79875],[-93.54046,44.80477],[-93.53091,44.80489],[-93.52016,44.80504],[-93.52017,44.80218],[-93.51873,44.80271],[-93.51711,44.80348],[-93.51134,44.805],[-93.50877,44.80507],[-93.50496,44.80471],[-93.50334,44.80474],[-93.50194,44.80592],[-93.50153,44.80836],[-93.49911,44.81032],[-93.49611,44.80954],[-93.49187,44.80464],[-93.48999,44.80461],[-93.4837,44.80779],[-93.48258,44.80757],[-93.48123,44.80474],[-93.47571,44.80434],[-93.47155,44.80538],[-93.46366,44.80665],[-93.46155,44.80652],[-93.45993,44.80579],[-93.45673,44.80316],[-93.45032,44.80353],[-93.44395,44.80559],[-93.44243,44.80708],[-93.44126,44.81125],[-93.43969,44.81277],[-93.43816,44.81307],[-93.43416,44.81113],[-93.42955,44.80953],[-93.4205,44.80694],[-93.41801,44.80691],[-93.41359,44.80759],[-93.4058,44.80468],[-93.40363,44.80348],[-93.39907,44.79873],[-93.39878,44.79842],[-93.39859,44.79827],[-93.39632,44.79708],[-93.38755,44.79861],[-93.38481,44.79729],[-93.38338,44.79196],[-93.38099,44.78583],[-93.38032,44.78531],[-93.37824,44.78519],[-93.3738,44.78665],[-93.37236,44.78719],[-93.36658,44.78891],[-93.36424,44.78916],[-93.36302,44.78889],[-93.35867,44.78596],[-93.35606,44.78544],[-93.35236,44.78958],[-93.35215,44.79],[-93.3519,44.79019],[-93.34856,44.79135],[-93.34597,44.79036],[-93.34365,44.78848],[-93.33839,44.78648],[-93.33596,44.78648],[-93.32961,44.79109],[-93.32959,44.7911],[-93.32573,44.79267],[-93.31941,44.79282],[-93.31412,44.79247],[-93.30453,44.7945],[-93.29818,44.79742],[-93.2941,44.79902],[-93.29036,44.80003],[-93.29001,44.80013],[-93.28983,44.80018],[-93.2853,44.80207],[-93.28412,44.80447],[-93.28236,44.8059],[-93.28082,44.80635],[-93.27246,44.80687],[-93.26171,44.80926],[-93.25187,44.81148],[-93.24796,44.81532],[-93.23935,44.8202],[-93.23492,44.82461],[-93.23206,44.82671],[-93.23089,44.82748],[-93.22746,44.82909],[-93.22052,44.83105],[-93.21906,44.83224],[-93.22191,44.83696],[-93.22111,44.83848],[-93.21649,44.83871],[-93.21144,44.83974],[-93.20776,44.84363],[-93.20341,44.85236],[-93.1983,44.85816],[-93.19728,44.86011],[-93.19794,44.862],[-93.17571,44.86196],[-93.16723,44.86194],[-93.1551,44.86171],[-93.15027,44.86193],[-93.14563,44.86193],[-93.14528,44.86192],[-93.12926,44.86191],[-93.10612,44.862],[-93.10623,44.8612],[-93.10613,44.84238],[-93.10597,44.84127],[-93.10613,44.83456],[-93.10609,44.82793],[-93.10602,44.81974],[-93.10609,44.80776],[-93.1068,44.80638],[-93.10638,44.80473],[-93.10555,44.80276],[-93.10617,44.80076],[-93.10629,44.79014],[-93.10626,44.77569],[-93.10542,44.77576],[-93.06074,44.77565],[-93.06063,44.77565],[-93.05915,44.77564],[-93.05461,44.7756],[-93.03494,44.77555],[-93.01596,44.77556],[-93.01293,44.77376],[-93.00598,44.77168],[-93.00073,44.77191],[-92.99477,44.7747],[-92.99155,44.77533],[-92.98607,44.77531],[-92.98132,44.77432],[-92.9748,44.77231],[-92.97436,44.749],[-92.97457,44.72771],[-92.97444,44.72424],[-92.97428,44.71682],[-92.98966,44.71692],[-92.99468,44.71695],[-93.01509,44.71711],[-93.02555,44.71718],[-93.02582,44.72443],[-93.03493,44.72452],[-93.03491,44.7259],[-93.04497,44.72584],[-93.04509,44.71732],[-93.05861,44.71739],[-93.06063,44.71724],[-93.06939,44.71729],[-93.07678,44.71774],[-93.08709,44.71772],[-93.09092,44.71749],[-93.12928,44.71714],[-93.13586,44.71719],[-93.13801,44.71723],[-93.14231,44.71738],[-93.14672,44.71737],[-93.15287,44.71736],[-93.15653,44.71713],[-93.15678,44.71713],[-93.17189,44.71705],[-93.17683,44.71735],[-93.19733,44.71737],[-93.20244,44.71738],[-93.20755,44.7174],[-93.21775,44.71742],[-93.23817,44.71744],[-93.24311,44.71744],[-93.24834,44.71745],[-93.25333,44.71742],[-93.28273,44.71745],[-93.29816,44.71749],[-93.30919,44.71751],[-93.31834,44.71754],[-93.32344,44.71754],[-93.3284,44.71755],[-93.33929,44.71755],[-93.33952,44.71755],[-93.37426,44.71725],[-93.37472,44.71689],[-93.37536,44.71701],[-93.37638,44.71693],[-93.37737,44.71621],[-93.37769,44.71604],[-93.37764,44.71724],[-93.37912,44.71724],[-93.39884,44.71731],[-93.39887,44.71731],[-93.39887,44.71716],[-93.39873,44.70698],[-93.3971,44.70697],[-93.39708,44.7032],[-93.39529,44.70319],[-93.39532,44.70105],[-93.39887,44.70238],[-93.39891,44.69903],[-93.39889,44.69873],[-93.39904,44.69843],[-93.39903,44.69867],[-93.39903,44.69962],[-93.40117,44.699],[-93.4058,44.69906],[-93.4045,44.69857],[-93.4066,44.69603],[-93.4062,44.69552],[-93.40223,44.69545],[-93.39951,44.69785],[-93.40098,44.69633],[-93.40376,44.6938],[-93.40409,44.69241],[-93.40668,44.69245],[-93.40669,44.69062],[-93.40417,44.69061],[-93.40423,44.68877],[-93.41694,44.6893],[-93.4151,44.69128],[-93.4143,44.69125],[-93.41427,44.69436],[-93.42256,44.69445],[-93.4244,44.69551],[-93.42488,44.69571],[-93.42491,44.69228],[-93.42953,44.69227],[-93.4295,44.69613],[-93.43451,44.69611],[-93.43449,44.6988],[-93.43654,44.69936],[-93.4378,44.70094],[-93.43961,44.69983],[-93.43964,44.69841],[-93.44251,44.69231],[-93.44682,44.69231],[-93.44998,44.69184],[-93.45123,44.69269],[-93.45128,44.6906],[-93.45277,44.69029],[-93.45271,44.68858],[-93.45518,44.68854],[-93.4551,44.69214],[-93.45687,44.69211],[-93.45801,44.69312],[-93.46016,44.69309],[-93.46016,44.69481],[-93.4601,44.69815],[-93.47245,44.70173],[-93.48766,44.69656],[-93.48857,44.69625],[-93.49067,44.69627],[-93.49574,44.69631],[-93.49553,44.70363],[-93.50059,44.70363],[-93.49889,44.70701],[-93.50518,44.70702],[-93.50528,44.7036],[-93.50664,44.70359],[-93.50655,44.70703],[-93.51188,44.70697],[-93.51189,44.71043],[-93.51061,44.71044],[-93.51063,44.71408],[-93.50809,44.7141]],[[-93.48036,44.70811],[-93.48023,44.71043],[-93.49035,44.71046],[-93.49041,44.70651],[-93.48523,44.70647],[-93.4852,44.70812],[-93.48036,44.70811]],[[-93.48515,44.71408],[-93.48514,44.71763],[-93.49028,44.71763],[-93.49031,44.71276],[-93.48702,44.71274],[-93.487,44.71408],[-93.48515,44.71408]]]}},{"type":"Feature","properties":{"name":"Plymouth Click-and-Ride","boundary_type":"city","source":"Census TIGER place","fidelity":"approximate","updated":"2026-09","units":"Plymouth city","note":"Service is subset of Plymouth city limits; additional zones at Ridgedale, Colonial Square, Golden Valley Center","confidence":0.6},"geometry":{"type":"Polygon","coordinates":[[[-93.52076,45.04137],[-93.52235,45.04237],[-93.52208,45.06556],[-93.51735,45.0649],[-93.51736,45.06561],[-93.50208,45.06558],[-93.4817,45.06575],[-93.46652,45.06575],[-93.46149,45.06574],[-93.44808,45.06568],[-93.44662,45.06639],[-93.44133,45.0647],[-93.43958,45.06564],[-93.43269,45.06563],[-93.43101,45.06563],[-93.41504,45.06564],[-93.40069,45.06574],[-93.40077,45.05802],[-93.4008,45.05094],[-93.40079,45.04892],[-93.40078,45.04389],[-93.40071,45.03331],[-93.40069,45.02927],[-93.4007,45.02203],[-93.40064,45.01667],[-93.40081,45.00748],[-93.40087,45.00205],[-93.40085,45.00021],[-93.4008,44.99661],[-93.4007,44.99292],[-93.40067,44.99175],[-93.40058,44.98304],[-93.40042,44.9785],[-93.40057,44.9785],[-93.41047,44.97855],[-93.41568,44.97858],[-93.42075,44.97867],[-93.43089,44.97884],[-93.45997,44.97855],[-93.47158,44.97852],[-93.49213,44.97848],[-93.4944,44.97847],[-93.50214,44.97839],[-93.50223,44.98225],[-93.50932,44.97823],[-93.5105,44.97821],[-93.51196,44.98178],[-93.52254,44.9816],[-93.52249,44.99256],[-93.52249,44.9935],[-93.5224,44.99977],[-93.52242,45.007],[-93.52238,45.01434],[-93.52235,45.0253],[-93.52222,45.02753],[-93.52265,45.03626],[-93.52238,45.04138],[-93.52076,45.04137]],[[-93.42224,44.99867],[-93.42094,44.99685],[-93.42082,44.99313],[-93.42032,44.99219],[-93.41734,44.99219],[-93.41575,44.9929],[-93.41575,44.99308],[-93.41701,44.99317],[-93.41575,44.99335],[-93.41447,44.99482],[-93.41577,44.9953],[-93.41348,44.99896],[-93.41429,45.0012],[-93.41844,45.00462],[-93.42051,45.00563],[-93.42396,45.0057],[-93.42643,45.00463],[-93.42775,45.00333],[-93.42699,45.00104],[-93.42224,44.99867]]]}},{"type":"Feature","properties":{"name":"RPT GO","boundary_type":"city","source":"Census TIGER place","fidelity":"approximate","updated":"2026-09","units":"Rochester city","note":"Service zone is a small subset of Rochester city limits: a triangular area south of 12th St SE/Hwy 14, west of 50th Ave SE, east of Badger Run Creek (both sides of Marion Rd); expanded 2026 to include Central Park. No published sq-mi figure found, so the full Rochester place polygon is used as an approximate containing unit rather than an invented smaller circle. Confirmed via rochestermn.gov/streets-parking-transit/transit/ and rochestermn.qscend.com/311/knowledgebase/article/3214 (7 things to know about new Rochester microtransit service).","confidence":0.7},"geometry":{"type":"MultiPolygon","coordinates":[[[[-92.44259,43.97823],[-92.44258,43.97685],[-92.43995,43.97715],[-92.43972,43.97535],[-92.44851,43.97467],[-92.44851,43.97824],[-92.44603,43.97823],[-92.44259,43.97823]]],[[[-92.5583,44.07944],[-92.55829,44.08307],[-92.55378,44.08303],[-92.55376,44.09027],[-92.5488,44.09026],[-92.54881,44.09376],[-92.55832,44.0938],[-92.55832,44.09409],[-92.54881,44.09409],[-92.54882,44.09676],[-92.54244,44.09671],[-92.54246,44.09403],[-92.51875,44.09411],[-92.51867,44.10109],[-92.5146,44.1011],[-92.51334,44.0996],[-92.51318,44.09741],[-92.51385,44.09406],[-92.51159,44.09396],[-92.50962,44.09409],[-92.51123,44.09435],[-92.51274,44.10115],[-92.51365,44.10115],[-92.51607,44.10818],[-92.51503,44.10818],[-92.50866,44.10817],[-92.50871,44.10122],[-92.50374,44.10121],[-92.50375,44.09782],[-92.49939,44.09729],[-92.50079,44.09507],[-92.49998,44.09351],[-92.49879,44.09402],[-92.49374,44.094],[-92.49374,44.08976],[-92.49019,44.08821],[-92.48871,44.08778],[-92.49,44.08783],[-92.49367,44.08934],[-92.49369,44.08685],[-92.4887,44.08684],[-92.48871,44.07976],[-92.47141,44.0795],[-92.46867,44.07946],[-92.46869,44.07792],[-92.4687,44.07699],[-92.46857,44.07586],[-92.47375,44.07593],[-92.47383,44.06805],[-92.47178,44.07187],[-92.46873,44.07426],[-92.46873,44.07371],[-92.4688,44.06653],[-92.46455,44.06664],[-92.46552,44.06499],[-92.4638,44.06497],[-92.46379,44.06692],[-92.45875,44.06491],[-92.45876,44.06853],[-92.45375,44.06849],[-92.45375,44.06972],[-92.4519,44.06957],[-92.4514,44.06846],[-92.44915,44.06844],[-92.45143,44.06507],[-92.45375,44.06486],[-92.45387,44.06148],[-92.45121,44.06488],[-92.44871,44.06486],[-92.44823,44.06962],[-92.44523,44.0697],[-92.44523,44.071],[-92.44241,44.07196],[-92.44518,44.07198],[-92.447,44.07452],[-92.44572,44.07758],[-92.44132,44.07755],[-92.44081,44.07607],[-92.43937,44.07713],[-92.43863,44.08022],[-92.43597,44.07717],[-92.43476,44.07774],[-92.43266,44.07647],[-92.43235,44.07721],[-92.43442,44.07908],[-92.43466,44.08157],[-92.43326,44.08111],[-92.4326,44.07936],[-92.42893,44.0772],[-92.42897,44.0719],[-92.43247,44.0719],[-92.43243,44.06968],[-92.43103,44.06971],[-92.4308,44.06813],[-92.42897,44.06831],[-92.42897,44.06469],[-92.42392,44.06467],[-92.42393,44.05747],[-92.41887,44.05745],[-92.41888,44.05197],[-92.41678,44.05196],[-92.41686,44.0538],[-92.41368,44.05317],[-92.41084,44.05316],[-92.41255,44.0527],[-92.41245,44.05063],[-92.41043,44.05097],[-92.4098,44.04942],[-92.40888,44.04959],[-92.40889,44.03938],[-92.41067,44.03939],[-92.41069,44.03719],[-92.4089,44.03579],[-92.4174,44.03581],[-92.41664,44.0344],[-92.41789,44.03398],[-92.41898,44.03224],[-92.42105,44.03226],[-92.42108,44.02925],[-92.41698,44.02982],[-92.41401,44.02989],[-92.41409,44.02138],[-92.4018,44.02128],[-92.40167,44.02127],[-92.39906,44.02128],[-92.39906,44.02082],[-92.39526,44.01681],[-92.39438,44.01185],[-92.39296,44.01177],[-92.39304,44.01051],[-92.38893,44.01042],[-92.38892,44.00693],[-92.39893,44.00697],[-92.3989,43.99255],[-92.39885,43.98803],[-92.39636,43.98801],[-92.39638,43.98892],[-92.39384,43.9889],[-92.39384,43.98709],[-92.39883,43.98711],[-92.39881,43.98532],[-92.39469,43.98529],[-92.39407,43.98381],[-92.39685,43.98383],[-92.39682,43.98267],[-92.39287,43.98262],[-92.3925,43.9808],[-92.39494,43.98081],[-92.39494,43.97995],[-92.39149,43.97992],[-92.39146,43.97804],[-92.39382,43.97806],[-92.39383,43.97527],[-92.39363,43.97506],[-92.39163,43.97611],[-92.39103,43.97553],[-92.3929,43.97455],[-92.39198,43.9737],[-92.39063,43.97287],[-92.39111,43.97288],[-92.39296,43.97406],[-92.3933,43.97289],[-92.39883,43.97335],[-92.39881,43.9782],[-92.39721,43.97817],[-92.39903,43.98],[-92.40404,43.98002],[-92.40404,43.98174],[-92.40879,43.98177],[-92.40879,43.98151],[-92.40877,43.97814],[-92.41878,43.97821],[-92.41878,43.97365],[-92.42309,43.97438],[-92.42879,43.97495],[-92.42878,43.98184],[-92.43479,43.98183],[-92.43477,43.97822],[-92.43857,43.97821],[-92.43989,43.97822],[-92.43977,43.97767],[-92.4416,43.97767],[-92.44338,43.98205],[-92.44593,43.98205],[-92.44698,43.98477],[-92.44598,43.98545],[-92.44675,43.98545],[-92.44859,43.98546],[-92.44855,43.98207],[-92.44851,43.97824],[-92.45277,43.97828],[-92.45348,43.97828],[-92.45349,43.97476],[-92.45348,43.971],[-92.45847,43.97101],[-92.45846,43.9686],[-92.45347,43.9686],[-92.4534,43.95654],[-92.4584,43.95659],[-92.45838,43.94934],[-92.44837,43.94929],[-92.44842,43.95652],[-92.44344,43.95653],[-92.44342,43.95292],[-92.43844,43.95292],[-92.43847,43.95653],[-92.43379,43.95653],[-92.43377,43.95292],[-92.42877,43.95291],[-92.42876,43.9493],[-92.43375,43.94931],[-92.43374,43.9468],[-92.4316,43.94679],[-92.43159,43.9446],[-92.43456,43.94461],[-92.43457,43.94571],[-92.43844,43.94572],[-92.43847,43.93852],[-92.44844,43.93852],[-92.44842,43.94212],[-92.44994,43.94212],[-92.44785,43.94619],[-92.45337,43.94638],[-92.45489,43.94744],[-92.45488,43.94905],[-92.45838,43.94907],[-92.45838,43.94573],[-92.46334,43.94576],[-92.46339,43.93992],[-92.46376,43.93845],[-92.46341,43.9382],[-92.46343,43.93493],[-92.46345,43.93135],[-92.46845,43.93139],[-92.46847,43.92769],[-92.46848,43.92497],[-92.47338,43.92499],[-92.47579,43.91956],[-92.47579,43.91703],[-92.47769,43.91447],[-92.47853,43.91189],[-92.47852,43.90984],[-92.48008,43.90984],[-92.48158,43.90532],[-92.4785,43.90533],[-92.47847,43.90112],[-92.47697,43.9004],[-92.47845,43.89922],[-92.47715,43.89801],[-92.47819,43.89721],[-92.48211,43.89745],[-92.48348,43.89627],[-92.48351,43.89898],[-92.48447,43.89898],[-92.48583,43.89536],[-92.48854,43.89535],[-92.48849,43.89165],[-92.50365,43.89174],[-92.50366,43.88813],[-92.50863,43.88814],[-92.50864,43.88449],[-92.51364,43.8845],[-92.51365,43.89178],[-92.51028,43.89672],[-92.51027,43.89902],[-92.50854,43.89902],[-92.50846,43.90599],[-92.51854,43.90622],[-92.51844,43.9207],[-92.52293,43.92067],[-92.52014,43.9211],[-92.51841,43.92212],[-92.51841,43.92408],[-92.51948,43.92477],[-92.50838,43.92424],[-92.50838,43.92066],[-92.49346,43.92059],[-92.49341,43.92784],[-92.48846,43.92789],[-92.4884,43.93501],[-92.49467,43.93503],[-92.49502,43.93737],[-92.4963,43.93716],[-92.49633,43.93504],[-92.49833,43.93505],[-92.49824,43.94591],[-92.50325,43.94591],[-92.50323,43.95304],[-92.51834,43.95308],[-92.51834,43.95325],[-92.49924,43.95321],[-92.49645,43.95333],[-92.47827,43.95323],[-92.47924,43.96177],[-92.47922,43.96393],[-92.47842,43.96646],[-92.48583,43.96581],[-92.48584,43.96757],[-92.4883,43.96756],[-92.48832,43.96394],[-92.49828,43.96393],[-92.49834,43.97116],[-92.50014,43.97265],[-92.50055,43.97471],[-92.4999,43.97728],[-92.49842,43.97835],[-92.50337,43.9784],[-92.50341,43.982],[-92.50895,43.98205],[-92.50572,43.98616],[-92.50831,43.98694],[-92.50643,43.98772],[-92.50388,43.99036],[-92.50779,43.99118],[-92.51184,43.99148],[-92.51322,43.99291],[-92.51597,43.9939],[-92.5182,43.9939],[-92.51823,43.99575],[-92.51568,43.99914],[-92.51352,43.99819],[-92.50863,43.99768],[-92.50865,44.0001],[-92.5143,44.00016],[-92.5143,44.00202],[-92.51802,44.00122],[-92.51811,43.99805],[-92.51896,43.99692],[-92.52373,43.99602],[-92.52389,43.99841],[-92.52648,43.99839],[-92.52652,44.00028],[-92.52839,43.99964],[-92.52859,44.0016],[-92.52457,44.00734],[-92.51593,44.00739],[-92.51592,44.00373],[-92.51443,44.00396],[-92.51441,44.00739],[-92.51103,44.00739],[-92.51085,44.00886],[-92.50882,44.00875],[-92.51061,44.01145],[-92.51372,44.01303],[-92.51373,44.01401],[-92.51577,44.01403],[-92.5172,44.01458],[-92.5223,44.01455],[-92.52233,44.01174],[-92.52555,44.01171],[-92.52878,44.01084],[-92.52879,44.01447],[-92.52611,44.01441],[-92.52608,44.01543],[-92.52877,44.0154],[-92.52874,44.01745],[-92.53189,44.01694],[-92.53195,44.02165],[-92.53368,44.02165],[-92.53372,44.02525],[-92.54372,44.02523],[-92.54372,44.02586],[-92.54333,44.02881],[-92.5387,44.02878],[-92.53887,44.03392],[-92.53889,44.03404],[-92.541,44.03428],[-92.54102,44.0361],[-92.54102,44.03744],[-92.53896,44.03744],[-92.53891,44.04009],[-92.53451,44.03997],[-92.52891,44.03876],[-92.5289,44.03967],[-92.53244,44.04034],[-92.53889,44.04104],[-92.53307,44.04122],[-92.52892,44.04082],[-92.52409,44.04],[-92.5261,44.04081],[-92.52602,44.04345],[-92.53889,44.04317],[-92.54078,44.04316],[-92.54013,44.04335],[-92.54077,44.0441],[-92.54073,44.04682],[-92.54383,44.04685],[-92.54383,44.0476],[-92.54616,44.04924],[-92.54616,44.05045],[-92.5444,44.05044],[-92.54383,44.05084],[-92.54382,44.05774],[-92.54903,44.0577],[-92.55201,44.05772],[-92.552,44.06134],[-92.55388,44.06135],[-92.5539,44.05772],[-92.55458,44.05774],[-92.55659,44.05828],[-92.55789,44.05927],[-92.55837,44.06015],[-92.55852,44.06298],[-92.55842,44.063],[-92.55428,44.06297],[-92.55428,44.06406],[-92.5584,44.06408],[-92.5584,44.065],[-92.55841,44.06647],[-92.55839,44.06846],[-92.55835,44.07195],[-92.55835,44.07219],[-92.55833,44.07421],[-92.56328,44.07425],[-92.56324,44.0793],[-92.56834,44.07931],[-92.57335,44.07931],[-92.57335,44.07948],[-92.5583,44.07943],[-92.5583,44.07944]],[[-92.54881,44.06855],[-92.54881,44.07124],[-92.55383,44.07127],[-92.55385,44.06858],[-92.55097,44.06856],[-92.54881,44.06855]],[[-92.53878,44.09204],[-92.53902,44.09204],[-92.53902,44.09369],[-92.53971,44.09372],[-92.53971,44.09319],[-92.54038,44.0932],[-92.54038,44.09194],[-92.53878,44.09194],[-92.53878,44.09204]],[[-92.53376,44.05772],[-92.53377,44.06131],[-92.53856,44.06124],[-92.53857,44.05763],[-92.53391,44.05769],[-92.53376,44.05772]],[[-92.52627,44.02047],[-92.52185,44.02013],[-92.52112,44.02017],[-92.52111,44.02168],[-92.52819,44.02171],[-92.52818,44.02108],[-92.52729,44.02073],[-92.52627,44.02047]],[[-92.51874,44.0937],[-92.51931,44.09376],[-92.52117,44.09371],[-92.52118,44.09277],[-92.51874,44.09278],[-92.51874,44.0937]],[[-92.51504,44.02159],[-92.51467,44.02169],[-92.5155,44.02169],[-92.51596,44.02169],[-92.51597,44.0214],[-92.51558,44.02148],[-92.51504,44.02159]],[[-92.48833,43.97616],[-92.48997,43.97616],[-92.48997,43.97504],[-92.48833,43.97501],[-92.48833,43.97616]],[[-92.43798,44.06865],[-92.43684,44.06865],[-92.43686,44.07069],[-92.43591,44.0707],[-92.43593,44.07191],[-92.43822,44.07191],[-92.43874,44.07192],[-92.4387,44.06819],[-92.43797,44.06817],[-92.43798,44.06865]],[[-92.42901,44.04308],[-92.42901,44.03232],[-92.42424,44.03229],[-92.42398,44.03232],[-92.42568,44.03613],[-92.42687,44.04054],[-92.42463,44.04318],[-92.42568,44.04319],[-92.42326,44.04767],[-92.42567,44.04767],[-92.42795,44.04746],[-92.4291,44.04622],[-92.42929,44.04466],[-92.42901,44.04398],[-92.43138,44.04477],[-92.43565,44.04341],[-92.43665,44.04231],[-92.43333,44.04229],[-92.42901,44.04308]],[[-92.40275,44.01224],[-92.40401,44.01228],[-92.404,44.01104],[-92.40273,44.01103],[-92.40275,44.01224]],[[-92.39613,44.01197],[-92.39622,44.01197],[-92.39631,44.01198],[-92.39649,44.01194],[-92.39649,44.0106],[-92.39612,44.01058],[-92.39613,44.01197]]]]}},{"type":"Feature","properties":{"name":"SouthWest Prime","boundary_type":"places","source":"Census TIGER place","fidelity":"exact","updated":"2026-09","units":"Eden Prairie city; Chanhassen city; Chaska city; Victoria city; Carver city","note":"Primary service area covers 5 named cities; select zones at MSP Airport and MOA outside these boundaries","confidence":0.7},"geometry":{"type":"MultiPolygon","coordinates":[[[[-93.64253,44.77652],[-93.64208,44.80538],[-93.64208,44.80631],[-93.64205,44.81287],[-93.6472,44.81282],[-93.64719,44.81649],[-93.65046,44.81647],[-93.64201,44.81972],[-93.64192,44.82428],[-93.64572,44.82478],[-93.64702,44.82883],[-93.64188,44.82898],[-93.64167,44.83637],[-93.64732,44.83628],[-93.6487,44.8345],[-93.65207,44.83363],[-93.65286,44.83362],[-93.65307,44.83246],[-93.65227,44.82546],[-93.65599,44.82609],[-93.667,44.82946],[-93.66882,44.83073],[-93.67315,44.83199],[-93.67314,44.83087],[-93.67399,44.83047],[-93.67547,44.83142],[-93.67729,44.83224],[-93.67914,44.83118],[-93.68079,44.83161],[-93.682,44.83221],[-93.68299,44.83236],[-93.68296,44.8341],[-93.68331,44.83422],[-93.68283,44.83866],[-93.68361,44.84118],[-93.69266,44.84118],[-93.69249,44.84853],[-93.6925,44.86106],[-93.68928,44.85975],[-93.68565,44.85941],[-93.68229,44.85991],[-93.68228,44.86163],[-93.68381,44.86168],[-93.68375,44.86347],[-93.68227,44.86334],[-93.68261,44.87219],[-93.68329,44.8847],[-93.68372,44.89093],[-93.66911,44.89134],[-93.66652,44.89134],[-93.66326,44.89143],[-93.65863,44.89103],[-93.65284,44.89096],[-93.64532,44.89106],[-93.63724,44.89106],[-93.6349,44.89106],[-93.61974,44.89141],[-93.61869,44.89142],[-93.61866,44.89015],[-93.61661,44.8902],[-93.61713,44.89144],[-93.60724,44.89151],[-93.58425,44.89133],[-93.58069,44.8913],[-93.57061,44.89124],[-93.55213,44.89117],[-93.54552,44.89118],[-93.54016,44.89121],[-93.52335,44.89146],[-93.52071,44.8915],[-93.51596,44.89165],[-93.50866,44.89172],[-93.50106,44.89184],[-93.49594,44.89207],[-93.49226,44.89233],[-93.49085,44.89226],[-93.48999,44.89216],[-93.48806,44.89193],[-93.48225,44.89172],[-93.4802,44.89167],[-93.47035,44.89167],[-93.46929,44.89168],[-93.46156,44.89133],[-93.45486,44.89179],[-93.45416,44.89181],[-93.44872,44.89175],[-93.44693,44.89175],[-93.44431,44.89175],[-93.44335,44.89175],[-93.4222,44.89182],[-93.42002,44.89195],[-93.41826,44.89193],[-93.41208,44.89227],[-93.40162,44.89164],[-93.39952,44.89161],[-93.39929,44.89092],[-93.39928,44.89076],[-93.39926,44.89045],[-93.39923,44.88358],[-93.39896,44.87642],[-93.39873,44.87342],[-93.39873,44.87336],[-93.39844,44.86911],[-93.39877,44.86204],[-93.39886,44.86068],[-93.39878,44.85951],[-93.39875,44.85574],[-93.39873,44.85158],[-93.39858,44.84951],[-93.3989,44.83984],[-93.39867,44.83707],[-93.39866,44.83696],[-93.39864,44.83687],[-93.39846,44.83325],[-93.39841,44.81892],[-93.39839,44.80826],[-93.39853,44.80059],[-93.39859,44.79827],[-93.39878,44.79842],[-93.39907,44.79873],[-93.40363,44.80348],[-93.4058,44.80468],[-93.41359,44.80759],[-93.41801,44.80691],[-93.4205,44.80694],[-93.42955,44.80953],[-93.43416,44.81113],[-93.43816,44.81307],[-93.43969,44.81277],[-93.44126,44.81125],[-93.44243,44.80708],[-93.44395,44.80559],[-93.45032,44.80353],[-93.45673,44.80316],[-93.45993,44.80579],[-93.46155,44.80652],[-93.46366,44.80665],[-93.47155,44.80538],[-93.47571,44.80434],[-93.48123,44.80474],[-93.48258,44.80757],[-93.4837,44.80779],[-93.48999,44.80461],[-93.49187,44.80464],[-93.49611,44.80954],[-93.49911,44.81032],[-93.50153,44.80836],[-93.50194,44.80592],[-93.50334,44.80474],[-93.50496,44.80471],[-93.50877,44.80507],[-93.51134,44.805],[-93.51711,44.80348],[-93.51873,44.80271],[-93.52017,44.80218],[-93.52016,44.80504],[-93.53091,44.80489],[-93.54046,44.80477],[-93.54118,44.79875],[-93.54569,44.79617],[-93.54827,44.79574],[-93.55115,44.79789],[-93.55431,44.7998],[-93.55538,44.7998],[-93.56201,44.79739],[-93.56606,44.79659],[-93.57448,44.79581],[-93.57998,44.79364],[-93.58075,44.79273],[-93.58136,44.79086],[-93.58137,44.78398],[-93.58207,44.78233],[-93.58913,44.7837],[-93.5924,44.78367],[-93.59917,44.78278],[-93.59987,44.78142],[-93.5957,44.77834],[-93.59427,44.77638],[-93.59426,44.77622],[-93.59523,44.77416],[-93.60015,44.76997],[-93.60576,44.76783],[-93.61159,44.76748],[-93.61573,44.76648],[-93.61986,44.76428],[-93.6219,44.76249],[-93.62164,44.76099],[-93.62087,44.7601],[-93.61089,44.75667],[-93.60877,44.75495],[-93.60854,44.75382],[-93.61025,44.75149],[-93.61326,44.74906],[-93.61452,44.74905],[-93.61647,44.75185],[-93.61896,44.75392],[-93.62087,44.75357],[-93.62119,44.74951],[-93.62207,44.74718],[-93.62356,44.74526],[-93.62605,44.74294],[-93.63018,44.74011],[-93.63148,44.73852],[-93.63145,44.73734],[-93.62848,44.73277],[-93.64335,44.73288],[-93.64317,44.74386],[-93.65274,44.74363],[-93.65505,44.74501],[-93.65397,44.74617],[-93.65195,44.74522],[-93.65173,44.74663],[-93.6503,44.74731],[-93.65234,44.74926],[-93.65138,44.75033],[-93.6453,44.74999],[-93.64305,44.7506],[-93.64249,44.75389],[-93.64279,44.75899],[-93.64478,44.75894],[-93.64474,44.76172],[-93.64791,44.76183],[-93.64944,44.76076],[-93.64904,44.76546],[-93.64936,44.76632],[-93.65393,44.76569],[-93.65404,44.76105],[-93.65488,44.76078],[-93.65472,44.76293],[-93.65801,44.765],[-93.66009,44.7638],[-93.66171,44.76376],[-93.66167,44.76152],[-93.66321,44.76147],[-93.66327,44.76503],[-93.65815,44.76519],[-93.65814,44.7761],[-93.64253,44.77652]]],[[[-93.64764,44.77743],[-93.65285,44.77726],[-93.65262,44.78554],[-93.64829,44.78529],[-93.64772,44.7865],[-93.6476,44.78047],[-93.64764,44.77743]]],[[[-93.66207,44.81268],[-93.66224,44.81373],[-93.66231,44.82353],[-93.65228,44.8237],[-93.65231,44.81607],[-93.66108,44.81269],[-93.66207,44.81268]]]]}}]}