{"type":"FeatureCollection","features":[{"type":"Feature","properties":{"name":"GEST (Liberty/Gladstone, MO)","boundary_type":"places","source":"Census TIGER place","fidelity":"exact","updated":"2026-09","units":"Liberty city; Gladstone city","note":"Service covers Liberty and Gladstone; candidate also lists North Kansas City, Riverside, Parkville as unverified.","confidence":0.85},"geometry":{"type":"MultiPolygon","coordinates":[[[[-94.59256,39.18312],[-94.58821,39.18314],[-94.58819,39.19024],[-94.58635,39.19026],[-94.58647,39.19445],[-94.58635,39.19597],[-94.58624,39.20299],[-94.58613,39.2106],[-94.58599,39.21604],[-94.586,39.21767],[-94.586,39.22465],[-94.58609,39.23371],[-94.58524,39.23504],[-94.5806,39.23512],[-94.57606,39.23427],[-94.56679,39.2342],[-94.5631,39.23412],[-94.55751,39.23406],[-94.55438,39.23397],[-94.54289,39.2337],[-94.54273,39.23369],[-94.54244,39.23335],[-94.54187,39.23194],[-94.54146,39.23121],[-94.54075,39.23224],[-94.54013,39.23364],[-94.5399,39.23363],[-94.52999,39.23339],[-94.52999,39.23121],[-94.52733,39.23117],[-94.52728,39.22975],[-94.52765,39.22904],[-94.52672,39.22728],[-94.52781,39.22656],[-94.52896,39.22637],[-94.52989,39.22668],[-94.52992,39.22398],[-94.53008,39.21274],[-94.53019,39.21081],[-94.53055,39.20504],[-94.5303,39.20198],[-94.5303,39.20039],[-94.53031,39.19561],[-94.53031,39.19517],[-94.53957,39.19523],[-94.54869,39.19533],[-94.55387,39.19539],[-94.55505,39.19541],[-94.56262,39.19554],[-94.56676,39.19561],[-94.5661,39.19815],[-94.56408,39.20281],[-94.57142,39.20275],[-94.57127,39.20654],[-94.56369,39.2067],[-94.5651,39.21006],[-94.56533,39.21063],[-94.57623,39.2106],[-94.57625,39.21012],[-94.57627,39.20659],[-94.57632,39.2047],[-94.57633,39.2029],[-94.57642,39.19843],[-94.5765,39.19571],[-94.57861,39.19571],[-94.58108,39.19566],[-94.58114,39.18122],[-94.58142,39.18123],[-94.58595,39.18121],[-94.58592,39.18043],[-94.58595,39.17403],[-94.58654,39.17404],[-94.59434,39.17408],[-94.59415,39.17766],[-94.59267,39.1801],[-94.59256,39.18312]]],[[[-94.476,39.21389],[-94.47323,39.21591],[-94.47035,39.21631],[-94.46622,39.21628],[-94.46566,39.22345],[-94.46998,39.22348],[-94.46507,39.2306],[-94.46623,39.23062],[-94.46234,39.23629],[-94.45724,39.24471],[-94.45621,39.24609],[-94.45605,39.24771],[-94.45582,39.26651],[-94.4553,39.26658],[-94.45457,39.26658],[-94.45455,39.26867],[-94.44875,39.26649],[-94.44807,39.26615],[-94.44731,39.26665],[-94.44672,39.27011],[-94.44627,39.27035],[-94.4457,39.27371],[-94.44543,39.281],[-94.43723,39.28094],[-94.43712,39.28811],[-94.43631,39.28816],[-94.43622,39.2954],[-94.43622,39.29547],[-94.43619,39.2991],[-94.43109,39.29906],[-94.43105,39.30271],[-94.42591,39.30268],[-94.42602,39.29542],[-94.42137,39.29539],[-94.41671,39.29538],[-94.41142,39.29542],[-94.4106,39.29543],[-94.4066,39.30265],[-94.40102,39.30269],[-94.40106,39.2955],[-94.37611,39.29562],[-94.37462,39.29563],[-94.37537,39.29475],[-94.37965,39.29004],[-94.37938,39.2593],[-94.37968,39.25582],[-94.37989,39.18686],[-94.38145,39.18706],[-94.3843,39.18694],[-94.38483,39.1872],[-94.38973,39.1935],[-94.39503,39.1963],[-94.40127,39.19696],[-94.40213,39.197],[-94.40173,39.19753],[-94.40979,39.19539],[-94.4121,39.19422],[-94.4182,39.19359],[-94.41949,39.19266],[-94.41953,39.19098],[-94.42073,39.19034],[-94.42232,39.19071],[-94.42377,39.19306],[-94.4261,39.19288],[-94.42937,39.19461],[-94.43099,39.19466],[-94.43458,39.19385],[-94.43611,39.19267],[-94.4366,39.19148],[-94.43807,39.19055],[-94.44296,39.18871],[-94.44385,39.18679],[-94.44624,39.18511],[-94.44706,39.18192],[-94.44776,39.1759],[-94.4489,39.17595],[-94.45021,39.17801],[-94.45171,39.1789],[-94.45225,39.17934],[-94.45287,39.18305],[-94.45413,39.18435],[-94.45431,39.18662],[-94.45377,39.18917],[-94.45035,39.19223],[-94.44906,39.19218],[-94.44574,39.19453],[-94.45672,39.19469],[-94.45673,39.20199],[-94.47053,39.20189],[-94.47047,39.20562],[-94.47395,39.20557],[-94.47498,39.20667],[-94.47642,39.20585],[-94.47978,39.2076],[-94.47985,39.20766],[-94.47764,39.20891],[-94.476,39.21389]],[[-94.44647,39.2233],[-94.4531,39.22357],[-94.45371,39.22343],[-94.45643,39.22343],[-94.4566,39.2162],[-94.44635,39.2161],[-94.44647,39.2233]]]]}},{"type":"Feature","properties":{"name":"IRIS (Independence)","boundary_type":"city","source":"Census TIGER place","fidelity":"exact","updated":"2026-09","units":"Independence city","note":"Dynamic-routing microtransit covering entire Independence city limits.","confidence":0.95},"geometry":{"type":"Polygon","coordinates":[[[-94.48123,39.11141],[-94.47735,39.11125],[-94.47737,39.1124],[-94.47403,39.11137],[-94.47374,39.11161],[-94.472,39.11155],[-94.47109,39.11112],[-94.47065,39.11162],[-94.47058,39.11326],[-94.47055,39.11402],[-94.4679,39.11436],[-94.46789,39.11506],[-94.46791,39.11785],[-94.46763,39.12057],[-94.46762,39.12062],[-94.46732,39.12459],[-94.46739,39.12955],[-94.46742,39.12956],[-94.46736,39.13137],[-94.46216,39.12918],[-94.45716,39.12837],[-94.45736,39.12225],[-94.45543,39.1231],[-94.45551,39.1224],[-94.45606,39.12201],[-94.45629,39.12191],[-94.45668,39.12165],[-94.4574,39.12125],[-94.45742,39.12065],[-94.4593,39.11969],[-94.46067,39.11848],[-94.46076,39.1184],[-94.46087,39.11633],[-94.4566,39.11551],[-94.45645,39.11551],[-94.45632,39.11651],[-94.45336,39.11648],[-94.45348,39.11357],[-94.45367,39.10997],[-94.45377,39.10634],[-94.45391,39.10278],[-94.45374,39.10278],[-94.44522,39.10247],[-94.43703,39.10219],[-94.43684,39.10218],[-94.43681,39.1027],[-94.43195,39.10253],[-94.43172,39.10919],[-94.43168,39.10976],[-94.43141,39.10975],[-94.42782,39.10966],[-94.42712,39.11283],[-94.42601,39.11279],[-94.42452,39.11275],[-94.42447,39.1142],[-94.4229,39.11422],[-94.42295,39.11617],[-94.42277,39.1215],[-94.42263,39.12341],[-94.42404,39.12345],[-94.42323,39.1306],[-94.42352,39.13061],[-94.42348,39.13124],[-94.40729,39.13051],[-94.40664,39.13049],[-94.40189,39.1303],[-94.38527,39.12957],[-94.36459,39.12898],[-94.36447,39.12898],[-94.36448,39.12895],[-94.35588,39.12871],[-94.35542,39.12862],[-94.35193,39.13075],[-94.35273,39.13104],[-94.35208,39.13383],[-94.3501,39.13425],[-94.34909,39.13325],[-94.34924,39.13237],[-94.3486,39.13275],[-94.34576,39.13429],[-94.34057,39.13458],[-94.33698,39.13463],[-94.32965,39.1344],[-94.32608,39.13438],[-94.32078,39.13624],[-94.31723,39.13674],[-94.31373,39.13665],[-94.29379,39.13618],[-94.28482,39.13683],[-94.26866,39.13649],[-94.26765,39.13658],[-94.25932,39.13958],[-94.25796,39.13979],[-94.21592,39.13865],[-94.21729,39.11699],[-94.2177,39.1097],[-94.21774,39.10951],[-94.21778,39.10845],[-94.21826,39.09521],[-94.21838,39.09522],[-94.2185,39.09522],[-94.21856,39.09088],[-94.21856,39.09072],[-94.2186,39.08727],[-94.21884,39.08382],[-94.21894,39.08036],[-94.22358,39.08053],[-94.22779,39.08009],[-94.25565,39.08112],[-94.25591,39.07843],[-94.26511,39.07887],[-94.26983,39.07823],[-94.26971,39.08181],[-94.27342,39.08222],[-94.27517,39.08228],[-94.27527,39.08008],[-94.27735,39.08015],[-94.2777,39.06869],[-94.27748,39.0663],[-94.27747,39.06623],[-94.27784,39.06631],[-94.27853,39.0663],[-94.27827,39.0643],[-94.27622,39.06191],[-94.27496,39.06208],[-94.27321,39.0605],[-94.26946,39.05658],[-94.2698,39.05353],[-94.27078,39.05356],[-94.27499,39.05371],[-94.27504,39.053],[-94.27946,39.05316],[-94.28387,39.05323],[-94.2874,39.05378],[-94.29428,39.05384],[-94.29818,39.05306],[-94.30213,39.05335],[-94.30752,39.05376],[-94.30937,39.0539],[-94.31312,39.05402],[-94.3153,39.0541],[-94.31543,39.05161],[-94.31298,39.05025],[-94.3125,39.04939],[-94.31274,39.04495],[-94.31139,39.04327],[-94.31126,39.04314],[-94.31118,39.04305],[-94.31112,39.04299],[-94.3064,39.03824],[-94.30508,39.03825],[-94.30519,39.03732],[-94.30538,39.03708],[-94.30543,39.03475],[-94.32136,39.0366],[-94.33069,39.03804],[-94.33066,39.03757],[-94.33197,39.03774],[-94.33206,39.03567],[-94.33211,39.03398],[-94.33236,39.03299],[-94.33314,39.03273],[-94.33487,39.03272],[-94.33544,39.03276],[-94.33684,39.03279],[-94.33685,39.03269],[-94.33694,39.03114],[-94.33713,39.02939],[-94.33427,39.02911],[-94.32931,39.02719],[-94.32781,39.02695],[-94.32789,39.02526],[-94.33063,39.02531],[-94.33238,39.0218],[-94.33215,39.02336],[-94.33269,39.02348],[-94.33278,39.02348],[-94.33282,39.02497],[-94.33742,39.02376],[-94.33979,39.0256],[-94.3435,39.02568],[-94.34538,39.02578],[-94.35131,39.02587],[-94.35216,39.02598],[-94.35787,39.02615],[-94.36034,39.02622],[-94.36353,39.02618],[-94.36505,39.02412],[-94.36987,39.02396],[-94.37219,39.02285],[-94.37353,39.02321],[-94.3744,39.02271],[-94.37455,39.02028],[-94.37844,39.0197],[-94.38114,39.0207],[-94.38237,39.02037],[-94.38219,39.01954],[-94.38362,39.01803],[-94.3837,39.01809],[-94.38372,39.0181],[-94.38394,39.01819],[-94.38405,39.01823],[-94.38413,39.01824],[-94.3842,39.01828],[-94.38424,39.01825],[-94.38451,39.01808],[-94.38536,39.01781],[-94.38692,39.01763],[-94.38694,39.01768],[-94.38802,39.01942],[-94.38814,39.0203],[-94.38811,39.02071],[-94.38779,39.02175],[-94.38771,39.02356],[-94.3876,39.02403],[-94.3875,39.02635],[-94.38727,39.03117],[-94.38726,39.03438],[-94.38723,39.03527],[-94.388,39.0353],[-94.401,39.03584],[-94.40217,39.03589],[-94.41453,39.03637],[-94.41457,39.03558],[-94.4157,39.0348],[-94.42228,39.03511],[-94.42282,39.03512],[-94.42461,39.03522],[-94.42497,39.03526],[-94.42497,39.0352],[-94.42537,39.02631],[-94.42999,39.02644],[-94.43752,39.02678],[-94.43745,39.02923],[-94.43717,39.03535],[-94.43593,39.03589],[-94.43593,39.03642],[-94.43581,39.03642],[-94.43569,39.03875],[-94.43564,39.03981],[-94.43353,39.03974],[-94.43337,39.04117],[-94.43733,39.04407],[-94.44479,39.04717],[-94.4476,39.0485],[-94.44855,39.04898],[-94.45259,39.05096],[-94.45439,39.05175],[-94.4567,39.05268],[-94.46058,39.05426],[-94.47253,39.0591],[-94.47398,39.0597],[-94.47394,39.05989],[-94.47499,39.0605],[-94.47498,39.06065],[-94.47498,39.06144],[-94.47471,39.06534],[-94.47471,39.06708],[-94.46897,39.06679],[-94.46846,39.06886],[-94.4698,39.0704],[-94.47077,39.0736],[-94.47042,39.07419],[-94.47018,39.08131],[-94.47018,39.08144],[-94.47015,39.08194],[-94.4712,39.08198],[-94.47121,39.08211],[-94.47246,39.08534],[-94.47642,39.08879],[-94.47825,39.08964],[-94.47745,39.09235],[-94.47876,39.09477],[-94.47885,39.09723],[-94.47781,39.0993],[-94.47627,39.1009],[-94.47758,39.10376],[-94.47777,39.10395],[-94.47895,39.10482],[-94.47933,39.10526],[-94.47936,39.10565],[-94.47897,39.10786],[-94.47965,39.10842],[-94.47965,39.10849],[-94.48142,39.10806],[-94.48124,39.11125],[-94.48123,39.11141]]]}},{"type":"Feature","properties":{"name":"MAPS (Metro Area Public Transit System)","boundary_type":"places","source":"Census TIGER place","fidelity":"exact","updated":"2026-09","units":"Joplin city; Webb City city; Oronogo city; Carterville city; Duquesne village; Duenweg city","note":"Curb-to-curb demand-response covering greater Joplin metro area across six municipalities.","confidence":0.9},"geometry":{"type":"MultiPolygon","coordinates":[[[[-94.4296,37.0639],[-94.42798,37.06489],[-94.42802,37.06894],[-94.42721,37.06893],[-94.42559,37.06892],[-94.42631,37.07299],[-94.42595,37.07123],[-94.42313,37.07123],[-94.42299,37.07432],[-94.42298,37.07461],[-94.42497,37.07452],[-94.42662,37.0763],[-94.43395,37.07632],[-94.43419,37.07733],[-94.43651,37.07876],[-94.4366,37.07634],[-94.4412,37.07636],[-94.44113,37.07948],[-94.44423,37.07948],[-94.43647,37.07981],[-94.43272,37.08016],[-94.43138,37.07969],[-94.43137,37.08134],[-94.42996,37.08131],[-94.42995,37.08343],[-94.42927,37.08341],[-94.42911,37.08708],[-94.4271,37.08706],[-94.4272,37.08337],[-94.42262,37.08328],[-94.42247,37.08328],[-94.42194,37.09758],[-94.42176,37.10119],[-94.41742,37.10109],[-94.41758,37.09752],[-94.41005,37.09743],[-94.40395,37.09737],[-94.40387,37.09391],[-94.39931,37.0939],[-94.39928,37.09539],[-94.39456,37.09573],[-94.39452,37.09727],[-94.38883,37.09722],[-94.3887,37.09535],[-94.3858,37.09544],[-94.38588,37.09491],[-94.38836,37.09483],[-94.38836,37.09179],[-94.38972,37.09229],[-94.38994,37.09021],[-94.39126,37.09024],[-94.39514,37.08987],[-94.40405,37.08985],[-94.40409,37.08899],[-94.39247,37.08886],[-94.39315,37.08796],[-94.39605,37.08746],[-94.39626,37.08288],[-94.3951,37.08286],[-94.39522,37.07991],[-94.40442,37.08008],[-94.40444,37.0795],[-94.40484,37.07078],[-94.39962,37.07206],[-94.40103,37.06858],[-94.3996,37.06776],[-94.39856,37.06855],[-94.39873,37.06497],[-94.40052,37.065],[-94.40066,37.0614],[-94.39384,37.0613],[-94.39276,37.06307],[-94.38878,37.06302],[-94.38778,37.06479],[-94.38828,37.06839],[-94.38771,37.06476],[-94.38864,37.06302],[-94.3869,37.06299],[-94.38719,37.05622],[-94.38807,37.05394],[-94.40548,37.05424],[-94.40567,37.05064],[-94.40922,37.05064],[-94.41019,37.05406],[-94.41019,37.05252],[-94.41141,37.05252],[-94.41141,37.05406],[-94.41637,37.05407],[-94.41638,37.05077],[-94.41944,37.0507],[-94.4194,37.04855],[-94.42401,37.04854],[-94.42387,37.05299],[-94.42627,37.0506],[-94.42736,37.05068],[-94.42842,37.05253],[-94.42855,37.05415],[-94.42985,37.05427],[-94.42984,37.05205],[-94.43099,37.05207],[-94.43045,37.05335],[-94.43322,37.05335],[-94.43434,37.05423],[-94.4344,37.05093],[-94.43685,37.05094],[-94.43667,37.05426],[-94.43713,37.05427],[-94.43774,37.05098],[-94.43948,37.05101],[-94.43941,37.0528],[-94.44096,37.05278],[-94.44093,37.05414],[-94.44204,37.05416],[-94.44204,37.05465],[-94.44374,37.05466],[-94.44387,37.05104],[-94.44499,37.05105],[-94.44489,37.05361],[-94.44446,37.0536],[-94.44443,37.05467],[-94.44546,37.05468],[-94.44602,37.0546],[-94.46031,37.04977],[-94.46078,37.03317],[-94.46193,37.03316],[-94.47033,37.03327],[-94.47031,37.0347],[-94.47157,37.03473],[-94.47162,37.03333],[-94.47904,37.03355],[-94.47905,37.03323],[-94.48358,37.03322],[-94.48329,37.03685],[-94.47893,37.0368],[-94.47887,37.04072],[-94.48333,37.04045],[-94.48347,37.03683],[-94.49258,37.0368],[-94.49257,37.03503],[-94.49033,37.03503],[-94.49108,37.0332],[-94.48813,37.0332],[-94.48834,37.026],[-94.47995,37.02599],[-94.48039,37.02355],[-94.48195,37.02364],[-94.48292,37.02242],[-94.47938,37.02242],[-94.47947,37.01903],[-94.48666,37.01893],[-94.4978,37.01887],[-94.5056,37.01887],[-94.50571,37.02258],[-94.51656,37.02269],[-94.51691,37.0227],[-94.51999,37.02277],[-94.52239,37.02354],[-94.5231,37.02622],[-94.5244,37.02623],[-94.52437,37.02911],[-94.52655,37.02767],[-94.52816,37.02607],[-94.52949,37.0237],[-94.53148,37.02316],[-94.53353,37.02098],[-94.53608,37.01761],[-94.53599,37.0124],[-94.53881,37.01222],[-94.53743,37.01338],[-94.53748,37.01548],[-94.5413,37.01212],[-94.54507,37.01035],[-94.54952,37.00676],[-94.54898,37.00504],[-94.54392,37.00509],[-94.54384,37.00361],[-94.54912,37.00357],[-94.5491,37.00241],[-94.55168,37.00234],[-94.55172,37.00122],[-94.55609,37.00137],[-94.55598,36.99783],[-94.55845,36.99786],[-94.5585,37.00307],[-94.56039,37.00307],[-94.5615,37.00702],[-94.56951,37.00555],[-94.58033,37.00377],[-94.58271,37.00288],[-94.58252,37.00134],[-94.58413,37.0011],[-94.58535,37.00254],[-94.58972,37.00214],[-94.59558,37.00114],[-94.59581,37.00071],[-94.59758,37.00077],[-94.60481,36.99948],[-94.60484,36.99874],[-94.60487,36.99794],[-94.60803,36.99784],[-94.60918,36.9951],[-94.61353,36.99491],[-94.61356,36.99584],[-94.61803,36.9947],[-94.61805,36.9959],[-94.61805,36.99621],[-94.61796,36.9989],[-94.61799,37.00585],[-94.61594,37.0037],[-94.60916,37.00329],[-94.60921,36.99932],[-94.59576,37.00253],[-94.59266,37.00221],[-94.58931,37.00282],[-94.58765,37.00359],[-94.58791,37.00546],[-94.58555,37.00631],[-94.58393,37.00538],[-94.57944,37.00471],[-94.57732,37.00487],[-94.56946,37.0064],[-94.564,37.00782],[-94.56353,37.00736],[-94.55793,37.00826],[-94.55629,37.00869],[-94.55631,37.01228],[-94.55268,37.01233],[-94.54555,37.0127],[-94.54475,37.01573],[-94.54542,37.01712],[-94.54405,37.01726],[-94.54413,37.01909],[-94.53836,37.0193],[-94.53822,37.0182],[-94.53617,37.01951],[-94.53495,37.02185],[-94.53403,37.02231],[-94.52951,37.02719],[-94.52443,37.03059],[-94.52827,37.03369],[-94.53184,37.03572],[-94.53451,37.0371],[-94.53727,37.03774],[-94.54011,37.03712],[-94.54119,37.03648],[-94.54172,37.03441],[-94.54052,37.03143],[-94.54387,37.0307],[-94.54364,37.0318],[-94.5446,37.03372],[-94.55087,37.03369],[-94.5507,37.03845],[-94.5546,37.03849],[-94.55309,37.03962],[-94.55069,37.03958],[-94.55068,37.04105],[-94.54186,37.04115],[-94.54188,37.03982],[-94.54006,37.04019],[-94.53963,37.04144],[-94.53527,37.04066],[-94.53568,37.04343],[-94.53458,37.04399],[-94.53265,37.04671],[-94.53267,37.04808],[-94.54139,37.04829],[-94.54121,37.05339],[-94.54245,37.05341],[-94.54241,37.05542],[-94.54353,37.05543],[-94.54344,37.05005],[-94.54264,37.04829],[-94.54607,37.04833],[-94.54585,37.05528],[-94.54726,37.05528],[-94.54747,37.05419],[-94.55004,37.05466],[-94.55029,37.05365],[-94.55071,37.05103],[-94.55707,37.04129],[-94.56172,37.04132],[-94.56358,37.04426],[-94.56459,37.05297],[-94.5644,37.05585],[-94.55908,37.05568],[-94.55886,37.06301],[-94.56147,37.06319],[-94.5615,37.05959],[-94.5638,37.0596],[-94.56371,37.06324],[-94.56779,37.06332],[-94.56812,37.05595],[-94.57636,37.05615],[-94.57631,37.06344],[-94.58138,37.06354],[-94.58411,37.06344],[-94.58425,37.05995],[-94.58153,37.05989],[-94.58168,37.05626],[-94.58179,37.05307],[-94.58468,37.0526],[-94.58962,37.05289],[-94.58853,37.05509],[-94.59234,37.05466],[-94.5961,37.05472],[-94.59607,37.0561],[-94.59437,37.05646],[-94.59221,37.0569],[-94.59209,37.06175],[-94.5962,37.06184],[-94.59612,37.06457],[-94.59758,37.06481],[-94.60189,37.07082],[-94.61111,37.07104],[-94.61113,37.06957],[-94.61223,37.06958],[-94.6122,37.07106],[-94.61324,37.0706],[-94.61326,37.06916],[-94.61658,37.0713],[-94.61796,37.07105],[-94.61798,37.07508],[-94.61801,37.07748],[-94.61757,37.0789],[-94.61525,37.0803],[-94.61528,37.07856],[-94.61076,37.07851],[-94.61101,37.0712],[-94.59951,37.07098],[-94.59124,37.06424],[-94.59133,37.06062],[-94.58752,37.06141],[-94.58441,37.06138],[-94.58425,37.06538],[-94.58195,37.06577],[-94.58191,37.06364],[-94.57237,37.06338],[-94.57229,37.065],[-94.57058,37.06478],[-94.56776,37.06556],[-94.56775,37.0663],[-94.56976,37.06714],[-94.56982,37.06614],[-94.5722,37.06627],[-94.57126,37.07065],[-94.56749,37.07056],[-94.55635,37.07025],[-94.55592,37.07386],[-94.55388,37.07376],[-94.55373,37.07745],[-94.55508,37.07752],[-94.55495,37.08085],[-94.55831,37.08089],[-94.55801,37.08484],[-94.55762,37.09196],[-94.56664,37.09227],[-94.5665,37.09586],[-94.55313,37.09556],[-94.55285,37.10038],[-94.54833,37.10032],[-94.53541,37.09987],[-94.53479,37.11133],[-94.53334,37.10972],[-94.53024,37.1099],[-94.52631,37.11271],[-94.52377,37.11087],[-94.52106,37.11087],[-94.52096,37.114],[-94.51706,37.11389],[-94.51707,37.11066],[-94.51561,37.10951],[-94.51222,37.10975],[-94.51212,37.11105],[-94.51033,37.11438],[-94.51053,37.11726],[-94.50232,37.11737],[-94.50206,37.12443],[-94.50193,37.12795],[-94.50173,37.13876],[-94.50633,37.13896],[-94.50619,37.14254],[-94.50543,37.15696],[-94.51005,37.1572],[-94.51001,37.15784],[-94.50997,37.15857],[-94.50976,37.16476],[-94.50943,37.16475],[-94.50292,37.1643],[-94.50084,37.16425],[-94.5005,37.17335],[-94.49837,37.17325],[-94.49761,37.17185],[-94.49538,37.17334],[-94.49149,37.17286],[-94.48846,37.17361],[-94.48798,37.17493],[-94.47774,37.17482],[-94.47678,37.1706],[-94.4782,37.17055],[-94.47842,37.16342],[-94.47386,37.16326],[-94.47395,37.1612],[-94.47237,37.16146],[-94.4724,37.1602],[-94.47399,37.16023],[-94.47404,37.15902],[-94.47608,37.15888],[-94.4762,37.15702],[-94.4771,37.15635],[-94.47432,37.15627],[-94.47421,37.15792],[-94.47211,37.15786],[-94.47218,37.15602],[-94.46853,37.15596],[-94.46808,37.16006],[-94.46917,37.16006],[-94.46885,37.16703],[-94.47371,37.16728],[-94.47353,37.17079],[-94.46877,37.17069],[-94.46884,37.16711],[-94.46473,37.16703],[-94.46464,37.17031],[-94.46251,37.1703],[-94.46211,37.16864],[-94.46001,37.16858],[-94.45999,37.17028],[-94.45869,37.17024],[-94.45867,37.16865],[-94.45523,37.16859],[-94.45534,37.16674],[-94.44296,37.16654],[-94.44296,37.16318],[-94.44296,37.16266],[-94.43729,37.16256],[-94.43236,37.16255],[-94.43235,37.16215],[-94.43252,37.15562],[-94.43281,37.14877],[-94.42442,37.14816],[-94.42423,37.14212],[-94.42456,37.14113],[-94.42018,37.14108],[-94.42051,37.13386],[-94.43342,37.13406],[-94.43851,37.13415],[-94.43867,37.13049],[-94.43349,37.13045],[-94.43372,37.11998],[-94.42955,37.11998],[-94.42955,37.11557],[-94.43884,37.11571],[-94.43884,37.12007],[-94.44776,37.12003],[-94.44776,37.12317],[-94.45034,37.12313],[-94.4502,37.12684],[-94.45242,37.12687],[-94.45245,37.11967],[-94.45292,37.11559],[-94.45316,37.11235],[-94.45305,37.11235],[-94.45349,37.10191],[-94.44858,37.10176],[-94.44011,37.10153],[-94.43579,37.10152],[-94.4358,37.10246],[-94.43592,37.11206],[-94.43538,37.11205],[-94.43497,37.11222],[-94.43424,37.11221],[-94.4328,37.11204],[-94.42991,37.11216],[-94.42686,37.11215],[-94.42692,37.10561],[-94.4217,37.10561],[-94.42193,37.10075],[-94.42202,37.09884],[-94.43019,37.0989],[-94.43014,37.09769],[-94.4349,37.09775],[-94.43591,37.09439],[-94.43577,37.09891],[-94.4402,37.0989],[-94.44035,37.09779],[-94.4405,37.09414],[-94.44923,37.09418],[-94.45417,37.09446],[-94.45432,37.08946],[-94.45452,37.08726],[-94.45439,37.08726],[-94.45332,37.08739],[-94.45346,37.08375],[-94.45451,37.08377],[-94.45447,37.08507],[-94.45689,37.08521],[-94.45779,37.08438],[-94.45793,37.08018],[-94.45469,37.08014],[-94.45279,37.07962],[-94.45276,37.07749],[-94.45429,37.07648],[-94.45445,37.07259],[-94.45226,37.0726],[-94.45227,37.06937],[-94.45053,37.06935],[-94.45045,37.07258],[-94.44926,37.07259],[-94.44939,37.06933],[-94.44372,37.06927],[-94.44373,37.07297],[-94.44235,37.07125],[-94.4423,37.06925],[-94.43688,37.06909],[-94.44243,37.06907],[-94.44171,37.06403],[-94.44064,37.06246],[-94.44167,37.0625],[-94.44172,37.06186],[-94.43721,37.06181],[-94.43714,37.06404],[-94.4296,37.0639]],[[-94.40369,37.06862],[-94.40495,37.06828],[-94.40493,37.06869],[-94.40731,37.06708],[-94.41003,37.0669],[-94.41003,37.06471],[-94.40506,37.06471],[-94.405,37.0665],[-94.40482,37.06437],[-94.40349,37.06434],[-94.40374,37.06785],[-94.40103,37.06858],[-94.40369,37.06862]],[[-94.49245,37.04042],[-94.49691,37.0404],[-94.49676,37.04401],[-94.50128,37.04407],[-94.50141,37.04048],[-94.50589,37.04053],[-94.50632,37.03336],[-94.5106,37.03343],[-94.51081,37.028],[-94.50632,37.02794],[-94.50638,37.02616],[-94.50192,37.02606],[-94.50177,37.02966],[-94.49739,37.0296],[-94.4974,37.026],[-94.49293,37.02597],[-94.49264,37.03317],[-94.49491,37.03318],[-94.49483,37.03501],[-94.49709,37.03501],[-94.49707,37.0368],[-94.49258,37.0368],[-94.49245,37.04042]],[[-94.44405,37.06186],[-94.44407,37.05831],[-94.44173,37.05827],[-94.44172,37.06186],[-94.44405,37.06186]],[[-94.42334,37.06636],[-94.42453,37.06536],[-94.42338,37.06536],[-94.42342,37.06388],[-94.42174,37.0637],[-94.41889,37.06448],[-94.41872,37.06883],[-94.41984,37.06883],[-94.42325,37.06888],[-94.42334,37.06636]],[[-94.41229,37.06672],[-94.41245,37.06874],[-94.41684,37.0688],[-94.4153,37.06561],[-94.41229,37.06672]],[[-94.43932,37.05612],[-94.43901,37.05622],[-94.43933,37.05681],[-94.44173,37.05598],[-94.44173,37.05548],[-94.44096,37.05521],[-94.43978,37.05506],[-94.43915,37.05516],[-94.4391,37.05574],[-94.43912,37.05584],[-94.43932,37.05612]],[[-94.45837,37.06289],[-94.45987,37.0629],[-94.45988,37.06286],[-94.45538,37.06281],[-94.45538,37.06364],[-94.45837,37.06364],[-94.45837,37.06289]],[[-94.44273,37.06577],[-94.44275,37.06907],[-94.44716,37.06911],[-94.44717,37.06745],[-94.44843,37.06744],[-94.44849,37.0658],[-94.4461,37.06579],[-94.44608,37.06686],[-94.44558,37.06578],[-94.44273,37.06577]],[[-94.5527,37.01121],[-94.55301,37.00915],[-94.55136,37.00944],[-94.55103,37.00951],[-94.55099,37.01135],[-94.5527,37.01121]],[[-94.53496,37.04068],[-94.53408,37.04073],[-94.53383,37.04341],[-94.53498,37.0416],[-94.53496,37.04068]],[[-94.52003,37.03135],[-94.51678,37.0336],[-94.51518,37.0337],[-94.51501,37.03616],[-94.51478,37.04066],[-94.53291,37.04081],[-94.53299,37.0386],[-94.53152,37.03742],[-94.52237,37.03135],[-94.52133,37.03112],[-94.52003,37.03135]],[[-94.52053,37.02632],[-94.51942,37.02543],[-94.51667,37.02331],[-94.51545,37.02324],[-94.51537,37.0264],[-94.52053,37.02632]],[[-94.5033,37.04869],[-94.50556,37.0487],[-94.50576,37.04413],[-94.50353,37.04405],[-94.50337,37.0471],[-94.50224,37.04774],[-94.5033,37.04869]],[[-94.49446,37.04487],[-94.49449,37.04402],[-94.49229,37.04399],[-94.49226,37.04485],[-94.4943,37.04487],[-94.49446,37.04487]],[[-94.45086,37.05452],[-94.45079,37.05356],[-94.44744,37.05469],[-94.45094,37.0547],[-94.45086,37.05452]],[[-94.40521,37.06131],[-94.40524,37.06048],[-94.40331,37.06046],[-94.40328,37.06132],[-94.40457,37.06137],[-94.40521,37.06131]],[[-94.4624,37.16125],[-94.46263,37.15596],[-94.46133,37.15586],[-94.45558,37.15585],[-94.45535,37.16118],[-94.4624,37.16125]]],[[[-94.46077,37.1975],[-94.46079,37.19929],[-94.46415,37.19936],[-94.46368,37.21107],[-94.45855,37.21109],[-94.45855,37.20844],[-94.45774,37.20844],[-94.45788,37.2041],[-94.45089,37.20414],[-94.45103,37.19934],[-94.43693,37.19911],[-94.42444,37.19879],[-94.43694,37.19884],[-94.45103,37.19904],[-94.45099,37.1967],[-94.45516,37.19669],[-94.45528,37.19221],[-94.45418,37.19221],[-94.45416,37.19348],[-94.4524,37.19394],[-94.45241,37.19485],[-94.45104,37.19491],[-94.45104,37.19217],[-94.4537,37.19221],[-94.45369,37.19044],[-94.45533,37.19044],[-94.45541,37.18846],[-94.45134,37.18865],[-94.45129,37.19007],[-94.44627,37.19008],[-94.44619,37.19327],[-94.43763,37.19326],[-94.43767,37.18808],[-94.44633,37.18821],[-94.4464,37.18618],[-94.44902,37.18618],[-94.44894,37.18812],[-94.45542,37.18809],[-94.45549,37.18529],[-94.45532,37.18474],[-94.45778,37.18476],[-94.45808,37.17498],[-94.46053,37.17703],[-94.45995,37.17834],[-94.46132,37.17971],[-94.46367,37.18039],[-94.46652,37.17902],[-94.46861,37.17925],[-94.47061,37.1804],[-94.47199,37.18017],[-94.47481,37.18193],[-94.47875,37.18071],[-94.4798,37.17941],[-94.48097,37.18018],[-94.48204,37.17954],[-94.48191,37.1889],[-94.48158,37.19786],[-94.46425,37.19757],[-94.46354,37.1986],[-94.46357,37.19754],[-94.46077,37.1975]]]]}},{"type":"Feature","properties":{"name":"Via Metro STL","boundary_type":"county","source":"Census TIGER county","fidelity":"approximate","updated":"2026-09","units":"St. Louis County","note":"Service is three named zones within St. Louis County (North County: parts of Florissant, Bellefontaine Neighbors, Hazelwood, Old Jamestown, Black Jack; West County: along I-64 from eastern Chesterfield to Town and Country near the Ballas Transit Center; South County), not the whole county and not the independent City of St. Louis. No public zone-boundary map or acreage found, so the containing county is used as an approximate proxy. Source: https://www.masstransitmag.com/alt-mobility/shared-mobility/car-sharing/press-release/21220910/bi-state-development-agency-of-the-missouri-illinois-metropolitan-district-st-louis-metro-via-metro-stl-to-expand-service-zones-may-3","confidence":0.75},"geometry":{"type":"Polygon","coordinates":[[[-90.73574,38.48278],[-90.73557,38.49001],[-90.73557,38.49238],[-90.73557,38.4925],[-90.73547,38.49715],[-90.73533,38.50416],[-90.73532,38.50434],[-90.73441,38.53497],[-90.73422,38.54194],[-90.73388,38.54894],[-90.73263,38.5766],[-90.73223,38.62137],[-90.73233,38.6393],[-90.71106,38.64474],[-90.70902,38.64552],[-90.70581,38.64725],[-90.70417,38.64915],[-90.70398,38.65022],[-90.70467,38.65414],[-90.70454,38.65552],[-90.70299,38.65748],[-90.70048,38.65917],[-90.69795,38.66037],[-90.69392,38.66153],[-90.68506,38.66283],[-90.68306,38.66343],[-90.67925,38.6656],[-90.67858,38.66651],[-90.67732,38.66978],[-90.67594,38.67574],[-90.67502,38.6779],[-90.67516,38.68096],[-90.67453,38.68219],[-90.66972,38.68469],[-90.66275,38.68744],[-90.66051,38.68855],[-90.64734,38.69052],[-90.64255,38.69095],[-90.63518,38.69077],[-90.63265,38.69108],[-90.62841,38.69041],[-90.62652,38.69044],[-90.6238,38.69028],[-90.61909,38.68858],[-90.61144,38.68424],[-90.60655,38.68298],[-90.6039,38.68198],[-90.59512,38.68175],[-90.58861,38.6805],[-90.57946,38.68149],[-90.57206,38.68379],[-90.56998,38.68407],[-90.56831,38.68393],[-90.56073,38.68257],[-90.55683,38.68152],[-90.55472,38.68155],[-90.55068,38.68235],[-90.54581,38.68413],[-90.54173,38.68621],[-90.54013,38.68741],[-90.53929,38.68678],[-90.53762,38.68802],[-90.53378,38.69192],[-90.53173,38.6953],[-90.53036,38.69863],[-90.5299,38.70204],[-90.53038,38.7082],[-90.53302,38.72096],[-90.53364,38.72687],[-90.53294,38.72878],[-90.53193,38.7303],[-90.52957,38.73275],[-90.52215,38.73627],[-90.52155,38.73658],[-90.51506,38.73972],[-90.50627,38.74337],[-90.49829,38.74685],[-90.49579,38.74826],[-90.49215,38.75179],[-90.4852,38.75923],[-90.48266,38.76347],[-90.48245,38.76401],[-90.4823,38.76435],[-90.48038,38.7697],[-90.48019,38.77051],[-90.47747,38.7782],[-90.47743,38.77831],[-90.4765,38.7809],[-90.47557,38.78302],[-90.47532,38.78387],[-90.47419,38.78762],[-90.47319,38.79098],[-90.46781,38.7978],[-90.46719,38.79854],[-90.46192,38.80485],[-90.44956,38.81989],[-90.44812,38.82205],[-90.44062,38.82765],[-90.43925,38.82802],[-90.43352,38.82955],[-90.43097,38.82981],[-90.42512,38.82915],[-90.41932,38.82928],[-90.41555,38.82888],[-90.40191,38.8248],[-90.39673,38.8237],[-90.39499,38.8232],[-90.38911,38.82252],[-90.38227,38.82194],[-90.37378,38.82271],[-90.36995,38.82383],[-90.3658,38.82588],[-90.36216,38.82786],[-90.36051,38.82945],[-90.3603,38.82968],[-90.35034,38.84025],[-90.34911,38.8417],[-90.34496,38.84937],[-90.34491,38.85085],[-90.34251,38.85855],[-90.34241,38.86175],[-90.34261,38.86655],[-90.34077,38.87349],[-90.33924,38.87724],[-90.33639,38.88257],[-90.33202,38.88652],[-90.32754,38.88906],[-90.3245,38.89026],[-90.32021,38.89115],[-90.31423,38.89115],[-90.3088,38.89031],[-90.30239,38.88881],[-90.29874,38.88776],[-90.29371,38.88555],[-90.28979,38.88284],[-90.28792,38.88165],[-90.28356,38.87793],[-90.27588,38.8723],[-90.27167,38.86687],[-90.27048,38.86465],[-90.26818,38.86104],[-90.26592,38.85903],[-90.25931,38.85441],[-90.25614,38.85213],[-90.24901,38.84885],[-90.24507,38.84745],[-90.23549,38.84257],[-90.19568,38.82126],[-90.18893,38.81851],[-90.18306,38.81805],[-90.17765,38.81886],[-90.1735,38.82038],[-90.16744,38.82463],[-90.15846,38.82879],[-90.15511,38.82972],[-90.15089,38.82993],[-90.14161,38.82945],[-90.13281,38.82509],[-90.12678,38.82133],[-90.12528,38.81981],[-90.12306,38.81603],[-90.11771,38.80575],[-90.12311,38.79805],[-90.14671,38.78305],[-90.16641,38.77265],[-90.16671,38.77227],[-90.18209,38.77406],[-90.18418,38.77429],[-90.18402,38.77238],[-90.18387,38.77059],[-90.1846,38.76715],[-90.18505,38.76483],[-90.18559,38.76328],[-90.1864,38.76155],[-90.18841,38.75883],[-90.19325,38.7536],[-90.19546,38.75153],[-90.19651,38.75027],[-90.19688,38.74983],[-90.19742,38.74924],[-90.19988,38.74703],[-90.20572,38.74185],[-90.21291,38.73615],[-90.2181,38.73353],[-90.22178,38.73013],[-90.22221,38.72997],[-90.22463,38.72904],[-90.22802,38.72811],[-90.23375,38.72588],[-90.23972,38.72361],[-90.24061,38.72326],[-90.24733,38.72062],[-90.25177,38.71885],[-90.254,38.71602],[-90.25579,38.71376],[-90.25872,38.71009],[-90.25997,38.70852],[-90.262,38.70598],[-90.26309,38.70461],[-90.26498,38.70222],[-90.26524,38.7019],[-90.26572,38.70129],[-90.27519,38.68923],[-90.27881,38.68471],[-90.27991,38.68329],[-90.28144,38.68143],[-90.28275,38.67969],[-90.28372,38.67846],[-90.28598,38.67562],[-90.28999,38.67055],[-90.29383,38.66569],[-90.29514,38.66404],[-90.29679,38.66195],[-90.29704,38.66164],[-90.29742,38.66115],[-90.29751,38.66104],[-90.29782,38.66065],[-90.30075,38.65694],[-90.30183,38.65564],[-90.30216,38.65362],[-90.30283,38.64963],[-90.30285,38.64948],[-90.3034,38.64618],[-90.30362,38.64489],[-90.30494,38.64176],[-90.30643,38.63359],[-90.30781,38.63247],[-90.30874,38.63002],[-90.30896,38.6289],[-90.3093,38.62696],[-90.30983,38.62415],[-90.31003,38.62309],[-90.31025,38.62175],[-90.31027,38.62165],[-90.31085,38.61821],[-90.31204,38.6153],[-90.31401,38.6105],[-90.31701,38.60296],[-90.31842,38.5994],[-90.31886,38.59831],[-90.31898,38.59801],[-90.32051,38.59415],[-90.31963,38.59224],[-90.31745,38.58738],[-90.31624,38.58469],[-90.31358,38.57877],[-90.31042,38.57563],[-90.31002,38.57523],[-90.30718,38.57242],[-90.30696,38.57219],[-90.29702,38.56237],[-90.29242,38.559],[-90.28977,38.55707],[-90.287,38.55547],[-90.28377,38.55393],[-90.28026,38.552],[-90.27996,38.55184],[-90.27786,38.55054],[-90.27266,38.5486],[-90.27225,38.54817],[-90.27158,38.54484],[-90.27163,38.54473],[-90.27073,38.542],[-90.27103,38.53868],[-90.2691,38.53757],[-90.26687,38.53427],[-90.26533,38.53369],[-90.26253,38.53387],[-90.25777,38.53201],[-90.26031,38.52835],[-90.26381,38.52055],[-90.26383,38.52051],[-90.26395,38.52017],[-90.26881,38.50615],[-90.26999,38.5014],[-90.27131,38.49605],[-90.27478,38.48663],[-90.27491,38.48625],[-90.27591,38.47955],[-90.27771,38.4757],[-90.27921,38.47245],[-90.28268,38.45755],[-90.284,38.45185],[-90.28584,38.44573],[-90.28749,38.4402],[-90.28778,38.43923],[-90.29278,38.42865],[-90.29729,38.4254],[-90.31233,38.41455],[-90.3144,38.41248],[-90.32618,38.40067],[-90.32684,38.4002],[-90.33024,38.39772],[-90.33409,38.3949],[-90.3345,38.3946],[-90.3409,38.38881],[-90.34133,38.38821],[-90.34389,38.39098],[-90.34416,38.39149],[-90.34431,38.39657],[-90.34489,38.39856],[-90.34703,38.4026],[-90.34794,38.40536],[-90.34799,38.41006],[-90.34634,38.41708],[-90.34648,38.41816],[-90.34712,38.41949],[-90.34817,38.42835],[-90.34812,38.43059],[-90.34692,38.43615],[-90.34499,38.43757],[-90.34087,38.44087],[-90.33574,38.44819],[-90.33613,38.45349],[-90.33892,38.45535],[-90.34763,38.45765],[-90.35363,38.45822],[-90.35816,38.45761],[-90.3606,38.45672],[-90.36489,38.45541],[-90.37646,38.45291],[-90.37678,38.45287],[-90.38739,38.45139],[-90.39103,38.45056],[-90.39264,38.45171],[-90.3907,38.45537],[-90.39163,38.45733],[-90.39471,38.45849],[-90.39741,38.45748],[-90.40033,38.45421],[-90.40424,38.45287],[-90.40866,38.45254],[-90.41121,38.45344],[-90.413,38.45501],[-90.41441,38.45697],[-90.41501,38.46294],[-90.41643,38.46708],[-90.41893,38.47097],[-90.422,38.47817],[-90.42189,38.47998],[-90.42261,38.48206],[-90.42223,38.48336],[-90.42006,38.48372],[-90.41591,38.48156],[-90.41451,38.48082],[-90.4118,38.48099],[-90.40795,38.48333],[-90.40564,38.48654],[-90.40531,38.48798],[-90.40742,38.49165],[-90.40762,38.49635],[-90.4056,38.49859],[-90.40533,38.5006],[-90.44386,38.50106],[-90.44868,38.50108],[-90.45343,38.50113],[-90.46033,38.50121],[-90.46124,38.50125],[-90.46289,38.50125],[-90.46627,38.50124],[-90.46701,38.50126],[-90.46978,38.50128],[-90.47534,38.50117],[-90.47539,38.50118],[-90.49277,38.50112],[-90.49756,38.50119],[-90.50389,38.50125],[-90.50641,38.50127],[-90.51036,38.50132],[-90.51252,38.50134],[-90.56076,38.50157],[-90.58411,38.50171],[-90.58811,38.50174],[-90.59112,38.50165],[-90.59289,38.49697],[-90.59404,38.49516],[-90.59521,38.49432],[-90.59591,38.49375],[-90.59874,38.488],[-90.6013,38.48314],[-90.60265,38.47962],[-90.60489,38.47757],[-90.61061,38.47298],[-90.61368,38.47133],[-90.61803,38.47198],[-90.62597,38.47571],[-90.62633,38.4759],[-90.62862,38.47773],[-90.63077,38.48233],[-90.63375,38.48578],[-90.64352,38.48791],[-90.65139,38.48798],[-90.65404,38.48754],[-90.65556,38.48674],[-90.65885,38.48327],[-90.6607,38.47919],[-90.66005,38.47657],[-90.65987,38.47396],[-90.65906,38.47311],[-90.6581,38.4699],[-90.65769,38.46613],[-90.65648,38.46246],[-90.65429,38.45986],[-90.6538,38.45855],[-90.65473,38.45608],[-90.65705,38.45423],[-90.66102,38.45067],[-90.66464,38.44875],[-90.67454,38.44632],[-90.67877,38.44588],[-90.67958,38.44663],[-90.68169,38.44761],[-90.68401,38.44652],[-90.68655,38.44754],[-90.68596,38.44882],[-90.68056,38.45056],[-90.6791,38.45141],[-90.67705,38.4536],[-90.67691,38.45531],[-90.6788,38.45788],[-90.68055,38.45837],[-90.68334,38.45711],[-90.68362,38.45616],[-90.68362,38.45559],[-90.68386,38.45523],[-90.68545,38.45291],[-90.68657,38.45244],[-90.68867,38.45314],[-90.68867,38.4556],[-90.68756,38.4565],[-90.68782,38.46041],[-90.69169,38.46267],[-90.69349,38.4646],[-90.69562,38.47055],[-90.69693,38.47191],[-90.70027,38.47244],[-90.70424,38.47148],[-90.70519,38.47177],[-90.70596,38.47208],[-90.70947,38.46984],[-90.71553,38.46874],[-90.7178,38.46878],[-90.71883,38.46993],[-90.71772,38.47203],[-90.71528,38.47286],[-90.71425,38.47507],[-90.71712,38.47827],[-90.72105,38.48089],[-90.72354,38.48207],[-90.72649,38.48266],[-90.73051,38.48274],[-90.73203,38.48215],[-90.73208,38.47951],[-90.73353,38.47575],[-90.73553,38.46775],[-90.73617,38.46687],[-90.73609,38.46978],[-90.73574,38.48278]]]}}]}