{"type":"FeatureCollection","features":[{"type":"Feature","properties":{"name":"Delta Rides","boundary_type":"counties","source":"Census TIGER county","fidelity":"exact","updated":"2026-09","units":"DeSoto County; Tunica County; Tate County; Panola County; Coahoma County; Quitman County; Tallahatchie County; Yalobusha County; Grenada County; Bolivar County; Sunflower County; Leflore County; Carroll County; Montgomery County; Washington County; Humphreys County; Holmes County; Sharkey County; Yazoo County; Issaquena County","note":"County list read directly off MDOT's official 'Regional Coordination Transportation Groups' map (mdot.ms.gov/connectms/images/regional-map.pdf), which color-codes every MS county by its ConnectMS regional network; these 20 counties are shaded as the Delta Rides (orange) region. MDOT's ConnectMS page and Delta Rides' own site (yourdeltarides.org) both state the region as '21' or '20+' counties without naming them, so this list may be missing one county at the boundary with the Trans-Con/EZTAG regions (Attala County was ambiguous on the map and is not included here).","confidence":0.7},"geometry":{"type":"Polygon","coordinates":[[[-91.20119,32.95498],[-91.20203,32.95733],[-91.20184,32.96121],[-91.19965,32.96356],[-91.19743,32.96482],[-91.18698,32.97619],[-91.18216,32.97864],[-91.17331,32.98609],[-91.16897,32.99213],[-91.16619,33.00224],[-91.16609,33.00429],[-91.16628,33.01133],[-91.16625,33.01138],[-91.16184,33.01985],[-91.15751,33.02272],[-91.14976,33.02631],[-91.14351,33.02725],[-91.13744,33.02874],[-91.12833,33.03428],[-91.12531,33.03885],[-91.12616,33.04095],[-91.12378,33.04532],[-91.12281,33.05107],[-91.12038,33.05453],[-91.12029,33.05592],[-91.12119,33.05917],[-91.12464,33.06413],[-91.15022,33.08213],[-91.15931,33.08531],[-91.16416,33.08629],[-91.17055,33.08738],[-91.17314,33.08869],[-91.17449,33.09082],[-91.18084,33.09836],[-91.19595,33.10456],[-91.20017,33.10693],[-91.20112,33.10818],[-91.20146,33.10964],[-91.20199,33.12313],[-91.19966,33.12853],[-91.19574,33.13325],[-91.19256,33.13708],[-91.1881,33.14008],[-91.18366,33.14169],[-91.16941,33.14264],[-91.16311,33.14219],[-91.1603,33.14122],[-91.15295,33.1348],[-91.15185,33.1318],[-91.15036,33.1307],[-91.14333,33.12978],[-91.12808,33.12891],[-91.12406,33.12936],[-91.11321,33.1292],[-91.09987,33.13112],[-91.08765,33.1354],[-91.08571,33.13719],[-91.08293,33.1486],[-91.08166,33.15381],[-91.08005,33.17031],[-91.08079,33.18221],[-91.08394,33.19039],[-91.09602,33.21047],[-91.10026,33.21943],[-91.08598,33.22164],[-91.08288,33.22162],[-91.0808,33.22264],[-91.07943,33.22404],[-91.07936,33.22634],[-91.07784,33.22747],[-91.0741,33.22682],[-91.0707,33.2273],[-91.07108,33.2301],[-91.06871,33.23294],[-91.06563,33.23298],[-91.06391,33.23736],[-91.05413,33.2461],[-91.05041,33.2512],[-91.04765,33.25999],[-91.04519,33.2654],[-91.04398,33.26984],[-91.04362,33.27464],[-91.04514,33.27902],[-91.04815,33.2828],[-91.05237,33.28542],[-91.05873,33.2869],[-91.06703,33.28718],[-91.07257,33.28588],[-91.07853,33.28331],[-91.08124,33.28125],[-91.08369,33.27856],[-91.08614,33.27365],[-91.09034,33.25733],[-91.09149,33.25484],[-91.09475,33.2505],[-91.09693,33.24163],[-91.09871,33.23851],[-91.10082,33.23827],[-91.10614,33.2418],[-91.11056,33.24593],[-91.11432,33.25295],[-91.11522,33.25528],[-91.11725,33.26056],[-91.11883,33.26242],[-91.12808,33.2685],[-91.12553,33.27473],[-91.12554,33.28025],[-91.14006,33.29662],[-91.14034,33.29714],[-91.14161,33.29954],[-91.14147,33.31432],[-91.14367,33.3284],[-91.1434,33.3302],[-91.14335,33.33052],[-91.14189,33.33296],[-91.14179,33.33336],[-91.14097,33.33649],[-91.14222,33.34899],[-91.14179,33.35008],[-91.14019,33.35145],[-91.13032,33.35711],[-91.12511,33.3601],[-91.12041,33.36381],[-91.10676,33.38114],[-91.10146,33.38719],[-91.09107,33.39621],[-91.08428,33.4001],[-91.08085,33.40206],[-91.0798,33.40266],[-91.0744,33.4075],[-91.07014,33.4122],[-91.06444,33.41846],[-91.05922,33.42696],[-91.05815,33.42871],[-91.05771,33.43711],[-91.05807,33.44624],[-91.05808,33.44654],[-91.05983,33.45026],[-91.0647,33.45377],[-91.06762,33.4551],[-91.07074,33.45585],[-91.07576,33.45567],[-91.08183,33.45419],[-91.08703,33.45129],[-91.09025,33.44812],[-91.09428,33.44267],[-91.09672,33.4376],[-91.09753,33.43373],[-91.09747,33.43173],[-91.09505,33.42415],[-91.09526,33.41773],[-91.09631,33.41282],[-91.09953,33.40721],[-91.10717,33.39908],[-91.11376,33.39312],[-91.12124,33.38842],[-91.14194,33.38006],[-91.14882,33.37877],[-91.1663,33.37971],[-91.17197,33.38103],[-91.17694,33.38284],[-91.19113,33.38963],[-91.19304,33.39092],[-91.20476,33.39882],[-91.20811,33.40201],[-91.20903,33.40363],[-91.20922,33.40629],[-91.2087,33.40872],[-91.20527,33.41423],[-91.20258,33.41683],[-91.19935,33.41832],[-91.19197,33.41773],[-91.18443,33.41958],[-91.17937,33.41715],[-91.17628,33.41698],[-91.16339,33.42216],[-91.14766,33.42717],[-91.14488,33.42771],[-91.13915,33.42695],[-91.13188,33.43006],[-91.13056,33.4319],[-91.1301,33.43408],[-91.1264,33.43864],[-91.11895,33.44621],[-91.11694,33.45203],[-91.11771,33.45755],[-91.11779,33.45808],[-91.1212,33.46749],[-91.12592,33.47513],[-91.13215,33.48156],[-91.14613,33.49045],[-91.16161,33.49748],[-91.16422,33.49819],[-91.16802,33.49833],[-91.17167,33.497],[-91.17468,33.49279],[-91.17697,33.48725],[-91.17744,33.48164],[-91.17601,33.47292],[-91.16988,33.4539],[-91.16981,33.45201],[-91.17651,33.44463],[-91.18179,33.44078],[-91.18698,33.43859],[-91.19466,33.43636],[-91.20681,33.43385],[-91.21027,33.4338],[-91.21737,33.4347],[-91.23518,33.43897],[-91.23593,33.44061],[-91.23431,33.4423],[-91.2337,33.4435],[-91.23342,33.44404],[-91.23259,33.45396],[-91.23166,33.4571],[-91.22334,33.46276],[-91.22018,33.46323],[-91.21551,33.46478],[-91.20853,33.46861],[-91.20675,33.47031],[-91.20566,33.47355],[-91.19959,33.48313],[-91.19563,33.48847],[-91.18937,33.493],[-91.1826,33.49918],[-91.18324,33.50399],[-91.18542,33.50753],[-91.19194,33.51069],[-91.2051,33.51828],[-91.21506,33.52557],[-91.21871,33.52938],[-91.21949,33.53019],[-91.22924,33.5455],[-91.23341,33.55346],[-91.23461,33.55882],[-91.23383,33.56134],[-91.23339,33.56275],[-91.2299,33.56616],[-91.22513,33.56797],[-91.21545,33.56927],[-91.20716,33.56941],[-91.18668,33.5674],[-91.17995,33.56721],[-91.17146,33.56829],[-91.16485,33.57017],[-91.15824,33.57337],[-91.15034,33.57861],[-91.13686,33.59019],[-91.13262,33.59511],[-91.12951,33.6016],[-91.12868,33.60847],[-91.13148,33.61708],[-91.13744,33.62687],[-91.14569,33.63326],[-91.15999,33.6429],[-91.17198,33.64969],[-91.18248,33.65351],[-91.19314,33.65526],[-91.20482,33.65558],[-91.21223,33.65696],[-91.21885,33.66012],[-91.22447,33.66519],[-91.22896,33.67126],[-91.23063,33.67715],[-91.22991,33.68435],[-91.22828,33.68828],[-91.22391,33.69374],[-91.21787,33.698],[-91.21066,33.7004],[-91.20076,33.70133],[-91.18289,33.70155],[-91.17092,33.70243],[-91.16345,33.70488],[-91.16037,33.7066],[-91.14419,33.6896],[-91.13342,33.67679],[-91.1282,33.67319],[-91.11001,33.66545],[-91.09872,33.66015],[-91.09135,33.65776],[-91.08388,33.65748],[-91.07607,33.65916],[-91.05876,33.66655],[-91.05179,33.66794],[-91.04642,33.6685],[-91.03684,33.67132],[-91.03392,33.67356],[-91.03362,33.67416],[-91.03099,33.67941],[-91.03023,33.68416],[-91.0304,33.68777],[-91.03168,33.68848],[-91.03606,33.68941],[-91.03747,33.69404],[-91.04126,33.69993],[-91.04749,33.70695],[-91.05556,33.71249],[-91.06053,33.71513],[-91.06805,33.7162],[-91.07552,33.7142],[-91.08987,33.70736],[-91.10187,33.70491],[-91.10807,33.70497],[-91.11735,33.70526],[-91.12623,33.70918],[-91.13986,33.72148],[-91.14881,33.73136],[-91.14721,33.7399],[-91.14368,33.748],[-91.14503,33.75039],[-91.14155,33.75596],[-91.14081,33.76013],[-91.14475,33.76394],[-91.14496,33.76808],[-91.14201,33.77382],[-91.13735,33.77992],[-91.13406,33.78289],[-91.12944,33.78373],[-91.12509,33.78258],[-91.12042,33.78041],[-91.11421,33.77633],[-91.10843,33.77171],[-91.10053,33.77265],[-91.07103,33.77508],[-91.05339,33.77828],[-91.03462,33.76834],[-91.02588,33.76476],[-91.01837,33.76413],[-91.01225,33.76514],[-91.00132,33.76857],[-90.99384,33.7736],[-90.99122,33.77679],[-90.98944,33.78058],[-90.98847,33.78453],[-90.98907,33.78705],[-90.9893,33.78802],[-90.99175,33.7926],[-90.99681,33.79694],[-91.00581,33.80205],[-91.01307,33.80354],[-91.01933,33.80467],[-91.0216,33.80508],[-91.03193,33.80779],[-91.04125,33.8116],[-91.04908,33.81603],[-91.05371,33.82176],[-91.06122,33.83092],[-91.06824,33.84097],[-91.07019,33.84534],[-91.07314,33.86015],[-91.07277,33.86729],[-91.06978,33.87272],[-91.06275,33.87859],[-91.04661,33.88846],[-91.03822,33.89531],[-91.03461,33.89826],[-91.02691,33.90635],[-91.01306,33.92327],[-91.01105,33.92683],[-91.01079,33.92831],[-91.01019,33.93159],[-91.01186,33.93661],[-91.01622,33.94072],[-91.02312,33.94322],[-91.04672,33.94741],[-91.0785,33.95406],[-91.079,33.95425],[-91.08458,33.95636],[-91.08775,33.95931],[-91.08969,33.9645],[-91.09048,33.99142],[-91.08909,33.99933],[-91.0862,34.00642],[-91.08329,34.00891],[-91.07469,34.00902],[-91.06758,34.00579],[-91.05513,33.99591],[-91.04871,33.99268],[-91.04452,33.99256],[-91.0358,33.99427],[-91.01895,34.00323],[-91.01329,33.99344],[-91.00498,33.97701],[-91.00299,33.9709],[-91.00011,33.96643],[-90.99486,33.96312],[-90.98666,33.96053],[-90.97686,33.9605],[-90.97086,33.96187],[-90.96617,33.96466],[-90.96372,33.96769],[-90.96122,33.97615],[-90.96155,33.97995],[-90.97095,33.99189],[-90.97868,33.99717],[-90.98015,33.99969],[-90.98818,34.01921],[-90.97723,34.02347],[-90.97108,34.02557],[-90.96462,34.0268],[-90.9582,34.02674],[-90.93005,34.02191],[-90.91951,34.02135],[-90.90603,34.02276],[-90.89625,34.02522],[-90.89124,34.02794],[-90.88838,34.03183],[-90.88625,34.03921],[-90.88658,34.04517],[-90.88869,34.05175],[-90.88784,34.0554],[-90.88635,34.05856],[-90.88211,34.0639],[-90.87454,34.07204],[-90.87237,34.07602],[-90.87216,34.07686],[-90.87108,34.08118],[-90.87192,34.08665],[-90.87661,34.09291],[-90.88263,34.09661],[-90.88808,34.09781],[-90.89353,34.09779],[-90.90113,34.09467],[-90.91407,34.09276],[-90.91728,34.09264],[-90.92129,34.09351],[-90.94006,34.10506],[-90.94769,34.10957],[-90.95558,34.11888],[-90.95661,34.12009],[-90.9586,34.12244],[-90.96104,34.13051],[-90.95864,34.13548],[-90.9543,34.1385],[-90.93661,34.14937],[-90.92288,34.15584],[-90.91553,34.16126],[-90.91353,34.16334],[-90.91001,34.16551],[-90.90358,34.16433],[-90.89438,34.16095],[-90.88198,34.15091],[-90.87453,34.14725],[-90.86862,34.14252],[-90.86045,34.13919],[-90.85347,34.13751],[-90.84717,34.13688],[-90.8361,34.13788],[-90.83028,34.13981],[-90.82259,34.14405],[-90.81588,34.14988],[-90.81088,34.1559],[-90.80756,34.16182],[-90.80716,34.16746],[-90.80868,34.17588],[-90.80923,34.17692],[-90.81002,34.17844],[-90.81237,34.18077],[-90.81657,34.18302],[-90.82839,34.18478],[-90.8382,34.1838],[-90.84711,34.18605],[-90.85441,34.18683],[-90.86087,34.1859],[-90.86344,34.18424],[-90.86975,34.18284],[-90.87383,34.18322],[-90.87747,34.18563],[-90.8827,34.18436],[-90.88756,34.18241],[-90.90821,34.19207],[-90.91442,34.19573],[-90.92554,34.20699],[-90.93193,34.2147],[-90.93454,34.21785],[-90.93641,34.22455],[-90.93647,34.22477],[-90.93715,34.23261],[-90.93555,34.23785],[-90.92901,34.24454],[-90.92315,34.24653],[-90.9124,34.24593],[-90.90633,34.24438],[-90.90428,34.24096],[-90.90008,34.22962],[-90.89658,34.2258],[-90.88134,34.21638],[-90.8768,34.21439],[-90.86472,34.21175],[-90.85641,34.21132],[-90.84715,34.20613],[-90.83949,34.21616],[-90.83813,34.22],[-90.83995,34.2268],[-90.84054,34.23803],[-90.83941,34.24458],[-90.83501,34.25863],[-90.8346,34.26321],[-90.83363,34.27407],[-90.83177,34.27694],[-90.82962,34.27857],[-90.82034,34.2809],[-90.81674,34.28065],[-90.79755,34.27608],[-90.78693,34.27242],[-90.78454,34.2716],[-90.76562,34.26951],[-90.76042,34.27073],[-90.75293,34.27461],[-90.74668,34.27976],[-90.73802,34.28928],[-90.73596,34.29586],[-90.73515,34.30256],[-90.7364,34.31207],[-90.74277,34.32129],[-90.75529,34.33441],[-90.76513,34.34251],[-90.76869,34.34778],[-90.76996,34.35548],[-90.76923,34.35843],[-90.76439,34.36368],[-90.7573,34.36739],[-90.74964,34.36815],[-90.74158,34.36608],[-90.73368,34.3641],[-90.72053,34.3608],[-90.7158,34.36033],[-90.71199,34.3609],[-90.70106,34.36252],[-90.68483,34.36907],[-90.6786,34.37112],[-90.67624,34.37111],[-90.67616,34.36956],[-90.6815,34.3526],[-90.69155,34.33862],[-90.69369,34.32968],[-90.69313,34.32257],[-90.69,34.31858],[-90.686,34.31577],[-90.6781,34.31303],[-90.66934,34.31302],[-90.66139,34.3154],[-90.65749,34.32223],[-90.6604,34.33576],[-90.66087,34.33669],[-90.66686,34.34857],[-90.66679,34.35582],[-90.65535,34.37185],[-90.65854,34.37571],[-90.65146,34.38275],[-90.64091,34.38886],[-90.63081,34.39008],[-90.62238,34.38947],[-90.61351,34.39028],[-90.60604,34.39326],[-90.59801,34.39819],[-90.59111,34.40462],[-90.58623,34.40917],[-90.58431,34.41219],[-90.58092,34.41986],[-90.58006,34.42283],[-90.57769,34.43097],[-90.57826,34.43387],[-90.5807,34.43774],[-90.58258,34.44073],[-90.58738,34.45483],[-90.5931,34.47732],[-90.59392,34.48418],[-90.59266,34.49058],[-90.58971,34.49708],[-90.58129,34.51561],[-90.58124,34.51566],[-90.5747,34.52176],[-90.56785,34.52398],[-90.56653,34.52441],[-90.55295,34.5313],[-90.546,34.53618],[-90.54253,34.54015],[-90.53962,34.55392],[-90.54049,34.55787],[-90.54936,34.56925],[-90.56299,34.58192],[-90.57376,34.59213],[-90.5872,34.6109],[-90.59114,34.6192],[-90.59178,34.62379],[-90.59093,34.62875],[-90.58732,34.64136],[-90.58664,34.64371],[-90.58317,34.65196],[-90.58086,34.65517],[-90.56971,34.66635],[-90.56841,34.66888],[-90.5677,34.67909],[-90.5701,34.69343],[-90.55623,34.69358],[-90.55569,34.69331],[-90.54569,34.6884],[-90.54151,34.68309],[-90.54034,34.68007],[-90.53997,34.67684],[-90.54373,34.67203],[-90.55264,34.65971],[-90.55396,34.65502],[-90.5551,34.64624],[-90.55413,34.64087],[-90.55176,34.63648],[-90.54761,34.63166],[-90.54161,34.62861],[-90.53211,34.62733],[-90.52448,34.6285],[-90.51717,34.63093],[-90.5081,34.63668],[-90.50341,34.64071],[-90.49989,34.64498],[-90.49363,34.64909],[-90.4815,34.65802],[-90.46882,34.67003],[-90.46604,34.67431],[-90.46368,34.68146],[-90.46282,34.68407],[-90.46368,34.69264],[-90.46667,34.7],[-90.46683,34.70017],[-90.46885,34.7022],[-90.47417,34.70528],[-90.48333,34.70417],[-90.51667,34.69555],[-90.53244,34.69624],[-90.5425,34.7],[-90.55322,34.70603],[-90.55545,34.70776],[-90.55944,34.71083],[-90.57194,34.71278],[-90.56861,34.72139],[-90.56817,34.72738],[-90.56812,34.7281],[-90.56778,34.73333],[-90.56361,34.73778],[-90.55833,34.73917],[-90.55,34.73972],[-90.54556,34.73889],[-90.53944,34.75528],[-90.54263,34.7644],[-90.54522,34.77063],[-90.54778,34.78333],[-90.54417,34.79167],[-90.54083,34.79583],[-90.53349,34.79991],[-90.5264,34.80167],[-90.52111,34.80194],[-90.51682,34.80079],[-90.51407,34.80005],[-90.51111,34.79829],[-90.51139,34.79],[-90.50305,34.78333],[-90.49278,34.7725],[-90.49245,34.76454],[-90.49439,34.75743],[-90.49931,34.75471],[-90.50672,34.74978],[-90.51277,34.7443],[-90.52417,34.73139],[-90.50833,34.72361],[-90.5,34.72167],[-90.49167,34.72139],[-90.475,34.72389],[-90.465,34.72731],[-90.45538,34.73264],[-90.44842,34.73912],[-90.44825,34.74012],[-90.44808,34.74107],[-90.44905,34.74746],[-90.45267,34.75567],[-90.45786,34.76262],[-90.47041,34.78088],[-90.47477,34.78896],[-90.47645,34.79359],[-90.47617,34.80048],[-90.47466,34.80421],[-90.46937,34.8126],[-90.46338,34.81701],[-90.45538,34.82079],[-90.4616,34.83172],[-90.47488,34.85036],[-90.48195,34.8578],[-90.48437,34.86358],[-90.48504,34.86925],[-90.48435,34.87492],[-90.48126,34.88107],[-90.47604,34.88584],[-90.46706,34.89041],[-90.46227,34.89174],[-90.45395,34.89093],[-90.44686,34.88854],[-90.44006,34.88545],[-90.43656,34.88273],[-90.4301,34.87121],[-90.42937,34.86661],[-90.43558,34.85625],[-90.44969,34.83992],[-90.43873,34.82525],[-90.43017,34.82622],[-90.41753,34.82581],[-90.41189,34.82641],[-90.40797,34.82683],[-90.40795,34.82683],[-90.39976,34.8277],[-90.38939,34.83067],[-90.36226,34.84276],[-90.33845,34.85852],[-90.32856,34.84973],[-90.3192,34.84485],[-90.31131,34.84422],[-90.30738,34.8462],[-90.30394,34.85052],[-90.30267,34.85437],[-90.30329,34.85856],[-90.30478,34.86041],[-90.30578,34.86167],[-90.31489,34.86395],[-90.31774,34.87106],[-90.30448,34.87779],[-90.28971,34.88332],[-90.27687,34.88523],[-90.25786,34.89339],[-90.24907,34.90014],[-90.24321,34.9091],[-90.24133,34.91903],[-90.24202,34.93152],[-90.24376,34.94527],[-90.24593,34.94872],[-90.24823,34.95018],[-90.25277,34.9516],[-90.27071,34.95876],[-90.27517,34.96187],[-90.29299,34.9743],[-90.29606,34.97647],[-90.30132,34.98196],[-90.30734,34.99193],[-90.30836,34.99569],[-90.30265,34.99568],[-90.13766,34.99514],[-90.13745,34.99514],[-90.12761,34.99511],[-90.12735,34.99511],[-90.12695,34.99511],[-90.09634,34.99501],[-90.06078,34.9949],[-90.04304,34.99484],[-90.03133,34.9948],[-90.03131,34.9948],[-90.02507,34.99478],[-90.02502,34.99478],[-90.00815,34.99473],[-90.00814,34.99473],[-90.00254,34.99471],[-90.00226,34.99471],[-89.98991,34.99467],[-89.9899,34.99467],[-89.9722,34.99461],[-89.9559,34.99456],[-89.93676,34.9945],[-89.93675,34.9945],[-89.91904,34.99444],[-89.91888,34.99444],[-89.90146,34.99438],[-89.8934,34.99436],[-89.88336,34.99426],[-89.87831,34.99425],[-89.87134,34.99424],[-89.8618,34.99422],[-89.84849,34.99419],[-89.84838,34.99419],[-89.83778,34.99421],[-89.83076,34.99423],[-89.83069,34.99423],[-89.8156,34.99425],[-89.81313,34.99426],[-89.79536,34.99429],[-89.79519,34.99429],[-89.75961,34.99489],[-89.74195,34.99519],[-89.74178,34.99519],[-89.72432,34.99521],[-89.72418,34.97103],[-89.72422,34.96272],[-89.72445,34.94988],[-89.72402,34.92763],[-89.7239,34.8862],[-89.72386,34.87885],[-89.72385,34.87829],[-89.72394,34.83105],[-89.72387,34.81932],[-89.72344,34.77231],[-89.72328,34.73492],[-89.72307,34.72258],[-89.72299,34.71317],[-89.72233,34.6855],[-89.66918,34.6856],[-89.66923,34.6402],[-89.669,34.6128],[-89.66845,34.55437],[-89.72134,34.55427],[-89.72094,34.45093],[-89.72101,34.44858],[-89.72114,34.44461],[-89.72221,34.42227],[-89.72209,34.42174],[-89.72225,34.41612],[-89.72192,34.41451],[-89.72126,34.39397],[-89.72143,34.38284],[-89.72134,34.37916],[-89.72127,34.36496],[-89.72101,34.34918],[-89.72081,34.34232],[-89.72117,34.33812],[-89.71938,34.33804],[-89.72023,34.26404],[-89.72028,34.2591],[-89.72105,34.19255],[-89.66907,34.19201],[-89.64134,34.19172],[-89.63669,34.19165],[-89.621,34.19132],[-89.61582,34.19127],[-89.59926,34.19122],[-89.54071,34.19096],[-89.53997,34.19106],[-89.53701,34.19107],[-89.52687,34.191],[-89.50944,34.19096],[-89.50975,34.16208],[-89.51015,34.12511],[-89.50966,34.12166],[-89.50974,34.0932],[-89.50948,34.09114],[-89.5093,34.07091],[-89.50783,34.07089],[-89.5078,34.0672],[-89.5076,34.04154],[-89.50744,33.9731],[-89.50741,33.94324],[-89.50738,33.92291],[-89.50735,33.86747],[-89.50734,33.85642],[-89.50731,33.8382],[-89.50726,33.76246],[-89.50715,33.72216],[-89.50713,33.72182],[-89.50693,33.71398],[-89.50705,33.71133],[-89.50687,33.6776],[-89.50673,33.65599],[-89.50668,33.64885],[-89.50661,33.6385],[-89.50653,33.62668],[-89.50644,33.59762],[-89.50662,33.59483],[-89.50662,33.57629],[-89.50641,33.55453],[-89.50616,33.54574],[-89.50647,33.54272],[-89.5064,33.51847],[-89.50647,33.49194],[-89.5065,33.45981],[-89.50007,33.45982],[-89.49784,33.4601],[-89.44691,33.46005],[-89.43232,33.46004],[-89.4177,33.46011],[-89.38109,33.46031],[-89.38131,33.45677],[-89.38332,33.45539],[-89.38552,33.45708],[-89.38719,33.45649],[-89.38659,33.4546],[-89.38806,33.45399],[-89.39025,33.45459],[-89.39074,33.45338],[-89.39281,33.45365],[-89.3939,33.45535],[-89.39441,33.45379],[-89.39367,33.45265],[-89.39566,33.45292],[-89.3953,33.45451],[-89.39779,33.4544],[-89.39726,33.45327],[-89.39983,33.45334],[-89.40227,33.45277],[-89.40117,33.45185],[-89.40223,33.45032],[-89.4042,33.4515],[-89.40527,33.45079],[-89.40634,33.45146],[-89.40671,33.45036],[-89.40562,33.44902],[-89.40812,33.44743],[-89.40989,33.44869],[-89.40993,33.44659],[-89.4113,33.44441],[-89.40979,33.44247],[-89.4109,33.44136],[-89.40937,33.44012],[-89.41116,33.43949],[-89.41134,33.43631],[-89.41294,33.43455],[-89.4127,33.43379],[-89.4142,33.43433],[-89.41772,33.4325],[-89.42011,33.43366],[-89.42155,33.43354],[-89.42137,33.43257],[-89.41885,33.43086],[-89.4222,33.4295],[-89.42224,33.43085],[-89.42435,33.43156],[-89.42569,33.43351],[-89.42694,33.43239],[-89.42819,33.43268],[-89.4273,33.43371],[-89.42859,33.43484],[-89.42785,33.43558],[-89.4288,33.43583],[-89.4294,33.4345],[-89.43063,33.43476],[-89.4301,33.43596],[-89.43155,33.43609],[-89.43273,33.43508],[-89.43307,33.43628],[-89.43498,33.4373],[-89.43607,33.4361],[-89.43737,33.43613],[-89.43884,33.43808],[-89.44229,33.43899],[-89.44254,33.43737],[-89.44381,33.43598],[-89.44537,33.43611],[-89.44607,33.43505],[-89.44703,33.43566],[-89.44557,33.43784],[-89.44633,33.43984],[-89.44718,33.43976],[-89.44938,33.43717],[-89.45405,33.4332],[-89.4539,33.34377],[-89.45381,33.28594],[-89.52351,33.28588],[-89.54542,33.28584],[-89.56042,33.28581],[-89.62099,33.2857],[-89.62507,33.28551],[-89.64528,33.28551],[-89.70151,33.28536],[-89.70122,33.28411],[-89.70183,33.28286],[-89.69989,33.28183],[-89.70242,33.28042],[-89.70206,33.27828],[-89.70314,33.2788],[-89.70382,33.27772],[-89.70288,33.27645],[-89.70604,33.27347],[-89.7056,33.27131],[-89.70725,33.27141],[-89.70618,33.27003],[-89.70714,33.26926],[-89.70961,33.26937],[-89.71087,33.26773],[-89.71248,33.26797],[-89.71278,33.26721],[-89.70957,33.26668],[-89.70964,33.26484],[-89.7116,33.26491],[-89.70981,33.26311],[-89.71103,33.26247],[-89.71269,33.25925],[-89.71449,33.25812],[-89.71582,33.25831],[-89.71524,33.25939],[-89.71664,33.25879],[-89.71752,33.2604],[-89.71793,33.25963],[-89.71972,33.25935],[-89.72118,33.26014],[-89.7218,33.25904],[-89.72298,33.25911],[-89.72158,33.2577],[-89.72309,33.25717],[-89.72286,33.25531],[-89.72467,33.25353],[-89.72742,33.25259],[-89.72784,33.25069],[-89.72877,33.24964],[-89.73009,33.24465],[-89.72955,33.24383],[-89.73145,33.24216],[-89.73419,33.24037],[-89.73425,33.23815],[-89.73909,33.23794],[-89.7417,33.23389],[-89.74239,33.23017],[-89.74337,33.22922],[-89.74449,33.22938],[-89.74527,33.22819],[-89.74427,33.22453],[-89.7449,33.22222],[-89.74355,33.22021],[-89.74407,33.21829],[-89.74527,33.21838],[-89.74836,33.21693],[-89.74771,33.21452],[-89.74944,33.21448],[-89.75004,33.2125],[-89.74857,33.21155],[-89.75074,33.21012],[-89.75039,33.20772],[-89.7524,33.20714],[-89.75036,33.20677],[-89.75043,33.20546],[-89.75319,33.20274],[-89.75477,33.20049],[-89.75499,33.19874],[-89.75706,33.19744],[-89.75857,33.19507],[-89.76029,33.19611],[-89.76087,33.19806],[-89.76286,33.19602],[-89.7654,33.19727],[-89.76575,33.19557],[-89.76823,33.19506],[-89.76988,33.19665],[-89.77107,33.19419],[-89.77241,33.19357],[-89.77281,33.19446],[-89.77669,33.1938],[-89.77731,33.19336],[-89.77873,33.19149],[-89.77725,33.19014],[-89.77707,33.18776],[-89.77577,33.18804],[-89.7752,33.18627],[-89.77632,33.18544],[-89.77496,33.18433],[-89.77827,33.18269],[-89.77893,33.18174],[-89.77751,33.17987],[-89.7771,33.17798],[-89.77428,33.17687],[-89.77415,33.17612],[-89.77575,33.17398],[-89.77951,33.17145],[-89.78255,33.16589],[-89.78267,33.1644],[-89.78362,33.16206],[-89.78561,33.16226],[-89.78748,33.1616],[-89.78931,33.15866],[-89.79022,33.15803],[-89.7906,33.15942],[-89.79393,33.15947],[-89.79412,33.15813],[-89.79301,33.15646],[-89.79425,33.15704],[-89.79577,33.15676],[-89.79495,33.15534],[-89.79409,33.15477],[-89.79506,33.15279],[-89.79373,33.15017],[-89.79514,33.14887],[-89.79304,33.14766],[-89.79439,33.14534],[-89.79232,33.14528],[-89.79302,33.14226],[-89.79474,33.14155],[-89.79383,33.14022],[-89.79203,33.14104],[-89.79154,33.14001],[-89.79366,33.13964],[-89.7959,33.13814],[-89.7974,33.13817],[-89.79698,33.1366],[-89.79935,33.13608],[-89.79875,33.13538],[-89.79627,33.13547],[-89.79506,33.13487],[-89.79604,33.13173],[-89.79496,33.13176],[-89.79383,33.13072],[-89.79472,33.12978],[-89.79678,33.12626],[-89.79604,33.12438],[-89.79784,33.12234],[-89.79914,33.12311],[-89.79871,33.12183],[-89.7999,33.12034],[-89.80067,33.12155],[-89.80157,33.12094],[-89.80096,33.11969],[-89.80239,33.11959],[-89.80279,33.11821],[-89.80434,33.11828],[-89.80496,33.1164],[-89.80637,33.11715],[-89.8084,33.1168],[-89.80604,33.11291],[-89.8096,33.11388],[-89.811,33.1138],[-89.81181,33.11267],[-89.81289,33.11482],[-89.8105,33.11485],[-89.81058,33.11548],[-89.8138,33.11555],[-89.81584,33.11246],[-89.81659,33.11236],[-89.81767,33.11472],[-89.82177,33.11395],[-89.82331,33.11265],[-89.82239,33.11182],[-89.82287,33.11032],[-89.82479,33.10979],[-89.82337,33.10903],[-89.82516,33.10845],[-89.82566,33.10755],[-89.82497,33.10559],[-89.82391,33.10522],[-89.82389,33.10402],[-89.8215,33.10183],[-89.82305,33.10073],[-89.82132,33.10078],[-89.81933,33.10011],[-89.81896,33.0992],[-89.81973,33.09766],[-89.82146,33.09761],[-89.82208,33.09638],[-89.8244,33.0948],[-89.82355,33.09388],[-89.82435,33.09215],[-89.82359,33.09156],[-89.82707,33.089],[-89.82731,33.08793],[-89.82603,33.08626],[-89.82477,33.08618],[-89.82562,33.08529],[-89.82731,33.08548],[-89.82781,33.0837],[-89.82634,33.08283],[-89.82712,33.0816],[-89.82866,33.08191],[-89.82706,33.08089],[-89.82459,33.08106],[-89.82375,33.08031],[-89.82554,33.0787],[-89.82392,33.07776],[-89.82611,33.07641],[-89.82489,33.075],[-89.82254,33.07611],[-89.82134,33.0757],[-89.82246,33.07417],[-89.82162,33.07338],[-89.82275,33.07248],[-89.82152,33.07173],[-89.82161,33.06994],[-89.8227,33.06602],[-89.82418,33.06414],[-89.82675,33.0652],[-89.82739,33.06356],[-89.83107,33.06331],[-89.83341,33.06237],[-89.83373,33.06134],[-89.8362,33.06098],[-89.83633,33.06014],[-89.83832,33.06032],[-89.83863,33.05872],[-89.84158,33.05834],[-89.83899,33.05609],[-89.84008,33.05158],[-89.83922,33.05152],[-89.83791,33.05306],[-89.83796,33.05051],[-89.83958,33.04938],[-89.84006,33.04795],[-89.83815,33.04674],[-89.84002,33.04617],[-89.83963,33.04466],[-89.83795,33.04492],[-89.83616,33.04181],[-89.83636,33.03998],[-89.83855,33.03826],[-89.84292,33.03592],[-89.84072,33.0352],[-89.8439,33.03239],[-89.84555,33.03169],[-89.84592,33.03029],[-89.84727,33.02935],[-89.84893,33.02953],[-89.85006,33.02774],[-89.85273,33.02558],[-89.85365,33.02367],[-89.85672,33.02124],[-89.85667,33.01977],[-89.8579,33.01879],[-89.8557,33.01813],[-89.85792,33.01611],[-89.85827,33.01475],[-89.85947,33.01411],[-89.861,33.01478],[-89.86282,33.01437],[-89.86168,33.01323],[-89.86207,33.01186],[-89.86533,33.01059],[-89.86793,33.01051],[-89.8675,33.0078],[-89.87036,33.00524],[-89.87038,33.00404],[-89.87272,33.00259],[-89.87356,33.00101],[-89.8746,33.00216],[-89.87551,33.0019],[-89.87456,33.00091],[-89.8767,33.00083],[-89.88049,32.99892],[-89.88153,32.99895],[-89.88122,32.99646],[-89.87945,32.99546],[-89.8777,32.99299],[-89.87927,32.99039],[-89.88071,32.98966],[-89.88134,32.9885],[-89.88332,32.98924],[-89.88406,32.98866],[-89.88344,32.98754],[-89.88494,32.98455],[-89.88673,32.9844],[-89.88497,32.98265],[-89.88645,32.98262],[-89.88827,32.98059],[-89.88546,32.97759],[-89.88527,32.97496],[-89.88345,32.97524],[-89.88368,32.97396],[-89.88505,32.974],[-89.88441,32.97313],[-89.88525,32.97161],[-89.88826,32.9724],[-89.8899,32.97062],[-89.88877,32.96928],[-89.89167,32.96789],[-89.8922,32.96445],[-89.89421,32.96483],[-89.89309,32.96204],[-89.89323,32.96076],[-89.89066,32.96116],[-89.88821,32.96004],[-89.88822,32.95897],[-89.89127,32.95651],[-89.89223,32.95428],[-89.89292,32.95285],[-89.89507,32.95069],[-89.89585,32.94866],[-89.8938,32.94791],[-89.89555,32.94636],[-89.89364,32.94694],[-89.89297,32.9459],[-89.89906,32.94387],[-89.89858,32.94175],[-89.89752,32.9405],[-89.89942,32.94006],[-89.89827,32.9373],[-89.89654,32.93751],[-89.89552,32.93601],[-89.89846,32.93533],[-89.89728,32.93474],[-89.89731,32.93325],[-89.89636,32.9326],[-89.89845,32.93279],[-89.89852,32.93032],[-89.9025,32.92794],[-89.90457,32.92788],[-89.90644,32.92573],[-89.90783,32.92635],[-89.91242,32.926],[-89.91322,32.92658],[-89.9142,32.92506],[-89.91611,32.92486],[-89.91455,32.92299],[-89.91512,32.92232],[-89.9182,32.92291],[-89.91821,32.92019],[-89.91686,32.9178],[-89.91533,32.91796],[-89.91505,32.91678],[-89.91655,32.91619],[-89.91827,32.91354],[-89.91981,32.91324],[-89.91942,32.9122],[-89.91772,32.91263],[-89.91784,32.91156],[-89.92052,32.90979],[-89.92238,32.91],[-89.92243,32.91169],[-89.9258,32.91029],[-89.92553,32.90829],[-89.92844,32.90943],[-89.93074,32.9078],[-89.93279,32.90775],[-89.93796,32.90427],[-89.93653,32.90139],[-89.93415,32.90033],[-89.93341,32.89904],[-89.93335,32.8967],[-89.93397,32.89605],[-89.93632,32.89498],[-89.93692,32.89706],[-89.93822,32.89732],[-89.94192,32.89557],[-89.94061,32.89467],[-89.94074,32.89346],[-89.94474,32.89196],[-89.94986,32.89095],[-89.95176,32.88981],[-89.95747,32.8917],[-89.95814,32.89049],[-89.95912,32.88905],[-89.96127,32.88856],[-89.95978,32.88657],[-89.9629,32.88214],[-89.96557,32.88142],[-89.96588,32.87957],[-89.96613,32.8785],[-89.96939,32.87489],[-89.97276,32.87229],[-89.97294,32.87106],[-89.97231,32.86906],[-89.97379,32.8669],[-89.97726,32.86669],[-89.97882,32.86529],[-89.98123,32.86621],[-89.9833,32.86453],[-89.98367,32.86382],[-89.98172,32.8635],[-89.98141,32.86189],[-89.98256,32.86004],[-89.98467,32.85908],[-89.98524,32.85637],[-89.98298,32.85665],[-89.9849,32.85413],[-89.98627,32.85421],[-89.98587,32.85297],[-89.98719,32.85243],[-89.98827,32.851],[-89.98844,32.84961],[-89.98781,32.84743],[-89.98951,32.84667],[-89.99098,32.8479],[-89.99256,32.84753],[-89.99299,32.84626],[-89.99171,32.84525],[-89.98993,32.84523],[-89.98983,32.8445],[-89.99181,32.84261],[-89.99315,32.84046],[-89.99361,32.83863],[-89.99486,32.83714],[-89.99543,32.834],[-89.99764,32.83215],[-90.00124,32.83045],[-90.00323,32.83015],[-90.0065,32.82897],[-90.00736,32.83164],[-90.00902,32.82829],[-90.01034,32.82794],[-90.01172,32.83096],[-90.01353,32.83152],[-90.01489,32.82999],[-90.01566,32.82823],[-90.01753,32.82698],[-90.01746,32.82438],[-90.01841,32.82299],[-90.01871,32.82149],[-90.01811,32.81982],[-90.0191,32.81802],[-90.01848,32.81739],[-90.01855,32.81512],[-90.02007,32.81316],[-90.01954,32.81234],[-90.01792,32.8127],[-90.01911,32.80882],[-90.02069,32.80709],[-90.02067,32.80524],[-90.01855,32.80452],[-90.01716,32.80324],[-90.01891,32.80114],[-90.0194,32.79964],[-90.02121,32.79889],[-90.02053,32.79554],[-90.02357,32.79559],[-90.02366,32.79388],[-90.0225,32.79328],[-90.02075,32.79343],[-90.02147,32.79179],[-90.02179,32.78946],[-90.0228,32.78745],[-90.02267,32.78489],[-90.0245,32.78489],[-90.02502,32.78388],[-90.02415,32.78235],[-90.02449,32.78139],[-90.02649,32.78088],[-90.0262,32.77919],[-90.02521,32.77815],[-90.02584,32.77698],[-90.02775,32.77568],[-90.03051,32.77581],[-90.03197,32.77502],[-90.03165,32.774],[-90.03002,32.77361],[-90.03027,32.77197],[-90.02979,32.77053],[-90.03181,32.77047],[-90.03087,32.76937],[-90.03148,32.7681],[-90.03303,32.7679],[-90.03287,32.76712],[-90.03063,32.76637],[-90.03147,32.76447],[-90.03309,32.7632],[-90.03196,32.76256],[-90.03332,32.76133],[-90.03247,32.75993],[-90.0334,32.75925],[-90.03593,32.75879],[-90.03885,32.75919],[-90.03951,32.75869],[-90.03837,32.75777],[-90.03923,32.75544],[-90.03801,32.75419],[-90.04004,32.75228],[-90.03977,32.75061],[-90.04035,32.74901],[-90.03948,32.74764],[-90.04107,32.74636],[-90.04244,32.74414],[-90.04516,32.74421],[-90.04662,32.74332],[-90.04691,32.742],[-90.04609,32.74087],[-90.0467,32.74002],[-90.04953,32.73847],[-90.04847,32.73767],[-90.04913,32.73567],[-90.05259,32.73415],[-90.0546,32.73575],[-90.05737,32.73559],[-90.05674,32.73401],[-90.05755,32.73122],[-90.05981,32.73161],[-90.06122,32.73309],[-90.06178,32.73248],[-90.06139,32.73077],[-90.06353,32.73107],[-90.0652,32.72932],[-90.06895,32.73059],[-90.07026,32.73052],[-90.07103,32.73165],[-90.07191,32.73046],[-90.07308,32.73098],[-90.07408,32.72966],[-90.07605,32.72953],[-90.0765,32.72803],[-90.07592,32.72728],[-90.07393,32.72779],[-90.075,32.72533],[-90.07777,32.72614],[-90.07829,32.72434],[-90.08045,32.7216],[-90.0795,32.71963],[-90.08111,32.71842],[-90.08267,32.71991],[-90.08443,32.71921],[-90.08478,32.717],[-90.08757,32.71699],[-90.08979,32.71489],[-90.08747,32.7137],[-90.08741,32.71287],[-90.09057,32.7111],[-90.08983,32.70941],[-90.0905,32.70877],[-90.09362,32.70763],[-90.09572,32.70669],[-90.09595,32.70579],[-90.09398,32.7048],[-90.09962,32.70027],[-90.10124,32.70025],[-90.10264,32.70194],[-90.10526,32.70405],[-90.10565,32.70203],[-90.10728,32.70065],[-90.10989,32.70082],[-90.1107,32.70191],[-90.10954,32.70323],[-90.11076,32.7042],[-90.11317,32.70355],[-90.11539,32.70451],[-90.11602,32.70339],[-90.11562,32.70156],[-90.12019,32.70221],[-90.12215,32.70223],[-90.1216,32.6997],[-90.12288,32.70015],[-90.12628,32.69988],[-90.12759,32.69939],[-90.12963,32.69971],[-90.13116,32.70234],[-90.13195,32.7022],[-90.13329,32.70052],[-90.13597,32.69872],[-90.13733,32.6988],[-90.13603,32.69725],[-90.13629,32.6964],[-90.138,32.69625],[-90.13674,32.69528],[-90.13716,32.69314],[-90.13592,32.69311],[-90.13531,32.69182],[-90.13598,32.691],[-90.13798,32.69079],[-90.13791,32.68915],[-90.1357,32.68863],[-90.13595,32.68771],[-90.13872,32.6873],[-90.14148,32.68511],[-90.14254,32.68601],[-90.14363,32.68962],[-90.14557,32.69173],[-90.14635,32.69184],[-90.14856,32.68983],[-90.14944,32.69009],[-90.14844,32.69124],[-90.1502,32.691],[-90.15137,32.68977],[-90.15172,32.69147],[-90.15399,32.69162],[-90.15475,32.69121],[-90.1549,32.68938],[-90.15643,32.68723],[-90.15882,32.68729],[-90.16177,32.6861],[-90.16363,32.68404],[-90.16533,32.6844],[-90.16863,32.68269],[-90.16824,32.68152],[-90.1704,32.68178],[-90.17378,32.67995],[-90.17571,32.68036],[-90.17645,32.67938],[-90.17838,32.67879],[-90.18077,32.67993],[-90.18153,32.67768],[-90.18281,32.67819],[-90.18338,32.67735],[-90.18159,32.67646],[-90.18478,32.67351],[-90.18848,32.67158],[-90.19012,32.67155],[-90.19212,32.67233],[-90.19331,32.67167],[-90.19222,32.66874],[-90.1935,32.66699],[-90.1927,32.66582],[-90.19472,32.66516],[-90.19613,32.66583],[-90.19773,32.66385],[-90.20067,32.66486],[-90.20256,32.66496],[-90.20392,32.66599],[-90.2069,32.66628],[-90.20887,32.66482],[-90.20894,32.66388],[-90.21045,32.66363],[-90.21331,32.66216],[-90.21473,32.66193],[-90.21634,32.66304],[-90.21817,32.66306],[-90.2197,32.66197],[-90.22165,32.65981],[-90.22289,32.6599],[-90.22402,32.661],[-90.22423,32.66423],[-90.22585,32.6658],[-90.22613,32.66806],[-90.2275,32.66804],[-90.22814,32.66686],[-90.22767,32.66502],[-90.22976,32.66528],[-90.23008,32.66698],[-90.23097,32.66756],[-90.23214,32.66683],[-90.23402,32.66674],[-90.23516,32.66575],[-90.23936,32.66532],[-90.23789,32.66382],[-90.23982,32.6632],[-90.24156,32.66451],[-90.24378,32.66242],[-90.24359,32.66108],[-90.24568,32.66142],[-90.24536,32.66018],[-90.24398,32.65989],[-90.24452,32.65866],[-90.24673,32.6601],[-90.25105,32.66182],[-90.25447,32.66093],[-90.25544,32.66129],[-90.25569,32.66263],[-90.25712,32.66286],[-90.25934,32.6605],[-90.26238,32.66044],[-90.26431,32.65811],[-90.26431,32.6568],[-90.26545,32.6562],[-90.26609,32.65692],[-90.26811,32.65697],[-90.26828,32.65826],[-90.26973,32.65713],[-90.27125,32.65787],[-90.27142,32.66019],[-90.27257,32.66038],[-90.27245,32.65874],[-90.27443,32.65754],[-90.27483,32.66022],[-90.27781,32.66043],[-90.27847,32.65984],[-90.27748,32.65812],[-90.27934,32.65813],[-90.27986,32.65731],[-90.27935,32.65582],[-90.28022,32.65481],[-90.2835,32.65559],[-90.28405,32.65458],[-90.28312,32.65325],[-90.28324,32.65078],[-90.28432,32.64714],[-90.2832,32.64599],[-90.28475,32.64511],[-90.28632,32.64308],[-90.28811,32.64184],[-90.28949,32.64297],[-90.28887,32.64444],[-90.28948,32.64485],[-90.2916,32.64402],[-90.29389,32.64389],[-90.29542,32.64542],[-90.29515,32.64666],[-90.29773,32.64711],[-90.29893,32.64548],[-90.30048,32.64536],[-90.30105,32.64651],[-90.30216,32.64647],[-90.30407,32.6451],[-90.30891,32.64156],[-90.31121,32.64069],[-90.31163,32.63945],[-90.31098,32.63862],[-90.3094,32.63848],[-90.30909,32.63741],[-90.31083,32.63626],[-90.30976,32.63381],[-90.31072,32.6335],[-90.31323,32.6343],[-90.31566,32.6314],[-90.31494,32.63023],[-90.31592,32.62835],[-90.31527,32.62675],[-90.31818,32.62382],[-90.31941,32.62378],[-90.32164,32.62278],[-90.32482,32.62232],[-90.32495,32.62135],[-90.32216,32.61977],[-90.32302,32.61789],[-90.32215,32.61618],[-90.32283,32.61559],[-90.32522,32.61542],[-90.32681,32.61471],[-90.33004,32.61414],[-90.33235,32.61325],[-90.33245,32.61206],[-90.32987,32.61152],[-90.33051,32.61075],[-90.33343,32.60984],[-90.33363,32.60854],[-90.33563,32.60663],[-90.33705,32.60588],[-90.33811,32.60546],[-90.34044,32.60622],[-90.34196,32.60531],[-90.34468,32.6061],[-90.34424,32.60842],[-90.34581,32.61018],[-90.3456,32.61279],[-90.3462,32.61355],[-90.3479,32.61289],[-90.35018,32.6131],[-90.35147,32.61123],[-90.35324,32.61141],[-90.35135,32.60821],[-90.35292,32.60471],[-90.35653,32.60211],[-90.35815,32.60213],[-90.35855,32.6035],[-90.35738,32.60442],[-90.35682,32.60587],[-90.35841,32.60652],[-90.35933,32.60447],[-90.361,32.60384],[-90.36253,32.60415],[-90.36379,32.60333],[-90.364,32.60316],[-90.36482,32.60255],[-90.36362,32.60039],[-90.36361,32.59864],[-90.36489,32.59681],[-90.36826,32.59539],[-90.36929,32.59707],[-90.36842,32.60028],[-90.36887,32.60225],[-90.37082,32.6026],[-90.37162,32.60219],[-90.37319,32.5991],[-90.37358,32.59731],[-90.37484,32.59633],[-90.37647,32.59658],[-90.38139,32.59593],[-90.38052,32.59448],[-90.3784,32.59434],[-90.37724,32.59368],[-90.37805,32.59249],[-90.38138,32.59344],[-90.38224,32.59253],[-90.38165,32.59033],[-90.38304,32.5886],[-90.38552,32.58823],[-90.38894,32.58696],[-90.38885,32.5862],[-90.38636,32.58462],[-90.38623,32.58368],[-90.38863,32.58288],[-90.39396,32.58249],[-90.39532,32.5851],[-90.39619,32.58534],[-90.39839,32.58269],[-90.39773,32.58076],[-90.39824,32.57962],[-90.40179,32.57878],[-90.40291,32.57805],[-90.40437,32.57482],[-90.40597,32.57532],[-90.40725,32.57644],[-90.40856,32.57583],[-90.41009,32.57407],[-90.41196,32.57442],[-90.41137,32.57601],[-90.40955,32.57718],[-90.40955,32.57809],[-90.41246,32.57955],[-90.4138,32.57949],[-90.41411,32.57811],[-90.415,32.57818],[-90.41514,32.57989],[-90.41776,32.57708],[-90.4186,32.57732],[-90.41934,32.58067],[-90.42156,32.58325],[-90.42624,32.58326],[-90.42778,32.58571],[-90.4294,32.58565],[-90.42999,32.58413],[-90.43185,32.58388],[-90.4332,32.58595],[-90.43544,32.58613],[-90.43627,32.58533],[-90.43834,32.58572],[-90.44025,32.58541],[-90.44139,32.58447],[-90.44406,32.58481],[-90.44606,32.58333],[-90.44411,32.58201],[-90.44405,32.58116],[-90.44636,32.58072],[-90.44808,32.57852],[-90.44944,32.57839],[-90.45054,32.57941],[-90.4514,32.57863],[-90.45149,32.57782],[-90.44983,32.57543],[-90.45004,32.57378],[-90.45189,32.5733],[-90.45189,32.57026],[-90.45355,32.56712],[-90.45498,32.56605],[-90.45115,32.56371],[-90.45151,32.5629],[-90.45373,32.56233],[-90.45345,32.56055],[-90.45396,32.55833],[-90.45578,32.55712],[-90.45785,32.55691],[-90.45917,32.55818],[-90.45774,32.55983],[-90.45898,32.5603],[-90.46251,32.55904],[-90.46468,32.55356],[-90.46466,32.5485],[-90.46514,32.54766],[-90.46888,32.54778],[-90.47103,32.54888],[-90.47246,32.54797],[-90.47257,32.54673],[-90.47121,32.54401],[-90.47149,32.54331],[-90.47925,32.54349],[-90.48171,32.5442],[-90.48413,32.54299],[-90.48644,32.54055],[-90.48692,32.53784],[-90.4924,32.53386],[-90.49125,32.53188],[-90.49235,32.53062],[-90.49467,32.52984],[-90.49872,32.5274],[-90.49722,32.52549],[-90.499,32.52395],[-90.50162,32.5254],[-90.5025,32.52509],[-90.50269,32.52305],[-90.5063,32.52233],[-90.50647,32.52401],[-90.50786,32.5239],[-90.51032,32.52239],[-90.51167,32.52315],[-90.5133,32.52536],[-90.51529,32.52529],[-90.51584,32.52281],[-90.51806,32.5225],[-90.51897,32.52149],[-90.52235,32.52021],[-90.52373,32.51883],[-90.52153,32.51754],[-90.51997,32.51771],[-90.51978,32.51613],[-90.52117,32.5151],[-90.52304,32.51531],[-90.52442,32.51694],[-90.52527,32.51658],[-90.52549,32.51452],[-90.52252,32.51371],[-90.52178,32.51078],[-90.52055,32.50914],[-90.52245,32.50748],[-90.52098,32.50503],[-90.52222,32.50311],[-90.52303,32.50324],[-90.52489,32.50537],[-90.52993,32.50964],[-90.52979,32.51071],[-90.53202,32.51086],[-90.53486,32.50898],[-90.53646,32.50715],[-90.5404,32.50916],[-90.54119,32.50789],[-90.53966,32.50638],[-90.54225,32.50537],[-90.54376,32.50636],[-90.54357,32.50813],[-90.54536,32.50891],[-90.54656,32.51048],[-90.54894,32.51027],[-90.54985,32.50923],[-90.55382,32.50757],[-90.5539,32.53191],[-90.58792,32.53176],[-90.58802,32.54607],[-90.65423,32.54604],[-90.65459,32.57474],[-90.65553,32.58977],[-90.69025,32.58939],[-90.68995,32.61866],[-90.7201,32.61886],[-90.71685,32.61415],[-90.71633,32.61275],[-90.7164,32.61158],[-90.71992,32.60265],[-90.72204,32.59811],[-90.72273,32.59212],[-90.7232,32.59131],[-90.72596,32.58982],[-90.72992,32.58896],[-90.7317,32.58728],[-90.73173,32.58567],[-90.7308,32.58253],[-90.72973,32.58116],[-90.72586,32.57767],[-90.72558,32.57579],[-90.72626,32.56989],[-90.72704,32.56781],[-90.72834,32.56627],[-90.72985,32.56569],[-90.73346,32.5664],[-90.73952,32.57177],[-90.74256,32.57198],[-90.74814,32.57044],[-90.7501,32.57055],[-90.75365,32.57141],[-90.75607,32.57308],[-90.75845,32.57607],[-90.76048,32.57716],[-90.76278,32.57742],[-90.76524,32.57701],[-90.76658,32.5764],[-90.76808,32.57475],[-90.82288,32.57514],[-90.82489,32.57541],[-90.86057,32.57517],[-90.86138,32.44277],[-90.86245,32.44237],[-90.86611,32.44532],[-90.86865,32.45058],[-90.87087,32.45161],[-90.87288,32.45056],[-90.87401,32.44805],[-90.8751,32.44425],[-90.87703,32.44242],[-90.87931,32.44131],[-90.88147,32.44077],[-90.88442,32.44157],[-90.89142,32.44704],[-90.89474,32.4486],[-90.89901,32.44895],[-90.90231,32.44868],[-90.90544,32.44776],[-90.91029,32.44586],[-90.91571,32.44414],[-90.91879,32.44414],[-90.92108,32.44541],[-90.92288,32.44798],[-90.92648,32.45058],[-90.93217,32.45197],[-90.93539,32.45241],[-90.93983,32.45207],[-90.94466,32.45011],[-90.94731,32.44831],[-90.95124,32.44439],[-90.95321,32.44106],[-90.95314,32.4402],[-90.95463,32.43758],[-90.95793,32.42803],[-90.95895,32.42094],[-90.96338,32.41119],[-90.9644,32.50014],[-90.9648,32.50366],[-90.96404,32.57561],[-91.04345,32.57627],[-91.03617,32.57956],[-91.03099,32.58335],[-91.02294,32.59185],[-91.01623,32.59695],[-91.01372,32.59842],[-91.01023,32.60193],[-91.0046,32.60978],[-91.003,32.61468],[-91.00296,32.62255],[-91.0035,32.62485],[-91.00682,32.63126],[-91.01429,32.64048],[-91.01911,32.64384],[-91.02577,32.64657],[-91.03018,32.64405],[-91.03841,32.63644],[-91.0404,32.63252],[-91.04145,32.62513],[-91.04326,32.62078],[-91.0489,32.61356],[-91.0498,32.60719],[-91.06135,32.60537],[-91.07951,32.60068],[-91.08778,32.59707],[-91.1057,32.59088],[-91.11276,32.59019],[-91.11864,32.58514],[-91.11985,32.58479],[-91.12511,32.58519],[-91.12791,32.58649],[-91.13528,32.59165],[-91.14115,32.59721],[-91.14407,32.60061],[-91.1462,32.60414],[-91.15132,32.61592],[-91.15356,32.62618],[-91.15365,32.62797],[-91.15382,32.63128],[-91.15374,32.63523],[-91.1527,32.64076],[-91.15208,32.64151],[-91.14975,32.64404],[-91.14435,32.64803],[-91.14204,32.64926],[-91.13871,32.64977],[-91.13764,32.65062],[-91.13093,32.65887],[-91.12772,32.66534],[-91.11826,32.67408],[-91.10444,32.68243],[-91.09876,32.68529],[-91.08114,32.69113],[-91.07606,32.69375],[-91.06395,32.70293],[-91.05704,32.71258],[-91.05475,32.71923],[-91.05451,32.72189],[-91.05448,32.72226],[-91.057,32.72558],[-91.06077,32.72749],[-91.07718,32.73253],[-91.09057,32.7361],[-91.11365,32.73997],[-91.12315,32.7428],[-91.13169,32.74311],[-91.15024,32.74179],[-91.15446,32.74234],[-91.15861,32.74345],[-91.16339,32.74701],[-91.16533,32.7513],[-91.16581,32.75784],[-91.16497,32.76198],[-91.15761,32.77603],[-91.15692,32.78034],[-91.15858,32.7811],[-91.1644,32.78582],[-91.16306,32.79219],[-91.16141,32.8],[-91.16152,32.805],[-91.16158,32.80832],[-91.16167,32.81247],[-91.15834,32.8223],[-91.15715,32.82382],[-91.15217,32.82667],[-91.1497,32.83122],[-91.145,32.84287],[-91.14356,32.84474],[-91.13789,32.84898],[-91.12789,32.85506],[-91.12472,32.85486],[-91.11609,32.85564],[-91.10563,32.8584],[-91.08668,32.87339],[-91.0706,32.88866],[-91.06819,32.89193],[-91.06445,32.90106],[-91.06381,32.90371],[-91.0638,32.90393],[-91.06368,32.90636],[-91.06485,32.91652],[-91.06462,32.91797],[-91.06387,32.92269],[-91.06421,32.92405],[-91.0648,32.92646],[-91.07055,32.93604],[-91.07207,32.93783],[-91.08043,32.94321],[-91.08191,32.94477],[-91.08308,32.94791],[-91.08189,32.94944],[-91.08051,32.95012],[-91.0789,32.95182],[-91.08035,32.96279],[-91.0868,32.97627],[-91.09089,32.98117],[-91.09426,32.98437],[-91.09693,32.98641],[-91.10658,32.98894],[-91.11176,32.98836],[-91.12511,32.98467],[-91.13441,32.98053],[-91.13552,32.97966],[-91.13858,32.97135],[-91.13752,32.96955],[-91.13305,32.96654],[-91.13095,32.96381],[-91.13072,32.96226],[-91.13124,32.96093],[-91.13333,32.95906],[-91.13663,32.95735],[-91.13717,32.95652],[-91.13786,32.95276],[-91.13551,32.94616],[-91.13129,32.93005],[-91.1313,32.92692],[-91.13211,32.92312],[-91.13404,32.91768],[-91.14508,32.90549],[-91.15169,32.90194],[-91.15997,32.89988],[-91.17023,32.89939],[-91.1754,32.9],[-91.18163,32.90145],[-91.19678,32.90678],[-91.19977,32.90851],[-91.20826,32.91535],[-91.2116,32.91962],[-91.21284,32.9221],[-91.21397,32.9272],[-91.21403,32.93032],[-91.21282,32.93608],[-91.2107,32.93984],[-91.20744,32.94439],[-91.19941,32.95231],[-91.20119,32.95498]]]}},{"type":"Feature","properties":{"name":"SMART","boundary_type":"counties","source":"Census TIGER county","fidelity":"exact","updated":"2026-09","units":"Claiborne County; Jefferson County; Adams County; Franklin County; Amite County; Wilkinson County; Pike County; Walthall County; Lincoln County; Lawrence County; Jefferson Davis County; Copiah County","note":"County list read directly off MDOT's official 'Regional Coordination Transportation Groups' map (mdot.ms.gov/connectms/images/regional-map.pdf), which color-codes every MS county by its ConnectMS regional network; these 12 counties are shaded as the SMART (yellow) region in southwest MS. MDOT's ConnectMS page and the Mississippi Public Transit Association both cite '13 counties,' so one boundary county may be missing (the yellow/Trans-Con line near Copiah/Simpson was hard to place precisely); no independent SMART operator website was found to confirm the exact list.","confidence":0.65},"geometry":{"type":"Polygon","coordinates":[[[-90.58352,30.9997],[-90.58445,30.9997],[-90.58737,30.9996],[-90.58868,30.99965],[-90.64872,30.99949],[-90.65119,30.99951],[-90.66767,30.99945],[-90.73447,30.99921],[-90.73455,30.99922],[-90.75877,30.99958],[-90.76933,30.99937],[-90.77598,30.99949],[-90.77986,30.99946],[-90.78369,30.99945],[-90.78374,30.99945],[-90.82583,30.99936],[-90.82603,30.99936],[-90.83494,30.9994],[-90.85255,30.99946],[-90.89473,30.99963],[-90.97024,30.99932],[-90.9803,30.99928],[-91.04217,30.99903],[-91.06021,30.99895],[-91.06827,30.99892],[-91.08081,30.99891],[-91.10811,30.99886],[-91.10829,30.99888],[-91.17614,30.99914],[-91.17621,30.99914],[-91.22407,30.99918],[-91.22484,30.99918],[-91.23153,30.99927],[-91.24649,30.99947],[-91.34782,30.99919],[-91.34815,30.99919],[-91.3749,30.99912],[-91.39652,30.99906],[-91.41463,30.99901],[-91.42362,30.99898],[-91.42575,30.99901],[-91.48731,30.99901],[-91.49739,30.99901],[-91.50012,30.99869],[-91.53866,30.99939],[-91.53873,30.99939],[-91.62512,30.99917],[-91.63694,30.99942],[-91.62512,31.00537],[-91.60649,31.01122],[-91.59046,31.01727],[-91.57841,31.02403],[-91.57169,31.02978],[-91.5644,31.03897],[-91.56123,31.04622],[-91.56036,31.04951],[-91.55991,31.05412],[-91.56128,31.06091],[-91.56415,31.06683],[-91.56765,31.07019],[-91.59469,31.09144],[-91.60952,31.10156],[-91.61476,31.10436],[-91.61857,31.10733],[-91.62153,31.11026],[-91.62599,31.1169],[-91.62648,31.11913],[-91.62571,31.12876],[-91.62512,31.13188],[-91.62422,31.13373],[-91.62167,31.13687],[-91.6042,31.15454],[-91.59973,31.15959],[-91.59706,31.16349],[-91.5915,31.17312],[-91.58905,31.17859],[-91.58869,31.18103],[-91.58894,31.18896],[-91.58945,31.19114],[-91.59005,31.19369],[-91.59503,31.20197],[-91.60162,31.20857],[-91.62512,31.22607],[-91.64436,31.23441],[-91.65202,31.24269],[-91.65491,31.25017],[-91.65501,31.25182],[-91.65403,31.25575],[-91.65137,31.25953],[-91.64867,31.26224],[-91.64125,31.26692],[-91.63767,31.26768],[-91.62136,31.26781],[-91.60667,31.2659],[-91.58775,31.26256],[-91.57449,31.26129],[-91.56419,31.26163],[-91.5539,31.26305],[-91.53773,31.26737],[-91.51858,31.27528],[-91.51561,31.27821],[-91.51208,31.28418],[-91.50886,31.29164],[-91.5083,31.29583],[-91.50798,31.31294],[-91.50866,31.31513],[-91.51005,31.31682],[-91.51851,31.32333],[-91.53166,31.3318],[-91.53321,31.33322],[-91.53606,31.33835],[-91.54562,31.34376],[-91.54897,31.34726],[-91.54889,31.354],[-91.55087,31.36057],[-91.551,31.36365],[-91.54991,31.37632],[-91.54661,31.3812],[-91.54621,31.38248],[-91.55243,31.38566],[-91.55568,31.38641],[-91.56052,31.38456],[-91.56255,31.38322],[-91.56895,31.37763],[-91.57123,31.38466],[-91.57393,31.39089],[-91.57833,31.39907],[-91.57825,31.40386],[-91.57626,31.4105],[-91.57009,31.41949],[-91.56518,31.42345],[-91.5548,31.42857],[-91.55275,31.43069],[-91.54846,31.43267],[-91.54501,31.43303],[-91.54163,31.43171],[-91.54065,31.43076],[-91.53714,31.42416],[-91.537,31.42318],[-91.5395,31.41791],[-91.53946,31.41402],[-91.53234,31.39027],[-91.52695,31.38086],[-91.52184,31.37517],[-91.51598,31.37029],[-91.50807,31.36628],[-91.50416,31.36495],[-91.47887,31.36495],[-91.47246,31.37133],[-91.4711,31.37692],[-91.47199,31.38214],[-91.47202,31.3837],[-91.47215,31.39143],[-91.47206,31.39592],[-91.47693,31.3978],[-91.48023,31.40439],[-91.49004,31.41272],[-91.50005,31.42052],[-91.50642,31.43146],[-91.51036,31.43893],[-91.51337,31.4444],[-91.51513,31.44921],[-91.517,31.46057],[-91.51815,31.48348],[-91.51714,31.49839],[-91.51516,31.50338],[-91.51492,31.51011],[-91.51676,31.51177],[-91.52058,31.51321],[-91.52286,31.51749],[-91.52292,31.51984],[-91.52254,31.52208],[-91.52144,31.52391],[-91.51804,31.52813],[-91.51581,31.53089],[-91.51396,31.53208],[-91.51122,31.53261],[-91.50672,31.53297],[-91.50012,31.53262],[-91.48962,31.53427],[-91.48392,31.53257],[-91.48132,31.53067],[-91.47972,31.53037],[-91.45524,31.53803],[-91.45043,31.53954],[-91.45002,31.53967],[-91.44392,31.54247],[-91.43762,31.54617],[-91.42642,31.55457],[-91.42286,31.55692],[-91.41987,31.55889],[-91.41985,31.5589],[-91.41491,31.56217],[-91.40791,31.56937],[-91.40777,31.56965],[-91.40661,31.57197],[-91.40541,31.57647],[-91.40431,31.58626],[-91.40391,31.58977],[-91.41301,31.59537],[-91.41711,31.59626],[-91.42272,31.59707],[-91.43072,31.59646],[-91.43632,31.59496],[-91.45168,31.5896],[-91.45752,31.58757],[-91.46632,31.58607],[-91.46715,31.58603],[-91.47942,31.58547],[-91.48522,31.58617],[-91.48862,31.58747],[-91.49412,31.59016],[-91.50278,31.59573],[-91.51301,31.60688],[-91.51482,31.60939],[-91.51657,31.61182],[-91.51723,31.61346],[-91.51792,31.61864],[-91.51666,31.62733],[-91.51546,31.63037],[-91.51234,31.63472],[-91.50731,31.63907],[-91.49928,31.64466],[-91.49766,31.64537],[-91.49448,31.64501],[-91.49275,31.64428],[-91.49003,31.641],[-91.48752,31.63706],[-91.48262,31.63156],[-91.47982,31.62897],[-91.47432,31.62536],[-91.46382,31.62036],[-91.43672,31.61266],[-91.42962,31.61136],[-91.42112,31.61156],[-91.4165,31.61313],[-91.40101,31.62036],[-91.40094,31.62052],[-91.39831,31.62626],[-91.3964,31.63758],[-91.39611,31.63927],[-91.39571,31.64417],[-91.39801,31.66267],[-91.40011,31.68816],[-91.40001,31.69786],[-91.39791,31.70936],[-91.39711,31.71136],[-91.38091,31.73246],[-91.38024,31.73324],[-91.3718,31.74295],[-91.36503,31.74818],[-91.35639,31.74911],[-91.33866,31.75001],[-91.31982,31.74999],[-91.31786,31.74979],[-91.31073,31.74907],[-91.29172,31.74526],[-91.27554,31.74552],[-91.26341,31.75447],[-91.25961,31.76129],[-91.26304,31.767],[-91.26628,31.76824],[-91.27387,31.77118],[-91.28604,31.77206],[-91.30131,31.76675],[-91.32597,31.76151],[-91.35521,31.75806],[-91.36553,31.76163],[-91.36371,31.78036],[-91.35951,31.79936],[-91.34628,31.84106],[-91.34571,31.84286],[-91.34301,31.84686],[-91.33841,31.85126],[-91.32791,31.85476],[-91.30751,31.85646],[-91.29471,31.86046],[-91.29341,31.86016],[-91.28931,31.84686],[-91.29013,31.83366],[-91.28941,31.82866],[-91.28781,31.82416],[-91.28491,31.81836],[-91.28221,31.81476],[-91.28021,31.81316],[-91.27671,31.81136],[-91.26921,31.80916],[-91.26201,31.80936],[-91.25561,31.81266],[-91.25011,31.81776],[-91.24737,31.82232],[-91.24505,31.83145],[-91.24562,31.83317],[-91.26114,31.84612],[-91.26661,31.85116],[-91.26811,31.85306],[-91.26881,31.85516],[-91.26901,31.85866],[-91.26771,31.86266],[-91.26696,31.86367],[-91.26651,31.86426],[-91.26441,31.86546],[-91.24814,31.86985],[-91.2349,31.87686],[-91.22695,31.8851],[-91.20881,31.90046],[-91.20511,31.90416],[-91.20281,31.90796],[-91.20101,31.90916],[-91.19751,31.90866],[-91.19381,31.90956],[-91.19261,31.91016],[-91.19199,31.91113],[-91.19081,31.91296],[-91.18921,31.91426],[-91.1862,31.91521],[-91.18321,31.91616],[-91.18123,31.91753],[-91.18061,31.91796],[-91.18111,31.92006],[-91.18491,31.92376],[-91.18463,31.92599],[-91.18371,31.93316],[-91.18471,31.93506],[-91.19111,31.93416],[-91.19291,31.93496],[-91.19321,31.93566],[-91.18951,31.94636],[-91.18881,31.95316],[-91.18911,31.95746],[-91.18831,31.96096],[-91.18481,31.96556],[-91.18049,31.97006],[-91.17741,31.97326],[-91.17021,31.97906],[-91.16441,31.98256],[-91.11741,31.98706],[-91.10411,31.99036],[-91.09611,31.99486],[-91.0901,32.00016],[-91.07591,32.01683],[-91.07993,32.01832],[-91.08081,32.02346],[-91.08261,32.02866],[-91.08441,32.03146],[-91.08811,32.03446],[-91.09551,32.03746],[-91.12511,32.04286],[-91.14511,32.04655],[-91.15141,32.04926],[-91.15631,32.05266],[-91.15901,32.05595],[-91.16131,32.05976],[-91.16201,32.06235],[-91.16201,32.06535],[-91.16161,32.06775],[-91.16031,32.07035],[-91.15581,32.07555],[-91.14881,32.08015],[-91.14511,32.08135],[-91.13931,32.08175],[-91.13491,32.08035],[-91.12861,32.07655],[-91.12411,32.07185],[-91.11431,32.05826],[-91.10371,32.05025],[-91.09871,32.04836],[-91.08231,32.04756],[-91.08021,32.04836],[-91.07911,32.05025],[-91.08171,32.07575],[-91.08151,32.07775],[-91.08001,32.07915],[-91.06668,32.08533],[-91.03861,32.09825],[-91.03471,32.10105],[-91.03051,32.10815],[-91.03071,32.11434],[-91.03021,32.11435],[-91.02687,32.11195],[-91.02488,32.11102],[-91.01973,32.11088],[-91.01416,32.10852],[-91.00877,32.10569],[-91.00499,32.1023],[-91.00134,32.1007],[-90.9958,32.0995],[-90.99293,32.0977],[-90.9903,32.09699],[-90.98564,32.09737],[-90.97881,32.09887],[-90.97703,32.0984],[-90.97442,32.09538],[-90.96995,32.09472],[-90.96908,32.09557],[-90.96892,32.09789],[-90.96745,32.09944],[-90.96475,32.10091],[-90.96386,32.10267],[-90.96368,32.10465],[-90.96301,32.10532],[-90.96122,32.10516],[-90.95735,32.1016],[-90.95807,32.10061],[-90.9616,32.09898],[-90.96166,32.09768],[-90.9607,32.09608],[-90.9606,32.09461],[-90.9616,32.09319],[-90.9641,32.09195],[-90.96606,32.09002],[-90.96601,32.08791],[-90.96533,32.08782],[-90.963,32.08958],[-90.95921,32.09073],[-90.9577,32.09034],[-90.95788,32.08604],[-90.95679,32.0836],[-90.95367,32.08157],[-90.95096,32.08157],[-90.95065,32.08368],[-90.95271,32.08842],[-90.95246,32.09016],[-90.95027,32.09047],[-90.95028,32.08658],[-90.94915,32.086],[-90.94738,32.08709],[-90.94533,32.08926],[-90.94335,32.08913],[-90.94217,32.08697],[-90.94509,32.07992],[-90.94391,32.07834],[-90.93953,32.07952],[-90.9383,32.08102],[-90.93902,32.08396],[-90.93838,32.08526],[-90.93611,32.08396],[-90.93404,32.08157],[-90.92651,32.08138],[-90.92067,32.08117],[-90.91795,32.08068],[-90.91623,32.08136],[-90.9139,32.08378],[-90.91247,32.08654],[-90.91314,32.08744],[-90.91693,32.08777],[-90.91935,32.08654],[-90.92073,32.08739],[-90.91831,32.09115],[-90.91451,32.09416],[-90.91383,32.09606],[-90.91454,32.09769],[-90.91628,32.09866],[-90.91895,32.09764],[-90.92325,32.09706],[-90.92432,32.09748],[-90.92535,32.09969],[-90.92459,32.10201],[-90.91991,32.10104],[-90.91779,32.10106],[-90.91692,32.10211],[-90.91713,32.10321],[-90.92137,32.10366],[-90.9224,32.10415],[-90.92229,32.10557],[-90.91933,32.10568],[-90.91761,32.10736],[-90.9182,32.11184],[-90.91916,32.11369],[-90.92154,32.11651],[-90.92173,32.11784],[-90.91997,32.11839],[-90.91441,32.11728],[-90.91272,32.11851],[-90.91386,32.12058],[-90.91227,32.12282],[-90.91036,32.12794],[-90.90774,32.13189],[-90.90691,32.13228],[-90.90395,32.13152],[-90.9032,32.12894],[-90.90225,32.12763],[-90.8963,32.1256],[-90.89161,32.12146],[-90.89052,32.12024],[-90.88966,32.11912],[-90.88528,32.11596],[-90.88256,32.11453],[-90.87901,32.11443],[-90.87795,32.11499],[-90.87743,32.11668],[-90.87875,32.11791],[-90.88139,32.11895],[-90.88227,32.11975],[-90.88234,32.12147],[-90.88012,32.12276],[-90.87937,32.12241],[-90.87851,32.12],[-90.8771,32.11995],[-90.87601,32.12165],[-90.87725,32.12421],[-90.87595,32.12717],[-90.8751,32.12761],[-90.87171,32.12663],[-90.87221,32.12515],[-90.87535,32.12176],[-90.87362,32.1214],[-90.87046,32.11998],[-90.86783,32.12006],[-90.86237,32.12169],[-90.86202,32.12238],[-90.86292,32.12428],[-90.86205,32.12482],[-90.86053,32.12403],[-90.85798,32.12431],[-90.85398,32.12603],[-90.84611,32.12817],[-90.84686,32.1299],[-90.84466,32.13171],[-90.8444,32.13518],[-90.84308,32.13647],[-90.84379,32.13862],[-90.84719,32.14127],[-90.84855,32.14113],[-90.85,32.13978],[-90.85236,32.13931],[-90.85379,32.14112],[-90.85688,32.14131],[-90.85813,32.14197],[-90.85801,32.14357],[-90.85487,32.1458],[-90.85348,32.14665],[-90.85286,32.14841],[-90.8498,32.14852],[-90.84926,32.14919],[-90.85048,32.15101],[-90.85072,32.15276],[-90.84948,32.15272],[-90.84731,32.15097],[-90.84525,32.15109],[-90.84361,32.15334],[-90.84429,32.15441],[-90.84605,32.1541],[-90.85101,32.15468],[-90.85131,32.15557],[-90.84996,32.15674],[-90.84647,32.15779],[-90.84384,32.15904],[-90.84022,32.15769],[-90.83565,32.15866],[-90.83263,32.15685],[-90.82765,32.15684],[-90.82611,32.15627],[-90.82599,32.15384],[-90.82724,32.15498],[-90.82983,32.1508],[-90.82941,32.14923],[-90.82991,32.14614],[-90.82965,32.14486],[-90.8275,32.14122],[-90.82491,32.13883],[-90.82253,32.13877],[-90.82068,32.1371],[-90.81924,32.13728],[-90.81924,32.13923],[-90.81823,32.13975],[-90.81538,32.13856],[-90.81362,32.13959],[-90.81355,32.14103],[-90.81473,32.1423],[-90.81164,32.14358],[-90.81113,32.14531],[-90.80943,32.14759],[-90.80996,32.15219],[-90.81227,32.15407],[-90.81124,32.15548],[-90.80671,32.15508],[-90.8071,32.15396],[-90.80868,32.15338],[-90.80953,32.15203],[-90.80691,32.1509],[-90.8051,32.1512],[-90.80332,32.15258],[-90.80002,32.14971],[-90.79858,32.14721],[-90.80076,32.14586],[-90.79829,32.14282],[-90.79563,32.14328],[-90.79225,32.14444],[-90.79294,32.14513],[-90.79634,32.14529],[-90.79678,32.14642],[-90.7965,32.14689],[-90.79324,32.14728],[-90.79193,32.1479],[-90.7933,32.15021],[-90.79287,32.15157],[-90.7872,32.15325],[-90.77992,32.15385],[-90.77635,32.15703],[-90.77482,32.15399],[-90.77214,32.15403],[-90.76969,32.15532],[-90.77092,32.157],[-90.76896,32.15911],[-90.76859,32.16085],[-90.76679,32.16303],[-90.76945,32.16539],[-90.77226,32.16361],[-90.77498,32.16244],[-90.77563,32.16279],[-90.77555,32.16667],[-90.77793,32.16847],[-90.78069,32.17188],[-90.78407,32.17056],[-90.78554,32.17097],[-90.78587,32.17208],[-90.78538,32.17562],[-90.78735,32.17596],[-90.78866,32.17445],[-90.79005,32.17472],[-90.79103,32.17687],[-90.79038,32.17818],[-90.78644,32.17943],[-90.78669,32.18304],[-90.78259,32.18484],[-90.77892,32.18927],[-90.77829,32.19208],[-90.77646,32.1939],[-90.77549,32.19294],[-90.77663,32.18949],[-90.77349,32.19071],[-90.77273,32.19241],[-90.76941,32.19188],[-90.76915,32.1941],[-90.767,32.19457],[-90.76605,32.19216],[-90.76413,32.19163],[-90.76347,32.19354],[-90.76345,32.19599],[-90.7614,32.19489],[-90.75953,32.19491],[-90.75666,32.19387],[-90.75453,32.19476],[-90.75323,32.19606],[-90.7505,32.19578],[-90.7504,32.19697],[-90.75247,32.19871],[-90.75429,32.20186],[-90.75304,32.20359],[-90.75435,32.2062],[-90.75328,32.20746],[-90.7511,32.20815],[-90.74949,32.20768],[-90.74922,32.20651],[-90.74702,32.20335],[-90.74598,32.20419],[-90.74576,32.20732],[-90.74488,32.20752],[-90.74327,32.20593],[-90.74194,32.20616],[-90.74191,32.2077],[-90.74029,32.20795],[-90.73979,32.20627],[-90.73849,32.20558],[-90.73689,32.20825],[-90.73693,32.21216],[-90.73479,32.2125],[-90.73192,32.21445],[-90.73374,32.21489],[-90.73947,32.21548],[-90.73715,32.21746],[-90.73408,32.21892],[-90.73418,32.22066],[-90.73271,32.22246],[-90.73206,32.22546],[-90.72862,32.22512],[-90.72564,32.15466],[-90.72545,32.15377],[-90.72503,32.14741],[-90.7183,32.04835],[-90.66198,32.04846],[-90.66139,32.04846],[-90.65516,32.04848],[-90.65515,32.04996],[-90.62159,32.05006],[-90.58723,32.04986],[-90.58684,32.04982],[-90.55314,32.04998],[-90.51501,32.05003],[-90.46372,32.04967],[-90.33867,32.04967],[-90.33823,32.04967],[-90.33599,32.04967],[-90.30095,32.04965],[-90.28922,32.04992],[-90.28843,32.04962],[-90.27721,32.04968],[-90.2746,32.0496],[-90.23033,32.04973],[-90.23004,32.04666],[-90.23327,32.04317],[-90.23457,32.04065],[-90.23674,32.03748],[-90.23924,32.03714],[-90.24275,32.03736],[-90.24416,32.03622],[-90.24556,32.03391],[-90.24792,32.03152],[-90.24775,32.03068],[-90.24478,32.02813],[-90.24382,32.02633],[-90.24359,32.02261],[-90.24226,32.02223],[-90.23952,32.02401],[-90.23664,32.02488],[-90.23463,32.02505],[-90.23356,32.02428],[-90.23407,32.02271],[-90.23611,32.02242],[-90.23821,32.02282],[-90.2396,32.02062],[-90.23917,32.01951],[-90.23677,32.01871],[-90.23429,32.01715],[-90.23351,32.01711],[-90.23221,32.01886],[-90.22925,32.02088],[-90.22731,32.02112],[-90.22532,32.02062],[-90.22093,32.0189],[-90.21932,32.0196],[-90.21864,32.02199],[-90.21698,32.02365],[-90.21406,32.02535],[-90.21327,32.0243],[-90.21365,32.02322],[-90.2157,32.02166],[-90.21972,32.01608],[-90.22313,32.01248],[-90.22384,32.01079],[-90.22515,32.00978],[-90.2296,32.01031],[-90.23221,32.00956],[-90.23281,32.00892],[-90.23193,32.00747],[-90.23017,32.00607],[-90.22879,32.0038],[-90.22712,32.002],[-90.22586,31.99857],[-90.22427,31.9966],[-90.22279,31.99481],[-90.22247,31.99205],[-90.22295,31.98916],[-90.22243,31.98852],[-90.22066,31.98876],[-90.21787,31.98992],[-90.21701,31.9898],[-90.21405,31.98644],[-90.21296,31.98638],[-90.21142,31.98859],[-90.2104,31.98924],[-90.20755,31.98895],[-90.2061,31.98799],[-90.2054,31.98631],[-90.20512,31.98363],[-90.20702,31.97767],[-90.20702,31.97613],[-90.20567,31.97422],[-90.2018,31.97138],[-90.20128,31.96788],[-90.19729,31.96597],[-90.19699,31.96508],[-90.19811,31.95787],[-90.19454,31.95654],[-90.19216,31.95647],[-90.19,31.95519],[-90.18753,31.95202],[-90.18808,31.94949],[-90.18995,31.94952],[-90.19008,31.95198],[-90.19097,31.95329],[-90.19205,31.95357],[-90.19304,31.95309],[-90.19281,31.95312],[-90.19187,31.94411],[-90.19292,31.94346],[-90.19566,31.94318],[-90.19784,31.94291],[-90.1983,31.9419],[-90.19453,31.93963],[-90.19138,31.93936],[-90.18852,31.94154],[-90.18697,31.94161],[-90.18421,31.93773],[-90.18303,31.93737],[-90.1803,31.93892],[-90.18058,31.94212],[-90.1787,31.94266],[-90.17409,31.93721],[-90.17164,31.93491],[-90.16832,31.93055],[-90.16647,31.92645],[-90.16664,31.9236],[-90.16851,31.92098],[-90.16979,31.91764],[-90.1701,31.91468],[-90.17035,31.90845],[-90.17028,31.90447],[-90.16833,31.90311],[-90.16391,31.90261],[-90.15916,31.90054],[-90.1555,31.89718],[-90.15201,31.89547],[-90.14572,31.89287],[-90.14408,31.8911],[-90.14175,31.88739],[-90.13984,31.87999],[-90.13834,31.87532],[-90.13808,31.87443],[-90.13689,31.87077],[-90.13713,31.86431],[-90.13621,31.8626],[-90.13302,31.85993],[-90.13201,31.8583],[-90.13255,31.85692],[-90.13578,31.85505],[-90.13642,31.8543],[-90.13646,31.84995],[-90.13891,31.8481],[-90.14348,31.84674],[-90.14733,31.84603],[-90.15035,31.84487],[-90.15211,31.84472],[-90.15678,31.84542],[-90.15894,31.84546],[-90.15917,31.84474],[-90.1582,31.84207],[-90.15625,31.84094],[-90.14697,31.83346],[-90.1459,31.83099],[-90.14465,31.82993],[-90.14271,31.83003],[-90.14103,31.83136],[-90.13791,31.83284],[-90.13508,31.83222],[-90.13102,31.82975],[-90.12826,31.82747],[-90.12729,31.82562],[-90.12824,31.82295],[-90.12972,31.82279],[-90.13267,31.82678],[-90.13477,31.82739],[-90.13597,31.82708],[-90.13694,31.82602],[-90.1376,31.82376],[-90.1362,31.82152],[-90.13602,31.81897],[-90.13849,31.81691],[-90.14227,31.81282],[-90.14871,31.80784],[-90.14976,31.80616],[-90.15066,31.80313],[-90.15095,31.80085],[-90.1507,31.79987],[-90.14875,31.7984],[-90.14751,31.79679],[-90.14394,31.79428],[-90.14222,31.79134],[-90.14076,31.78935],[-90.13733,31.78883],[-90.13245,31.7891],[-90.12833,31.78894],[-90.1235,31.78914],[-90.11947,31.78989],[-90.11543,31.79124],[-90.11251,31.79127],[-90.11153,31.79062],[-90.11098,31.78927],[-90.11054,31.78343],[-90.10883,31.78063],[-90.10762,31.77952],[-90.10749,31.77769],[-90.10904,31.77515],[-90.11088,31.77347],[-90.1125,31.7697],[-90.11411,31.76825],[-90.11591,31.76781],[-90.11975,31.76805],[-90.12044,31.76974],[-90.12032,31.77227],[-90.12166,31.77475],[-90.12323,31.77497],[-90.12416,31.77431],[-90.12569,31.77143],[-90.12811,31.76967],[-90.12898,31.76821],[-90.1288,31.76592],[-90.12623,31.76339],[-90.12508,31.76174],[-90.12451,31.75952],[-90.12255,31.75772],[-90.12179,31.75585],[-90.12192,31.7536],[-90.12256,31.75268],[-89.97459,31.76166],[-89.95738,31.7627],[-89.93675,31.76385],[-89.87975,31.76691],[-89.87593,31.76732],[-89.8556,31.76844],[-89.77958,31.77315],[-89.7551,31.77465],[-89.75541,31.68974],[-89.75557,31.642],[-89.75561,31.60975],[-89.74564,31.60966],[-89.73511,31.61034],[-89.73386,31.60904],[-89.7308,31.60708],[-89.72955,31.60543],[-89.72987,31.60394],[-89.72519,31.59968],[-89.72487,31.59723],[-89.72123,31.59478],[-89.72096,31.59382],[-89.71855,31.593],[-89.7181,31.59084],[-89.71703,31.58892],[-89.71521,31.58771],[-89.71213,31.58727],[-89.71205,31.58558],[-89.70932,31.58583],[-89.70659,31.58482],[-89.70528,31.58347],[-89.70365,31.58292],[-89.70159,31.58102],[-89.70164,31.57912],[-89.69958,31.57885],[-89.69891,31.57718],[-89.69265,31.57551],[-89.68985,31.57619],[-89.68789,31.57547],[-89.68661,31.57464],[-89.68624,31.57319],[-89.68327,31.57129],[-89.68043,31.57035],[-89.6796,31.56832],[-89.67717,31.56845],[-89.67532,31.56728],[-89.673,31.56468],[-89.66981,31.56488],[-89.6689,31.56564],[-89.66743,31.56538],[-89.66099,31.56248],[-89.65708,31.56151],[-89.65337,31.56158],[-89.65096,31.56112],[-89.65091,31.55961],[-89.64794,31.55915],[-89.64625,31.56007],[-89.64487,31.55958],[-89.64165,31.55904],[-89.63946,31.55949],[-89.63695,31.5589],[-89.63593,31.55775],[-89.63457,31.5577],[-89.63219,31.55651],[-89.63171,31.5548],[-89.62893,31.55246],[-89.62386,31.55124],[-89.62292,31.54977],[-89.62108,31.55048],[-89.62003,31.54971],[-89.62092,31.54872],[-89.6195,31.54751],[-89.61896,31.54588],[-89.61773,31.54597],[-89.61623,31.54259],[-89.6146,31.54076],[-89.61284,31.54069],[-89.60995,31.53883],[-89.60781,31.53904],[-89.60596,31.54032],[-89.60516,31.53932],[-89.60289,31.53884],[-89.6015,31.53595],[-89.59933,31.53465],[-89.60227,31.53135],[-89.60032,31.53087],[-89.60104,31.52915],[-89.59943,31.52704],[-89.59657,31.52583],[-89.5963,31.51956],[-89.59745,31.51676],[-89.59737,31.51514],[-89.5959,31.51543],[-89.59537,31.51367],[-89.59595,31.51266],[-89.59443,31.51303],[-89.59414,31.51422],[-89.59125,31.51557],[-89.59053,31.51672],[-89.58943,31.51605],[-89.58828,31.51388],[-89.58692,31.51344],[-89.58682,31.43369],[-89.59061,31.43381],[-89.61924,31.43396],[-89.62264,31.43421],[-89.62503,31.43381],[-89.65421,31.4338],[-89.66286,31.43377],[-89.67097,31.43384],[-89.73902,31.43377],[-89.74961,31.43381],[-89.75056,31.4337],[-89.75317,31.4339],[-89.77491,31.43392],[-89.78202,31.43387],[-89.82424,31.43409],[-89.82429,31.42651],[-89.82361,31.41882],[-89.82379,31.41241],[-89.82333,31.39002],[-89.83808,31.39002],[-89.85634,31.39022],[-89.89096,31.39053],[-89.90184,31.39033],[-89.9028,31.39045],[-89.95894,31.39049],[-89.9663,31.39049],[-89.96351,31.39392],[-89.96453,31.39569],[-89.96727,31.39521],[-89.96929,31.39344],[-89.97328,31.39247],[-89.97537,31.39469],[-89.9759,31.39459],[-89.99818,31.39446],[-90.00008,31.39477],[-90.04048,31.39467],[-90.04053,31.37442],[-90.0404,31.3477],[-90.04007,31.34431],[-90.04052,31.34297],[-90.04047,31.33601],[-90.04039,31.27185],[-90.04038,31.24632],[-90.04026,31.24155],[-90.04037,31.23391],[-90.03187,31.23394],[-90.03186,31.22684],[-90.03184,31.21947],[-90.03174,31.21928],[-90.0319,31.18157],[-90.0319,31.1812],[-90.0319,31.17573],[-90.00614,31.17561],[-90.00594,31.1323],[-90.00008,31.13227],[-89.9977,31.13263],[-89.99306,31.13264],[-89.93818,31.13295],[-89.93821,31.12862],[-89.93824,31.11468],[-89.93824,31.11116],[-89.92952,31.11117],[-89.9295,31.08923],[-89.92097,31.08931],[-89.92094,31.07468],[-89.88331,31.07475],[-89.86819,31.07496],[-89.85327,31.07505],[-89.8505,31.07492],[-89.83587,31.07493],[-89.83591,31.00206],[-89.85686,31.00208],[-89.8637,31.00201],[-89.89271,31.00176],[-89.89752,31.00191],[-89.92312,31.00145],[-89.92716,31.00144],[-89.94101,31.00142],[-89.9728,31.00139],[-89.9754,31.00169],[-89.97543,31.00169],[-90.00533,31.00136],[-90.02218,31.0013],[-90.0292,31.0012],[-90.02957,31.00119],[-90.05071,31.00121],[-90.06754,31.00118],[-90.07312,31.00117],[-90.07313,31.00117],[-90.12841,31.00105],[-90.13139,31.00092],[-90.14843,31.00098],[-90.16428,31.00102],[-90.1645,31.001],[-90.16468,31.00098],[-90.18734,31.0009],[-90.19439,31.00088],[-90.25955,31.00066],[-90.29504,31.00054],[-90.34601,31.00036],[-90.34723,31.00036],[-90.3473,31.00036],[-90.3556,31.00035],[-90.36937,31.00033],[-90.38054,30.99987],[-90.42212,30.99981],[-90.42685,30.99978],[-90.43735,30.99973],[-90.44172,30.99973],[-90.44248,30.99972],[-90.45698,30.99976],[-90.46332,30.99977],[-90.47409,30.9998],[-90.47593,30.99974],[-90.47728,30.99972],[-90.48113,30.99973],[-90.48588,30.99974],[-90.48675,30.99969],[-90.54762,30.99972],[-90.56719,30.99973],[-90.58352,30.9997]]]}},{"type":"Feature","properties":{"name":"TRANS-CON (Transportation Connection)","boundary_type":"counties","source":"Census TIGER county","fidelity":"exact","updated":"2026-09","units":"Copiah County; Hinds County; Madison County; Rankin County; Simpson County; Warren County; Yazoo County","note":"Service area explicitly listed as 7 central Mississippi counties per MDOT ConnectMS and independent verification of Jackson Medical Mall Foundation operator.","confidence":0.9},"geometry":{"type":"Polygon","coordinates":[[[-90.733,31.82998],[-90.71678,31.84458],[-90.71678,31.84583],[-90.71641,31.9042],[-90.71649,31.93962],[-90.71584,31.96222],[-90.71515,31.97275],[-90.7144,31.97763],[-90.71706,32.02598],[-90.7183,32.04835],[-90.72503,32.14741],[-90.72545,32.15377],[-90.72564,32.15466],[-90.72862,32.22512],[-90.73206,32.22546],[-90.73271,32.22246],[-90.73418,32.22066],[-90.73408,32.21892],[-90.73715,32.21746],[-90.73947,32.21548],[-90.73374,32.21489],[-90.73192,32.21445],[-90.73479,32.2125],[-90.73693,32.21216],[-90.73689,32.20825],[-90.73849,32.20558],[-90.73979,32.20627],[-90.74029,32.20795],[-90.74191,32.2077],[-90.74194,32.20616],[-90.74327,32.20593],[-90.74488,32.20752],[-90.74576,32.20732],[-90.74598,32.20419],[-90.74702,32.20335],[-90.74922,32.20651],[-90.74949,32.20768],[-90.7511,32.20815],[-90.75328,32.20746],[-90.75435,32.2062],[-90.75304,32.20359],[-90.75429,32.20186],[-90.75247,32.19871],[-90.7504,32.19697],[-90.7505,32.19578],[-90.75323,32.19606],[-90.75453,32.19476],[-90.75666,32.19387],[-90.75953,32.19491],[-90.7614,32.19489],[-90.76345,32.19599],[-90.76347,32.19354],[-90.76413,32.19163],[-90.76605,32.19216],[-90.767,32.19457],[-90.76915,32.1941],[-90.76941,32.19188],[-90.77273,32.19241],[-90.77349,32.19071],[-90.77663,32.18949],[-90.77549,32.19294],[-90.77646,32.1939],[-90.77829,32.19208],[-90.77892,32.18927],[-90.78259,32.18484],[-90.78669,32.18304],[-90.78644,32.17943],[-90.79038,32.17818],[-90.79103,32.17687],[-90.79005,32.17472],[-90.78866,32.17445],[-90.78735,32.17596],[-90.78538,32.17562],[-90.78587,32.17208],[-90.78554,32.17097],[-90.78407,32.17056],[-90.78069,32.17188],[-90.77793,32.16847],[-90.77555,32.16667],[-90.77563,32.16279],[-90.77498,32.16244],[-90.77226,32.16361],[-90.76945,32.16539],[-90.76679,32.16303],[-90.76859,32.16085],[-90.76896,32.15911],[-90.77092,32.157],[-90.76969,32.15532],[-90.77214,32.15403],[-90.77482,32.15399],[-90.77635,32.15703],[-90.77992,32.15385],[-90.7872,32.15325],[-90.79287,32.15157],[-90.7933,32.15021],[-90.79193,32.1479],[-90.79324,32.14728],[-90.7965,32.14689],[-90.79678,32.14642],[-90.79634,32.14529],[-90.79294,32.14513],[-90.79225,32.14444],[-90.79563,32.14328],[-90.79829,32.14282],[-90.80076,32.14586],[-90.79858,32.14721],[-90.80002,32.14971],[-90.80332,32.15258],[-90.8051,32.1512],[-90.80691,32.1509],[-90.80953,32.15203],[-90.80868,32.15338],[-90.8071,32.15396],[-90.80671,32.15508],[-90.81124,32.15548],[-90.81227,32.15407],[-90.80996,32.15219],[-90.80943,32.14759],[-90.81113,32.14531],[-90.81164,32.14358],[-90.81473,32.1423],[-90.81355,32.14103],[-90.81362,32.13959],[-90.81538,32.13856],[-90.81823,32.13975],[-90.81924,32.13923],[-90.81924,32.13728],[-90.82068,32.1371],[-90.82253,32.13877],[-90.82491,32.13883],[-90.8275,32.14122],[-90.82965,32.14486],[-90.82991,32.14614],[-90.82941,32.14923],[-90.82983,32.1508],[-90.82724,32.15498],[-90.82599,32.15384],[-90.82611,32.15627],[-90.82765,32.15684],[-90.83263,32.15685],[-90.83565,32.15866],[-90.84022,32.15769],[-90.84384,32.15904],[-90.84647,32.15779],[-90.84996,32.15674],[-90.85131,32.15557],[-90.85101,32.15468],[-90.84605,32.1541],[-90.84429,32.15441],[-90.84361,32.15334],[-90.84525,32.15109],[-90.84731,32.15097],[-90.84948,32.15272],[-90.85072,32.15276],[-90.85048,32.15101],[-90.84926,32.14919],[-90.8498,32.14852],[-90.85286,32.14841],[-90.85348,32.14665],[-90.85487,32.1458],[-90.85801,32.14357],[-90.85813,32.14197],[-90.85688,32.14131],[-90.85379,32.14112],[-90.85236,32.13931],[-90.85,32.13978],[-90.84855,32.14113],[-90.84719,32.14127],[-90.84379,32.13862],[-90.84308,32.13647],[-90.8444,32.13518],[-90.84466,32.13171],[-90.84686,32.1299],[-90.84611,32.12817],[-90.85398,32.12603],[-90.85798,32.12431],[-90.86053,32.12403],[-90.86205,32.12482],[-90.86292,32.12428],[-90.86202,32.12238],[-90.86237,32.12169],[-90.86783,32.12006],[-90.87046,32.11998],[-90.87362,32.1214],[-90.87535,32.12176],[-90.87221,32.12515],[-90.87171,32.12663],[-90.8751,32.12761],[-90.87595,32.12717],[-90.87725,32.12421],[-90.87601,32.12165],[-90.8771,32.11995],[-90.87851,32.12],[-90.87937,32.12241],[-90.88012,32.12276],[-90.88234,32.12147],[-90.88227,32.11975],[-90.88139,32.11895],[-90.87875,32.11791],[-90.87743,32.11668],[-90.87795,32.11499],[-90.87901,32.11443],[-90.88256,32.11453],[-90.88528,32.11596],[-90.88966,32.11912],[-90.89052,32.12024],[-90.89161,32.12146],[-90.8963,32.1256],[-90.90225,32.12763],[-90.9032,32.12894],[-90.90395,32.13152],[-90.90691,32.13228],[-90.90774,32.13189],[-90.91036,32.12794],[-90.91227,32.12282],[-90.91386,32.12058],[-90.91272,32.11851],[-90.91441,32.11728],[-90.91997,32.11839],[-90.92173,32.11784],[-90.92154,32.11651],[-90.91916,32.11369],[-90.9182,32.11184],[-90.91761,32.10736],[-90.91933,32.10568],[-90.92229,32.10557],[-90.9224,32.10415],[-90.92137,32.10366],[-90.91713,32.10321],[-90.91692,32.10211],[-90.91779,32.10106],[-90.91991,32.10104],[-90.92459,32.10201],[-90.92535,32.09969],[-90.92432,32.09748],[-90.92325,32.09706],[-90.91895,32.09764],[-90.91628,32.09866],[-90.91454,32.09769],[-90.91383,32.09606],[-90.91451,32.09416],[-90.91831,32.09115],[-90.92073,32.08739],[-90.91935,32.08654],[-90.91693,32.08777],[-90.91314,32.08744],[-90.91247,32.08654],[-90.9139,32.08378],[-90.91623,32.08136],[-90.91795,32.08068],[-90.92067,32.08117],[-90.92651,32.08138],[-90.93404,32.08157],[-90.93611,32.08396],[-90.93838,32.08526],[-90.93902,32.08396],[-90.9383,32.08102],[-90.93953,32.07952],[-90.94391,32.07834],[-90.94509,32.07992],[-90.94217,32.08697],[-90.94335,32.08913],[-90.94533,32.08926],[-90.94738,32.08709],[-90.94915,32.086],[-90.95028,32.08658],[-90.95027,32.09047],[-90.95246,32.09016],[-90.95271,32.08842],[-90.95065,32.08368],[-90.95096,32.08157],[-90.95367,32.08157],[-90.95679,32.0836],[-90.95788,32.08604],[-90.9577,32.09034],[-90.95921,32.09073],[-90.963,32.08958],[-90.96533,32.08782],[-90.96601,32.08791],[-90.96606,32.09002],[-90.9641,32.09195],[-90.9616,32.09319],[-90.9606,32.09461],[-90.9607,32.09608],[-90.96166,32.09768],[-90.9616,32.09898],[-90.95807,32.10061],[-90.95735,32.1016],[-90.96122,32.10516],[-90.96301,32.10532],[-90.96368,32.10465],[-90.96386,32.10267],[-90.96475,32.10091],[-90.96745,32.09944],[-90.96892,32.09789],[-90.96908,32.09557],[-90.96995,32.09472],[-90.97442,32.09538],[-90.97703,32.0984],[-90.97881,32.09887],[-90.98564,32.09737],[-90.9903,32.09699],[-90.99293,32.0977],[-90.9958,32.0995],[-91.00134,32.1007],[-91.00499,32.1023],[-91.00877,32.10569],[-91.01416,32.10852],[-91.01973,32.11088],[-91.02488,32.11102],[-91.02687,32.11195],[-91.03021,32.11435],[-91.03071,32.11434],[-91.03091,32.12055],[-91.0308,32.12057],[-91.02701,32.12105],[-91.02001,32.12355],[-91.01761,32.12515],[-91.01181,32.13115],[-91.00641,32.13995],[-91.00501,32.14285],[-91.00411,32.14615],[-91.00291,32.16205],[-91.01661,32.16085],[-91.02501,32.16255],[-91.03191,32.16785],[-91.04181,32.17455],[-91.05021,32.17845],[-91.05831,32.18095],[-91.05891,32.17125],[-91.05571,32.16375],[-91.04971,32.15735],[-91.04851,32.15015],[-91.05021,32.14525],[-91.05121,32.14415],[-91.05317,32.12424],[-91.06155,32.12691],[-91.06908,32.13148],[-91.07704,32.13349],[-91.08163,32.13399],[-91.09166,32.1336],[-91.10118,32.13114],[-91.1037,32.13001],[-91.11129,32.12504],[-91.11317,32.12554],[-91.11387,32.12573],[-91.1314,32.12621],[-91.13657,32.12737],[-91.1444,32.13039],[-91.15504,32.13224],[-91.16282,32.13269],[-91.16545,32.13429],[-91.1717,32.14425],[-91.17349,32.14901],[-91.17455,32.15498],[-91.17366,32.16423],[-91.17105,32.17653],[-91.16807,32.18664],[-91.16417,32.19689],[-91.16206,32.19904],[-91.15803,32.20196],[-91.13359,32.21343],[-91.1302,32.21367],[-91.12849,32.21317],[-91.12404,32.2111],[-91.11727,32.20667],[-91.11408,32.2067],[-91.11301,32.20655],[-91.10851,32.20815],[-91.10041,32.21785],[-91.09211,32.22385],[-91.08371,32.22645],[-91.07511,32.22705],[-91.07111,32.22605],[-91.06141,32.21865],[-91.05511,32.22475],[-91.05311,32.22795],[-91.05181,32.23445],[-91.05038,32.23777],[-91.05031,32.23795],[-91.04651,32.24115],[-91.03901,32.24235],[-91.03431,32.24155],[-91.02661,32.23875],[-91.02151,32.23615],[-91.00961,32.22615],[-91.00291,32.22305],[-91.00434,32.21813],[-91.00451,32.21252],[-91.00247,32.19586],[-91.00111,32.1928],[-90.99854,32.19158],[-90.99516,32.19212],[-90.99329,32.1945],[-90.99282,32.19525],[-90.98904,32.2013],[-90.98377,32.21065],[-90.98343,32.22131],[-90.98313,32.23137],[-90.98029,32.2436],[-90.97614,32.24809],[-90.97002,32.25168],[-90.9694,32.25252],[-90.97134,32.25774],[-90.97966,32.26525],[-90.98103,32.26673],[-90.98298,32.27029],[-90.98408,32.27995],[-90.98075,32.29141],[-90.97947,32.2937],[-90.9762,32.29645],[-90.9746,32.29712],[-90.97164,32.2975],[-90.96415,32.29687],[-90.96308,32.29628],[-90.96117,32.29329],[-90.9554,32.28624],[-90.95301,32.28404],[-90.95135,32.2832],[-90.94783,32.28349],[-90.93453,32.29008],[-90.93399,32.29034],[-90.92345,32.29778],[-90.92223,32.29864],[-90.91616,32.30358],[-90.90655,32.314],[-90.90517,32.3155],[-90.90256,32.31959],[-90.90124,32.32339],[-90.90072,32.33038],[-90.89636,32.33676],[-90.88792,32.34912],[-90.88645,32.35127],[-90.88253,32.35701],[-90.88216,32.35755],[-90.87652,32.3704],[-90.87563,32.37243],[-90.87829,32.37455],[-90.88881,32.37326],[-90.88895,32.37325],[-90.89016,32.37221],[-90.89206,32.37058],[-90.89776,32.35436],[-90.90776,32.34361],[-90.91236,32.33945],[-90.92117,32.34207],[-90.9349,32.34497],[-90.94298,32.34596],[-90.95458,32.34586],[-90.98667,32.35176],[-90.99362,32.35405],[-91.00011,32.35769],[-91.00351,32.36214],[-91.00451,32.36474],[-91.00451,32.36814],[-91.00061,32.38164],[-90.99624,32.38806],[-90.99469,32.39228],[-90.99378,32.39678],[-90.99408,32.40386],[-90.98072,32.40824],[-90.97446,32.412],[-90.97114,32.41464],[-90.96777,32.41828],[-90.96625,32.42103],[-90.96599,32.42481],[-90.96646,32.43387],[-90.96687,32.4355],[-90.96856,32.43808],[-90.96959,32.43949],[-90.97855,32.44703],[-90.98342,32.44908],[-90.99386,32.45085],[-90.99897,32.45016],[-91.00481,32.44574],[-91.01651,32.44034],[-91.02631,32.43444],[-91.02961,32.43354],[-91.05291,32.43844],[-91.07021,32.44514],[-91.08181,32.45044],[-91.09531,32.45874],[-91.10881,32.47204],[-91.11211,32.47614],[-91.11601,32.48314],[-91.11731,32.49504],[-91.11671,32.50014],[-91.10698,32.51493],[-91.1013,32.5256],[-91.09876,32.53297],[-91.09795,32.53721],[-91.09788,32.54475],[-91.09374,32.54913],[-91.07482,32.53347],[-91.07047,32.52817],[-91.06052,32.51236],[-91.05091,32.50014],[-91.04581,32.49554],[-91.03811,32.49044],[-91.03391,32.48854],[-91.02411,32.48524],[-91.01711,32.48374],[-91.00421,32.48214],[-90.99922,32.48262],[-90.99639,32.48392],[-90.9907,32.48775],[-90.98865,32.49066],[-90.98828,32.49119],[-90.98758,32.49239],[-90.9872,32.49566],[-90.98878,32.50084],[-90.99487,32.50861],[-91.00707,32.51637],[-91.01847,32.52102],[-91.05117,32.53089],[-91.06168,32.53645],[-91.06684,32.54032],[-91.07537,32.54672],[-91.0804,32.55644],[-91.07021,32.56254],[-91.06935,32.56305],[-91.04931,32.57362],[-91.04345,32.57627],[-90.96404,32.57561],[-90.9648,32.50366],[-90.9644,32.50014],[-90.96338,32.41119],[-90.95895,32.42094],[-90.95793,32.42803],[-90.95463,32.43758],[-90.95314,32.4402],[-90.95321,32.44106],[-90.95124,32.44439],[-90.94731,32.44831],[-90.94466,32.45011],[-90.93983,32.45207],[-90.93539,32.45241],[-90.93217,32.45197],[-90.92648,32.45058],[-90.92288,32.44798],[-90.92108,32.44541],[-90.91879,32.44414],[-90.91571,32.44414],[-90.91029,32.44586],[-90.90544,32.44776],[-90.90231,32.44868],[-90.89901,32.44895],[-90.89474,32.4486],[-90.89142,32.44704],[-90.88442,32.44157],[-90.88147,32.44077],[-90.87931,32.44131],[-90.87703,32.44242],[-90.8751,32.44425],[-90.87401,32.44805],[-90.87288,32.45056],[-90.87087,32.45161],[-90.86865,32.45058],[-90.86611,32.44532],[-90.86245,32.44237],[-90.86138,32.44277],[-90.86057,32.57517],[-90.82489,32.57541],[-90.82288,32.57514],[-90.76808,32.57475],[-90.76658,32.5764],[-90.76524,32.57701],[-90.76278,32.57742],[-90.76048,32.57716],[-90.75845,32.57607],[-90.75607,32.57308],[-90.75365,32.57141],[-90.7501,32.57055],[-90.74814,32.57044],[-90.74256,32.57198],[-90.73952,32.57177],[-90.73346,32.5664],[-90.72985,32.56569],[-90.72834,32.56627],[-90.72704,32.56781],[-90.72626,32.56989],[-90.72558,32.57579],[-90.72586,32.57767],[-90.72973,32.58116],[-90.7308,32.58253],[-90.73173,32.58567],[-90.7317,32.58728],[-90.72992,32.58896],[-90.72596,32.58982],[-90.7232,32.59131],[-90.72273,32.59212],[-90.72204,32.59811],[-90.71992,32.60265],[-90.7164,32.61158],[-90.71633,32.61275],[-90.71685,32.61415],[-90.7201,32.61886],[-90.72109,32.62123],[-90.7207,32.62404],[-90.71944,32.62442],[-90.71531,32.62364],[-90.71027,32.6242],[-90.70774,32.62586],[-90.70628,32.62615],[-90.70262,32.62385],[-90.70028,32.62366],[-90.69756,32.62513],[-90.69229,32.6327],[-90.6914,32.63628],[-90.69187,32.6383],[-90.69301,32.64011],[-90.69475,32.64113],[-90.69831,32.64197],[-90.70696,32.64159],[-90.71282,32.64235],[-90.71654,32.64427],[-90.7189,32.64655],[-90.72051,32.65105],[-90.72327,32.65378],[-90.7246,32.65734],[-90.72415,32.66032],[-90.72316,32.66213],[-90.72131,32.66549],[-90.7172,32.67165],[-90.71313,32.67657],[-90.71213,32.67838],[-90.71239,32.68113],[-90.71298,32.68261],[-90.71289,32.68523],[-90.71221,32.68744],[-90.71053,32.68898],[-90.70803,32.69032],[-90.70442,32.69078],[-90.69931,32.68926],[-90.69717,32.68787],[-90.6956,32.68512],[-90.69503,32.68099],[-90.69485,32.67757],[-90.69538,32.67428],[-90.69488,32.67109],[-90.69323,32.66826],[-90.69082,32.66615],[-90.68738,32.66439],[-90.68417,32.66375],[-90.67862,32.6642],[-90.67584,32.66513],[-90.67237,32.66835],[-90.67006,32.66958],[-90.66768,32.67098],[-90.66532,32.6745],[-90.66418,32.67946],[-90.66375,32.68601],[-90.66441,32.68913],[-90.66744,32.69326],[-90.67139,32.69646],[-90.68323,32.70291],[-90.68868,32.70537],[-90.69327,32.70652],[-90.69775,32.70721],[-90.70124,32.70742],[-90.7085,32.70693],[-90.71373,32.70731],[-90.71773,32.709],[-90.72334,32.71364],[-90.72603,32.71523],[-90.72944,32.71624],[-90.73387,32.7187],[-90.73956,32.72398],[-90.74193,32.72711],[-90.74263,32.72922],[-90.74234,32.73178],[-90.74162,32.73345],[-90.73727,32.73911],[-90.73523,32.74381],[-90.73545,32.7475],[-90.73666,32.75261],[-90.73667,32.75425],[-90.73585,32.75623],[-90.73315,32.75756],[-90.73097,32.75758],[-90.72958,32.75722],[-90.72187,32.75013],[-90.71763,32.74799],[-90.71378,32.74748],[-90.70942,32.74744],[-90.70334,32.7488],[-90.69951,32.75013],[-90.69306,32.7543],[-90.6905,32.75756],[-90.68945,32.76086],[-90.68919,32.76387],[-90.68976,32.76588],[-90.69264,32.76965],[-90.69679,32.77304],[-90.70062,32.77438],[-90.70767,32.77779],[-90.71127,32.78205],[-90.71541,32.78986],[-90.71584,32.79341],[-90.7155,32.79619],[-90.71445,32.79979],[-90.71225,32.80392],[-90.71099,32.80552],[-90.7095,32.80688],[-90.70275,32.81112],[-90.70019,32.81323],[-90.6968,32.81357],[-90.69478,32.81412],[-90.69429,32.81493],[-90.69579,32.81654],[-90.69719,32.81716],[-90.70129,32.81754],[-90.70553,32.81592],[-90.70733,32.81664],[-90.70866,32.81797],[-90.7109,32.81727],[-90.71543,32.81428],[-90.71816,32.81469],[-90.72031,32.81495],[-90.72279,32.81641],[-90.72339,32.81888],[-90.72441,32.81941],[-90.7268,32.81961],[-90.72837,32.81862],[-90.72809,32.81567],[-90.73013,32.815],[-90.72966,32.81355],[-90.73184,32.81245],[-90.73296,32.80998],[-90.73589,32.80982],[-90.73939,32.80895],[-90.74102,32.80913],[-90.74378,32.81195],[-90.74435,32.81431],[-90.74709,32.81737],[-90.7501,32.8183],[-90.75399,32.81799],[-90.75963,32.81401],[-90.75975,32.83567],[-90.70679,32.87859],[-90.70654,32.87913],[-90.69827,32.88627],[-90.65671,32.92251],[-90.65663,32.92251],[-90.63477,32.92273],[-90.63369,32.92286],[-90.61594,32.92264],[-90.61014,32.92284],[-90.60387,32.92257],[-90.59365,32.92258],[-90.57512,32.92265],[-90.54547,32.9231],[-90.51847,32.92294],[-90.46393,32.92327],[-90.44989,32.92329],[-90.44932,33.00901],[-90.36404,33.00987],[-90.36403,33.0106],[-90.35818,33.01106],[-90.35491,33.01198],[-90.35386,33.01207],[-90.35136,33.01442],[-90.35052,33.01872],[-90.34946,33.02062],[-90.34622,33.02238],[-90.34335,33.0219],[-90.3424,33.02117],[-90.33945,33.01697],[-90.33704,33.01409],[-90.33679,33.01254],[-90.33834,33.01013],[-90.32172,33.00435],[-90.31621,33.00243],[-90.30764,33.00013],[-90.29319,32.99535],[-90.27374,32.98792],[-90.22278,32.96997],[-90.11063,32.93031],[-90.09922,32.92631],[-90.01628,32.89721],[-89.98121,32.88494],[-89.96588,32.87957],[-89.87058,32.87951],[-89.83954,32.8797],[-89.84042,32.88541],[-89.78538,32.88516],[-89.7766,32.88535],[-89.77436,32.88509],[-89.73002,32.88507],[-89.72995,32.81137],[-89.72993,32.77431],[-89.73004,32.75476],[-89.72992,32.75417],[-89.7299,32.74396],[-89.73019,32.7411],[-89.72993,32.73689],[-89.7301,32.69734],[-89.73014,32.68512],[-89.7303,32.63423],[-89.73151,32.63377],[-89.73614,32.63311],[-89.73634,32.63161],[-89.73567,32.63051],[-89.73689,32.62989],[-89.73944,32.62994],[-89.74107,32.62587],[-89.74698,32.62306],[-89.74832,32.62086],[-89.7516,32.62013],[-89.75538,32.61708],[-89.75708,32.61481],[-89.75915,32.61354],[-89.75978,32.6096],[-89.7613,32.6067],[-89.76347,32.60614],[-89.76591,32.6081],[-89.77091,32.60615],[-89.77144,32.60432],[-89.7686,32.60366],[-89.76733,32.60269],[-89.76709,32.60159],[-89.76864,32.59996],[-89.77078,32.59918],[-89.7818,32.59736],[-89.78287,32.59658],[-89.78283,32.59509],[-89.78146,32.59416],[-89.78113,32.59267],[-89.78125,32.58979],[-89.78412,32.58689],[-89.77354,32.54392],[-89.77322,32.54301],[-89.76974,32.52723],[-89.75644,32.46939],[-89.75642,32.46912],[-89.75603,32.46747],[-89.74101,32.40128],[-89.74053,32.39916],[-89.73975,32.39577],[-89.73347,32.3684],[-89.7331,32.36633],[-89.73006,32.35273],[-89.72982,32.33528],[-89.72986,32.32956],[-89.72988,32.32514],[-89.72986,32.32126],[-89.72997,32.29668],[-89.72997,32.29612],[-89.72997,32.29601],[-89.73008,32.27335],[-89.73019,32.25015],[-89.73042,32.22204],[-89.73106,32.22195],[-89.73122,32.16488],[-89.73115,32.13429],[-89.72975,32.13428],[-89.72973,32.1114],[-89.73007,32.04707],[-89.67116,32.0472],[-89.66209,32.04724],[-89.65443,32.01368],[-89.65441,32.00628],[-89.65446,32.00016],[-89.65465,31.99844],[-89.65479,31.91474],[-89.65474,31.87679],[-89.65473,31.87238],[-89.65479,31.84338],[-89.6545,31.78375],[-89.65305,31.78373],[-89.65302,31.78065],[-89.66189,31.78011],[-89.66304,31.78013],[-89.67914,31.77937],[-89.68052,31.77931],[-89.68083,31.7793],[-89.68324,31.77919],[-89.71463,31.77678],[-89.7551,31.77465],[-89.77958,31.77315],[-89.8556,31.76844],[-89.87593,31.76732],[-89.87975,31.76691],[-89.93675,31.76385],[-89.95738,31.7627],[-89.97459,31.76166],[-90.12256,31.75268],[-90.1231,31.75197],[-90.12638,31.75248],[-90.12836,31.75446],[-90.13127,31.75605],[-90.13754,31.75262],[-90.14096,31.75016],[-90.1436,31.74716],[-90.1479,31.74635],[-90.15447,31.74714],[-90.15687,31.74569],[-90.15968,31.7455],[-90.16371,31.74414],[-90.16771,31.74059],[-90.1726,31.73976],[-90.17823,31.73652],[-90.18127,31.73291],[-90.18414,31.73146],[-90.18884,31.73017],[-90.19174,31.72991],[-90.19388,31.72909],[-90.19542,31.72791],[-90.20356,31.72584],[-90.20655,31.72542],[-90.21411,31.72574],[-90.21768,31.72436],[-90.22068,31.72427],[-90.22407,31.72314],[-90.2261,31.72372],[-90.22992,31.72373],[-90.23662,31.72081],[-90.2388,31.72048],[-90.24216,31.71864],[-90.24519,31.71752],[-90.24576,31.71752],[-90.25147,31.71324],[-90.25494,31.71009],[-90.259,31.70392],[-90.26129,31.70429],[-90.26362,31.70391],[-90.26525,31.70434],[-90.26905,31.70452],[-90.2724,31.70422],[-90.27785,31.70073],[-90.27995,31.69986],[-90.37208,31.70026],[-90.37523,31.70027],[-90.3793,31.70025],[-90.37937,31.70025],[-90.38008,31.70021],[-90.37941,31.68519],[-90.39738,31.68522],[-90.4025,31.68526],[-90.40347,31.68527],[-90.40857,31.68531],[-90.40875,31.68531],[-90.41364,31.68528],[-90.41412,31.69835],[-90.4142,31.70046],[-90.41965,31.70048],[-90.44719,31.70069],[-90.44727,31.69926],[-90.45144,31.69925],[-90.46336,31.69916],[-90.49746,31.69907],[-90.54855,31.69882],[-90.56224,31.69832],[-90.59402,31.69837],[-90.71915,31.69845],[-90.72092,31.69831],[-90.73682,31.69849],[-90.73628,31.78613],[-90.73611,31.8013],[-90.73565,31.81549],[-90.733,31.82998]]]}}]}