{"type":"FeatureCollection","features":[{"type":"Feature","properties":{"name":"Fremont Transit Program","boundary_type":"buffered","source":"Census TIGER unit + service radius","fidelity":"approximate","updated":"2026-09","units":"Fremont city; +3.22 km radius","note":"Service extends 2 miles beyond Fremont city limits in Dodge County.","confidence":0.9},"geometry":{"type":"Polygon","coordinates":[[[-96.57205,41.46868],[-96.5686,41.47371],[-96.5639,41.47814],[-96.55815,41.4818],[-96.55656,41.48247],[-96.55609,41.48286],[-96.55007,41.48618],[-96.54331,41.48856],[-96.53607,41.48993],[-96.52861,41.49023],[-96.52611,41.48996],[-96.52149,41.49029],[-96.51898,41.49185],[-96.51491,41.4935],[-96.51328,41.49481],[-96.50764,41.49793],[-96.50135,41.50023],[-96.49461,41.50164],[-96.48763,41.50212],[-96.48292,41.50211],[-96.47541,41.50156],[-96.46819,41.49992],[-96.46153,41.49726],[-96.45569,41.49368],[-96.45323,41.49144],[-96.45021,41.49101],[-96.44966,41.49088],[-96.44776,41.4908],[-96.44015,41.48929],[-96.4331,41.48665],[-96.42691,41.48299],[-96.42185,41.47847],[-96.42119,41.47756],[-96.4206,41.47718],[-96.41609,41.47528],[-96.41045,41.47168],[-96.40583,41.46734],[-96.4024,41.46242],[-96.40029,41.4571],[-96.39957,41.45158],[-96.40027,41.44605],[-96.40177,41.44224],[-96.40097,41.43832],[-96.40126,41.43282],[-96.40293,41.42747],[-96.40576,41.42271],[-96.40622,41.41741],[-96.40704,41.41373],[-96.40908,41.40812],[-96.41258,41.40293],[-96.41739,41.39837],[-96.42332,41.39462],[-96.43013,41.39184],[-96.43455,41.39082],[-96.43642,41.38818],[-96.44115,41.38381],[-96.44691,41.38022],[-96.4535,41.37753],[-96.46065,41.37584],[-96.4681,41.37522],[-96.47557,41.3757],[-96.48278,41.37725],[-96.48757,41.37867],[-96.49214,41.38044],[-96.49452,41.38094],[-96.50139,41.3836],[-96.50524,41.38548],[-96.50704,41.38579],[-96.51388,41.38806],[-96.52001,41.39128],[-96.52072,41.39183],[-96.52198,41.39213],[-96.52859,41.39481],[-96.53438,41.39841],[-96.53913,41.40278],[-96.54266,41.40776],[-96.54484,41.41315],[-96.54498,41.41427],[-96.54512,41.41433],[-96.54578,41.41479],[-96.55173,41.41625],[-96.55648,41.41781],[-96.56295,41.42053],[-96.56861,41.42412],[-96.57325,41.42845],[-96.5767,41.43337],[-96.57883,41.4387],[-96.57956,41.44423],[-96.57958,41.45133],[-96.57886,41.45696],[-96.57669,41.46238],[-96.57316,41.46738],[-96.57234,41.46813],[-96.57205,41.46868]]]}},{"type":"Feature","properties":{"name":"Micro Flex","boundary_type":"city","source":"Census TIGER place","fidelity":"approximate","updated":"2026-09","units":"Omaha city","note":"Service operates in three designated zones (North, South, West) within Omaha city limits; exact zone boundaries not specified.","confidence":0.85},"geometry":{"type":"Polygon","coordinates":[[[-96.26803,41.29508],[-96.25758,41.29481],[-96.25412,41.2934],[-96.25374,41.29433],[-96.25374,41.29425],[-96.25182,41.29275],[-96.25277,41.29569],[-96.24557,41.29825],[-96.24352,41.29718],[-96.24352,41.29711],[-96.24058,41.29632],[-96.23859,41.29729],[-96.2344,41.29729],[-96.23415,41.29218],[-96.23218,41.29214],[-96.23109,41.29226],[-96.21815,41.29243],[-96.21168,41.29226],[-96.19666,41.29235],[-96.19183,41.29235],[-96.19175,41.29933],[-96.18692,41.29931],[-96.18686,41.29251],[-96.1819,41.29253],[-96.18185,41.29567],[-96.17756,41.29577],[-96.17735,41.2993],[-96.16461,41.29931],[-96.16293,41.29931],[-96.16285,41.30654],[-96.15805,41.30655],[-96.15369,41.30656],[-96.14428,41.30659],[-96.14364,41.30659],[-96.14364,41.30839],[-96.14006,41.31202],[-96.14006,41.31384],[-96.14496,41.3165],[-96.14369,41.31747],[-96.14611,41.3211],[-96.14855,41.32109],[-96.15034,41.32308],[-96.15004,41.32466],[-96.15193,41.32646],[-96.1546,41.32711],[-96.15478,41.32832],[-96.15096,41.32832],[-96.1463,41.32365],[-96.14325,41.32305],[-96.14351,41.3211],[-96.1425,41.3211],[-96.14007,41.31934],[-96.13996,41.3177],[-96.13886,41.3177],[-96.13707,41.31771],[-96.13525,41.31566],[-96.12926,41.31841],[-96.12567,41.31931],[-96.11969,41.3193],[-96.11966,41.31387],[-96.11335,41.31388],[-96.1102,41.31569],[-96.10654,41.3157],[-96.10436,41.30662],[-96.10083,41.30661],[-96.10058,41.31389],[-96.09099,41.3139],[-96.09096,41.31755],[-96.09545,41.31816],[-96.10052,41.31878],[-96.10049,41.32115],[-96.09258,41.32115],[-96.09093,41.32113],[-96.08129,41.32117],[-96.07819,41.32116],[-96.07599,41.32118],[-96.075,41.32133],[-96.07101,41.32063],[-96.07096,41.32374],[-96.07178,41.32456],[-96.07178,41.32482],[-96.06614,41.32545],[-96.06309,41.32747],[-96.05733,41.33145],[-96.05067,41.33342],[-96.05094,41.33559],[-96.05736,41.33568],[-96.05736,41.34111],[-96.06216,41.3411],[-96.06215,41.34473],[-96.05856,41.34543],[-96.05855,41.34657],[-96.05955,41.34731],[-96.06034,41.35007],[-96.06215,41.35007],[-96.06214,41.35172],[-96.06226,41.35376],[-96.06679,41.35375],[-96.0668,41.35737],[-96.0621,41.3574],[-96.05871,41.35742],[-96.06153,41.36104],[-96.05974,41.36104],[-96.05975,41.36299],[-96.05817,41.36252],[-96.057,41.3647],[-96.06216,41.36498],[-96.06216,41.36503],[-96.0629,41.36511],[-96.07188,41.37001],[-96.07193,41.37189],[-96.06702,41.3719],[-96.06701,41.371],[-96.06207,41.36826],[-96.05976,41.36825],[-96.05979,41.37095],[-96.06103,41.37373],[-96.05982,41.375],[-96.05987,41.37681],[-96.05868,41.37729],[-96.05869,41.38094],[-96.0599,41.38275],[-96.0581,41.38366],[-96.05811,41.38638],[-96.05992,41.38909],[-96.05752,41.3891],[-96.05692,41.39],[-96.05694,41.39315],[-96.05255,41.39315],[-96.05251,41.37932],[-96.05387,41.37821],[-96.05374,41.37373],[-96.05496,41.37278],[-96.05372,41.3719],[-96.05376,41.36824],[-96.05254,41.36824],[-96.05251,41.36501],[-96.0466,41.36477],[-96.04898,41.35924],[-96.05138,41.35833],[-96.05139,41.35561],[-96.04899,41.35471],[-96.0478,41.35289],[-96.05079,41.35244],[-96.05139,41.35016],[-96.04958,41.34655],[-96.04956,41.34385],[-96.04717,41.34385],[-96.04599,41.34657],[-96.04418,41.34563],[-96.043,41.34662],[-96.04307,41.35018],[-96.03646,41.35018],[-96.0382,41.3466],[-96.03821,41.34295],[-96.02862,41.34295],[-96.02859,41.34052],[-96.02544,41.34292],[-96.02403,41.34292],[-96.02384,41.34467],[-96.02338,41.34325],[-96.01905,41.34349],[-96.012,41.34661],[-96.00779,41.34705],[-96.00471,41.34669],[-96.00103,41.34672],[-95.99318,41.34747],[-95.99308,41.34992],[-95.98236,41.3501],[-95.98193,41.35155],[-95.98046,41.34957],[-95.97674,41.34682],[-95.97334,41.34637],[-95.97337,41.35258],[-95.97166,41.35378],[-95.96858,41.35375],[-95.96603,41.35305],[-95.96609,41.3573],[-95.96334,41.35728],[-95.96334,41.35557],[-95.96129,41.35554],[-95.96167,41.37181],[-95.9593,41.37183],[-95.95932,41.37367],[-95.96639,41.37362],[-95.96647,41.3766],[-95.96005,41.37618],[-95.95752,41.3769],[-95.95629,41.37657],[-95.95287,41.37413],[-95.95429,41.36976],[-95.95785,41.36468],[-95.93095,41.36481],[-95.93099,41.3647],[-95.93549,41.3606],[-95.94099,41.3575],[-95.95219,41.3535],[-95.95489,41.3518],[-95.95679,41.3492],[-95.9567,41.3458],[-95.95669,41.34561],[-95.95669,41.3455],[-95.95309,41.3399],[-95.94689,41.3341],[-95.94323,41.33159],[-95.93937,41.32895],[-95.93929,41.3289],[-95.92694,41.32281],[-95.92569,41.3222],[-95.92209,41.3211],[-95.91379,41.3202],[-95.91275,41.32027],[-95.89929,41.3212],[-95.88869,41.3191],[-95.88309,41.3167],[-95.87819,41.3125],[-95.87469,41.3071],[-95.87149,41.2958],[-95.87273,41.29022],[-95.87288,41.28952],[-95.87289,41.2895],[-95.87689,41.2851],[-95.88239,41.2814],[-95.89096,41.27798],[-95.90249,41.2734],[-95.90385,41.27423],[-95.91249,41.2795],[-95.9093,41.28494],[-95.90876,41.28587],[-95.90429,41.2935],[-95.90429,41.29759],[-95.90429,41.2996],[-95.90589,41.3009],[-95.92029,41.3011],[-95.92237,41.30032],[-95.92749,41.2984],[-95.92959,41.2923],[-95.92959,41.2851],[-95.92959,41.28508],[-95.92869,41.2814],[-95.91823,41.27428],[-95.91454,41.27177],[-95.91399,41.2714],[-95.91879,41.2697],[-95.92039,41.2684],[-95.92189,41.2646],[-95.92141,41.25973],[-95.92141,41.25971],[-95.92129,41.2585],[-95.91709,41.24979],[-95.91637,41.2483],[-95.91391,41.24322],[-95.91139,41.238],[-95.91089,41.234],[-95.91089,41.23189],[-95.91089,41.2318],[-95.91095,41.23163],[-95.91096,41.2316],[-95.91259,41.227],[-95.91509,41.223],[-95.92466,41.21148],[-95.92489,41.2112],[-95.92495,41.21098],[-95.92749,41.2022],[-95.92748,41.20217],[-95.92599,41.1957],[-95.92331,41.1912],[-95.92606,41.19098],[-95.93346,41.19098],[-95.93684,41.19097],[-95.93975,41.19099],[-95.94793,41.19095],[-95.95283,41.1909],[-95.95769,41.19088],[-95.9674,41.19085],[-95.97701,41.1908],[-95.9819,41.19078],[-95.98662,41.19076],[-95.99201,41.19073],[-96.00462,41.19067],[-96.00624,41.19067],[-96.00926,41.1907],[-96.01901,41.19071],[-96.02381,41.1907],[-96.02377,41.19344],[-96.02379,41.19905],[-96.02381,41.20206],[-96.02377,41.20528],[-96.02378,41.2089],[-96.02852,41.20892],[-96.02854,41.2124],[-96.04301,41.21229],[-96.04302,41.20896],[-96.043,41.2053],[-96.04312,41.20086],[-96.04534,41.20517],[-96.04543,41.20163],[-96.05225,41.20177],[-96.05228,41.19808],[-96.0477,41.19806],[-96.04764,41.20135],[-96.04497,41.20135],[-96.04303,41.20059],[-96.04302,41.19856],[-96.04302,41.19839],[-96.04345,41.19443],[-96.05241,41.19438],[-96.05187,41.1907],[-96.05746,41.1907],[-96.0619,41.1907],[-96.06678,41.1907],[-96.07146,41.19073],[-96.0765,41.19075],[-96.0814,41.19076],[-96.08858,41.19073],[-96.10129,41.19059],[-96.10228,41.1906],[-96.11022,41.19066],[-96.11046,41.19066],[-96.1196,41.19059],[-96.12922,41.19073],[-96.13178,41.19075],[-96.13883,41.19081],[-96.14804,41.19079],[-96.14856,41.19079],[-96.14919,41.19079],[-96.15191,41.19079],[-96.15833,41.19076],[-96.169,41.19067],[-96.17431,41.19065],[-96.17752,41.19062],[-96.18401,41.19063],[-96.18709,41.19063],[-96.18938,41.19063],[-96.19668,41.19065],[-96.20619,41.19057],[-96.20612,41.19636],[-96.20604,41.20378],[-96.2067,41.20511],[-96.20604,41.20511],[-96.20598,41.21231],[-96.21065,41.21236],[-96.21067,41.2141],[-96.21552,41.21408],[-96.2155,41.21936],[-96.21102,41.21937],[-96.20592,41.21939],[-96.20586,41.22666],[-96.21004,41.22665],[-96.21548,41.22662],[-96.21571,41.23393],[-96.21569,41.24108],[-96.21615,41.24104],[-96.21631,41.24115],[-96.22479,41.24112],[-96.22499,41.24287],[-96.22805,41.24483],[-96.23083,41.24479],[-96.23281,41.24356],[-96.23442,41.24348],[-96.23462,41.24808],[-96.24768,41.24821],[-96.24743,41.24109],[-96.24876,41.24109],[-96.24875,41.23747],[-96.25099,41.23858],[-96.25238,41.24109],[-96.25356,41.2411],[-96.25357,41.24473],[-96.25882,41.24473],[-96.25954,41.24514],[-96.26556,41.24571],[-96.26511,41.24847],[-96.26362,41.25108],[-96.26313,41.25172],[-96.25896,41.25619],[-96.25921,41.25929],[-96.25832,41.25933],[-96.25833,41.26168],[-96.25657,41.26368],[-96.25678,41.26655],[-96.25984,41.26658],[-96.25984,41.26839],[-96.25359,41.26834],[-96.25367,41.27748],[-96.24393,41.27731],[-96.2418,41.27756],[-96.24117,41.28093],[-96.23926,41.28088],[-96.23927,41.28258],[-96.24532,41.28444],[-96.2472,41.28474],[-96.25373,41.28463],[-96.25372,41.28321],[-96.2585,41.28152],[-96.2585,41.28726],[-96.26141,41.2873],[-96.26143,41.29199],[-96.26808,41.29207],[-96.26804,41.2947],[-96.26803,41.29508]],[[-96.23926,41.26825],[-96.23927,41.26971],[-96.2371,41.27044],[-96.23777,41.27386],[-96.23487,41.27395],[-96.23522,41.27731],[-96.23988,41.27733],[-96.24174,41.27733],[-96.24376,41.27552],[-96.24403,41.26831],[-96.23926,41.26825]],[[-96.23301,41.28146],[-96.233,41.28096],[-96.23299,41.28084],[-96.2316,41.28075],[-96.21866,41.27761],[-96.21941,41.27831],[-96.21911,41.27882],[-96.22187,41.28084],[-96.22254,41.27999],[-96.22465,41.28162],[-96.22686,41.28211],[-96.23085,41.28143],[-96.23085,41.28232],[-96.23177,41.28232],[-96.2326,41.28255],[-96.23339,41.28304],[-96.23402,41.28309],[-96.23402,41.28279],[-96.2339,41.28193],[-96.23434,41.28171],[-96.23301,41.28146]],[[-96.2321,41.28259],[-96.22647,41.28304],[-96.22667,41.28384],[-96.22221,41.28388],[-96.22222,41.28468],[-96.22105,41.28469],[-96.21584,41.28474],[-96.21587,41.28838],[-96.21516,41.28836],[-96.21106,41.28839],[-96.21094,41.2775],[-96.21565,41.27746],[-96.21564,41.2766],[-96.20921,41.27568],[-96.20212,41.2753],[-96.20481,41.27493],[-96.20686,41.27381],[-96.2149,41.27474],[-96.21564,41.27429],[-96.21543,41.26659],[-96.21068,41.26725],[-96.21083,41.26337],[-96.20603,41.26343],[-96.20606,41.26675],[-96.2039,41.26734],[-96.1994,41.27055],[-96.19647,41.27062],[-96.1965,41.27326],[-96.1963,41.27439],[-96.17966,41.26504],[-96.17867,41.26563],[-96.1773,41.26692],[-96.17737,41.27736],[-96.187,41.2774],[-96.18713,41.27755],[-96.19096,41.27755],[-96.19102,41.28479],[-96.1908,41.28509],[-96.19088,41.29163],[-96.19654,41.29148],[-96.20347,41.29124],[-96.2049,41.29156],[-96.21495,41.29146],[-96.21587,41.29167],[-96.21656,41.29178],[-96.22314,41.29165],[-96.22536,41.29171],[-96.2255,41.28464],[-96.23302,41.28457],[-96.23374,41.28374],[-96.2321,41.28259]],[[-96.22959,41.27737],[-96.22543,41.2774],[-96.22544,41.2775],[-96.22547,41.27925],[-96.23164,41.28057],[-96.23232,41.27967],[-96.23236,41.27732],[-96.22959,41.27737]],[[-96.22543,41.27724],[-96.22507,41.27423],[-96.22519,41.26675],[-96.22329,41.27065],[-96.22176,41.27068],[-96.21788,41.27448],[-96.22164,41.27719],[-96.2228,41.27742],[-96.22543,41.2774],[-96.22543,41.27724]],[[-96.21822,41.25908],[-96.21602,41.25946],[-96.21593,41.2609],[-96.22044,41.26087],[-96.22012,41.25921],[-96.21822,41.25908]],[[-96.21902,41.25363],[-96.21799,41.25235],[-96.2157,41.25254],[-96.21574,41.25568],[-96.22037,41.25565],[-96.22034,41.25299],[-96.21902,41.25363]],[[-96.2159,41.26838],[-96.21596,41.27021],[-96.21866,41.26925],[-96.219,41.26852],[-96.21894,41.26836],[-96.2159,41.26838]],[[-96.2059,41.24852],[-96.20592,41.25139],[-96.20353,41.25195],[-96.20346,41.24854],[-96.20109,41.24856],[-96.20111,41.2521],[-96.19658,41.25212],[-96.19661,41.25756],[-96.19824,41.25756],[-96.20594,41.25754],[-96.20592,41.25572],[-96.21537,41.25568],[-96.21536,41.25353],[-96.21554,41.25343],[-96.21549,41.2485],[-96.2059,41.24852]],[[-96.20707,41.25924],[-96.20631,41.2597],[-96.20601,41.26245],[-96.21138,41.26249],[-96.2113,41.25932],[-96.20707,41.25924]],[[-96.16785,41.27767],[-96.1672,41.27877],[-96.16636,41.27972],[-96.16735,41.28028],[-96.16743,41.28041],[-96.16728,41.28075],[-96.16733,41.28089],[-96.16757,41.28116],[-96.16756,41.28131],[-96.16732,41.28138],[-96.16719,41.28133],[-96.16707,41.28146],[-96.16716,41.28182],[-96.16713,41.28238],[-96.16719,41.28252],[-96.16755,41.28289],[-96.16777,41.28303],[-96.16784,41.28323],[-96.16779,41.28351],[-96.16765,41.28366],[-96.16827,41.28402],[-96.16857,41.28465],[-96.1702,41.28478],[-96.17008,41.28616],[-96.17001,41.28816],[-96.16969,41.29185],[-96.17381,41.29174],[-96.1771,41.29183],[-96.17703,41.27764],[-96.16785,41.27767]],[[-96.15297,41.24129],[-96.13883,41.24135],[-96.13886,41.24848],[-96.1437,41.24848],[-96.15133,41.24849],[-96.153,41.24849],[-96.15299,41.24491],[-96.15297,41.24129]],[[-96.14824,41.24864],[-96.14343,41.24871],[-96.14347,41.2531],[-96.13866,41.25308],[-96.13843,41.24893],[-96.13677,41.24871],[-96.11975,41.2488],[-96.1197,41.25597],[-96.12008,41.26202],[-96.12241,41.26288],[-96.12706,41.26297],[-96.1364,41.26279],[-96.13871,41.2622],[-96.1435,41.26281],[-96.14623,41.26269],[-96.14773,41.26192],[-96.14837,41.26159],[-96.14831,41.25606],[-96.14824,41.24864]],[[-96.13038,41.27775],[-96.12932,41.27764],[-96.1244,41.27764],[-96.12441,41.28489],[-96.13049,41.28491],[-96.13399,41.28491],[-96.134,41.27775],[-96.13038,41.27775]],[[-96.0991,41.27311],[-96.1004,41.27021],[-96.09764,41.27003],[-96.09263,41.27134],[-96.09123,41.26723],[-96.08796,41.26716],[-96.0948,41.27748],[-96.09903,41.27745],[-96.1004,41.27669],[-96.1004,41.27313],[-96.0991,41.27311]],[[-96.06304,41.32528],[-96.06227,41.3248],[-96.05895,41.32478],[-96.05731,41.32365],[-96.05736,41.32118],[-96.06221,41.32109],[-96.06222,41.31861],[-96.06083,41.31754],[-96.05631,41.3153],[-96.05248,41.31517],[-96.04766,41.31162],[-96.04686,41.31501],[-96.0459,41.31607],[-96.04504,41.3172],[-96.04176,41.31898],[-96.03604,41.31894],[-96.03598,41.3206],[-96.03813,41.32057],[-96.03813,41.32118],[-96.03813,41.32331],[-96.03997,41.32333],[-96.03968,41.32758],[-96.04086,41.3288],[-96.03841,41.33027],[-96.03337,41.33027],[-96.03324,41.32484],[-96.02417,41.32501],[-96.02404,41.33553],[-96.03338,41.33563],[-96.03915,41.33559],[-96.0399,41.3355],[-96.04991,41.33237],[-96.05256,41.33152],[-96.05944,41.32841],[-96.0621,41.32683],[-96.06359,41.32581],[-96.0631,41.32574],[-96.06304,41.32528]],[[-96.05949,41.31392],[-96.05913,41.31204],[-96.05735,41.31141],[-96.05727,41.31394],[-96.05562,41.31393],[-96.05947,41.31576],[-96.06222,41.3172],[-96.06223,41.31392],[-96.05949,41.31392]],[[-96.05001,41.33359],[-96.04338,41.33559],[-96.0492,41.33558],[-96.05038,41.33559],[-96.05035,41.33464],[-96.05001,41.33359]],[[-96.03804,41.30681],[-96.03783,41.30736],[-96.03884,41.30818],[-96.04175,41.30971],[-96.04209,41.30959],[-96.04439,41.31012],[-96.04596,41.31064],[-96.04611,41.31038],[-96.04695,41.31029],[-96.04783,41.31056],[-96.04912,41.30683],[-96.03804,41.30681]],[[-96.00481,41.33579],[-96.00482,41.34565],[-96.01119,41.34491],[-96.01763,41.3429],[-96.0233,41.33989],[-96.02346,41.33584],[-96.00481,41.33579]]]}},{"type":"Feature","properties":{"name":"Neligh Dial-A-Ride Public Transportation","boundary_type":"city","source":"Census TIGER place","fidelity":"approximate","updated":"2026-09","units":"Neligh city","note":"Service covers City of Neligh and surrounding Antelope County communities; specific surrounding communities not named.","confidence":0.7},"geometry":{"type":"Polygon","coordinates":[[[-98.04534,42.13933],[-98.03814,42.13884],[-98.03817,42.14081],[-98.03681,42.14081],[-98.03784,42.13811],[-98.03379,42.13827],[-98.03231,42.13879],[-98.02852,42.1387],[-98.02857,42.13364],[-98.0277,42.13362],[-98.02583,42.13284],[-98.01877,42.13283],[-98.01878,42.13065],[-98.01721,42.13065],[-98.01719,42.12756],[-98.01613,42.12757],[-98.01646,42.12377],[-98.01349,42.12369],[-98.01287,42.12205],[-98.01586,42.12208],[-98.01619,42.11765],[-98.01472,42.11766],[-98.00904,42.11198],[-98.0091,42.10952],[-98.01563,42.11516],[-98.01797,42.11518],[-98.01707,42.11763],[-98.01973,42.12037],[-98.02617,42.12047],[-98.02745,42.12189],[-98.0298,42.12188],[-98.03161,42.1219],[-98.03393,42.1219],[-98.0338,42.12483],[-98.03691,42.12431],[-98.03801,42.12344],[-98.03797,42.12577],[-98.04152,42.12576],[-98.03868,42.1285],[-98.03799,42.13095],[-98.04167,42.13272],[-98.04783,42.13273],[-98.04793,42.13783],[-98.0522,42.14085],[-98.05007,42.14232],[-98.04534,42.13933]]]}},{"type":"Feature","properties":{"name":"North Platte Public Transit","boundary_type":"buffered","source":"Census TIGER unit + service radius","fidelity":"approximate","updated":"2026-09","units":"North Platte city; +32.19 km radius","note":"Service extends 20 miles beyond North Platte city limits; includes Lake Maloney, Indian Hills, Sutherland, Hershey, Maxwell.","confidence":0.85},"geometry":{"type":"Polygon","coordinates":[[[-101.19219,41.18547],[-101.19034,41.18982],[-101.18915,41.19815],[-101.1701,41.24023],[-101.16825,41.24636],[-101.16432,41.25299],[-101.16174,41.25869],[-101.15839,41.26405],[-101.15575,41.26744],[-101.14561,41.28452],[-101.14661,41.28489],[-101.14419,41.28865],[-101.14397,41.28899],[-101.14219,41.29175],[-101.13908,41.29551],[-101.13732,41.29848],[-101.13443,41.30229],[-101.13373,41.30199],[-101.10002,41.3428],[-101.04474,41.38617],[-100.97875,41.42],[-100.90491,41.44282],[-100.82639,41.45363],[-100.7466,41.45199],[-100.66899,41.43795],[-100.66359,41.43651],[-100.65424,41.43319],[-100.60747,41.42256],[-100.60519,41.42187],[-100.54072,41.3966],[-100.48373,41.36262],[-100.46974,41.35041],[-100.43617,41.32873],[-100.43097,41.32381],[-100.42958,41.32295],[-100.38228,41.27934],[-100.34709,41.22966],[-100.32536,41.17578],[-100.3179,41.11975],[-100.32499,41.06369],[-100.34638,41.00973],[-100.36969,40.97643],[-100.37297,40.97012],[-100.37996,40.96176],[-100.38124,40.95992],[-100.38236,40.95888],[-100.40187,40.93551],[-100.40587,40.92986],[-100.40898,40.92699],[-100.41122,40.92431],[-100.41678,40.9198],[-100.4532,40.88623],[-100.51086,40.85033],[-100.57668,40.82355],[-100.64814,40.80688],[-100.72253,40.80097],[-100.7405,40.80087],[-100.74855,40.80142],[-100.75601,40.80089],[-100.7761,40.80102],[-100.84217,40.80577],[-100.90617,40.81902],[-100.96618,40.84038],[-101.02041,40.8692],[-101.02289,40.87078],[-101.06366,40.90301],[-101.08404,40.91526],[-101.0864,40.91702],[-101.13461,40.96083],[-101.17049,41.0109],[-101.19266,41.06529],[-101.20026,41.1219],[-101.20027,41.12426],[-101.20027,41.12586],[-101.19219,41.18547]]]}},{"type":"Feature","properties":{"name":"TeleLift (North Fork Area Transit)","boundary_type":"city","source":"Census TIGER place","fidelity":"approximate","updated":"2026-09","units":"Norfolk city","note":"As of July 2025, service reduced to Norfolk city limits; previously served Norfolk, Madison, Meadow Grove, Newman Grove, and Battle Creek.","confidence":0.9},"geometry":{"type":"Polygon","coordinates":[[[-97.4872,42.03228],[-97.48723,42.02869],[-97.4865,42.02869],[-97.48647,42.03228],[-97.48476,42.03228],[-97.48482,42.03952],[-97.47519,42.03968],[-97.4752,42.03604],[-97.47056,42.03611],[-97.47054,42.03794],[-97.46919,42.03796],[-97.46918,42.03977],[-97.47046,42.03975],[-97.47042,42.04314],[-97.46569,42.04322],[-97.46569,42.05438],[-97.46066,42.05436],[-97.46071,42.05799],[-97.46071,42.05804],[-97.46072,42.06163],[-97.45954,42.06007],[-97.45773,42.06007],[-97.45772,42.05799],[-97.4509,42.05796],[-97.4509,42.06032],[-97.44606,42.06031],[-97.44602,42.06159],[-97.42673,42.06166],[-97.42566,42.06144],[-97.41923,42.06099],[-97.41722,42.06033],[-97.41722,42.05915],[-97.41704,42.05967],[-97.41689,42.06124],[-97.40583,42.05513],[-97.40437,42.05212],[-97.40326,42.05127],[-97.40018,42.0552],[-97.39608,42.0621],[-97.38754,42.06222],[-97.38756,42.04744],[-97.3829,42.04744],[-97.38288,42.04389],[-97.37998,42.04389],[-97.37908,42.04651],[-97.38191,42.04638],[-97.3819,42.04744],[-97.37801,42.04744],[-97.37799,42.04385],[-97.37317,42.04387],[-97.37284,42.04276],[-97.36852,42.04714],[-97.36806,42.04705],[-97.36819,42.04018],[-97.3731,42.04018],[-97.37309,42.03661],[-97.36818,42.03661],[-97.36818,42.03298],[-97.3852,42.03297],[-97.38525,42.03115],[-97.38771,42.03115],[-97.38768,42.02933],[-97.38281,42.02934],[-97.38281,42.02571],[-97.38632,42.02567],[-97.38597,42.0247],[-97.38471,42.02463],[-97.38197,42.0225],[-97.38089,42.02071],[-97.38086,42.0185],[-97.38596,42.01771],[-97.3853,42.01548],[-97.38357,42.0148],[-97.38661,42.01479],[-97.38766,42.01573],[-97.39975,42.01524],[-97.40084,42.01466],[-97.40084,42.01158],[-97.40109,42.01465],[-97.4069,42.01461],[-97.4069,42.01271],[-97.40217,42.01275],[-97.40198,42.01114],[-97.39736,42.01107],[-97.4029,42.01093],[-97.40238,42.0074],[-97.4046,42.00738],[-97.40462,42.011],[-97.40704,42.01096],[-97.40703,42.00995],[-97.40721,41.98925],[-97.40971,41.98923],[-97.4097,41.99015],[-97.41205,41.99013],[-97.41206,41.98922],[-97.41777,41.9892],[-97.41772,41.99281],[-97.41832,41.99467],[-97.41939,41.99466],[-97.41939,41.9928],[-97.42661,41.99275],[-97.42663,41.98739],[-97.4257,41.98479],[-97.42662,41.98405],[-97.42663,41.97469],[-97.43146,41.97464],[-97.43144,41.9674],[-97.44112,41.96732],[-97.44112,41.96631],[-97.44354,41.96631],[-97.44358,41.97455],[-97.44106,41.97459],[-97.44111,41.98826],[-97.44197,41.98908],[-97.44601,41.98906],[-97.446,41.99143],[-97.44502,41.99628],[-97.43482,41.99647],[-97.43481,41.99679],[-97.43479,41.99881],[-97.4314,41.99881],[-97.43139,42.01075],[-97.43225,42.01485],[-97.42817,42.01489],[-97.42672,42.01436],[-97.42691,42.01765],[-97.43233,42.01801],[-97.46558,42.01789],[-97.46562,42.01067],[-97.47028,42.01066],[-97.47021,42.00704],[-97.47505,42.00704],[-97.47517,42.01428],[-97.48017,42.01427],[-97.48024,42.01782],[-97.4846,42.01779],[-97.48488,42.01779],[-97.48484,42.02238],[-97.48972,42.02239],[-97.48964,42.03229],[-97.4872,42.03228]],[[-97.42425,41.99368],[-97.42293,41.99369],[-97.42313,41.99463],[-97.42407,41.99512],[-97.42626,41.99462],[-97.42422,41.99463],[-97.42425,41.99368]],[[-97.41879,42.0149],[-97.41713,42.016],[-97.41672,42.01801],[-97.42024,42.01801],[-97.41998,42.01738],[-97.41879,42.0149]],[[-97.39851,42.01695],[-97.39733,42.01561],[-97.39734,42.01812],[-97.40085,42.0181],[-97.40088,42.01702],[-97.39851,42.01695]],[[-97.37301,42.04242],[-97.37554,42.04023],[-97.3731,42.04023],[-97.37301,42.04242]]]}},{"type":"Feature","properties":{"name":"VANLNK","boundary_type":"city","source":"Census TIGER place","fidelity":"exact","updated":"2026-09","units":"Lincoln city","note":"Door-to-door on-demand service throughout Lincoln city limits.","confidence":0.95},"geometry":{"type":"Polygon","coordinates":[[[-96.79734,40.84138],[-96.79733,40.84276],[-96.79697,40.84419],[-96.79612,40.84418],[-96.79607,40.85001],[-96.79771,40.85174],[-96.79707,40.85629],[-96.79602,40.85727],[-96.79597,40.86455],[-96.79591,40.87169],[-96.787,40.87168],[-96.787,40.8718],[-96.78226,40.87186],[-96.7822,40.87831],[-96.77746,40.87704],[-96.77632,40.87994],[-96.76483,40.87939],[-96.75907,40.87936],[-96.75883,40.87936],[-96.75895,40.88028],[-96.75824,40.88026],[-96.75592,40.87988],[-96.74878,40.87961],[-96.74873,40.88438],[-96.74393,40.88434],[-96.74384,40.88307],[-96.74042,40.88307],[-96.73935,40.88404],[-96.73933,40.88616],[-96.73899,40.88641],[-96.73166,40.88485],[-96.72984,40.88533],[-96.73071,40.88622],[-96.72004,40.88636],[-96.72005,40.88617],[-96.72017,40.87535],[-96.72019,40.87356],[-96.71183,40.87347],[-96.71063,40.87529],[-96.71065,40.87347],[-96.70825,40.87347],[-96.70821,40.87797],[-96.7106,40.87798],[-96.71053,40.88632],[-96.70067,40.88634],[-96.69447,40.88678],[-96.69277,40.88761],[-96.69142,40.88889],[-96.69139,40.89337],[-96.68762,40.89334],[-96.68252,40.89331],[-96.68181,40.8933],[-96.68103,40.88983],[-96.67863,40.88867],[-96.67698,40.88766],[-96.67606,40.88871],[-96.67483,40.88601],[-96.67449,40.88239],[-96.67209,40.88238],[-96.67165,40.87875],[-96.65313,40.87863],[-96.65312,40.88699],[-96.6511,40.887],[-96.65054,40.88845],[-96.64908,40.88816],[-96.64913,40.88896],[-96.64957,40.88895],[-96.64909,40.88984],[-96.6491,40.89294],[-96.65001,40.89295],[-96.65003,40.89623],[-96.66279,40.89637],[-96.66317,40.89694],[-96.6631,40.89968],[-96.66283,40.90026],[-96.6628,40.90404],[-96.6627,40.91489],[-96.6571,40.91484],[-96.65794,40.91123],[-96.64835,40.91114],[-96.64836,40.90753],[-96.64364,40.90749],[-96.64282,40.90749],[-96.64277,40.89951],[-96.64398,40.89946],[-96.64481,40.89861],[-96.64487,40.89703],[-96.64397,40.89312],[-96.64056,40.89586],[-96.63786,40.89637],[-96.63404,40.89637],[-96.63006,40.89634],[-96.62905,40.89399],[-96.62905,40.89299],[-96.63166,40.893],[-96.63166,40.89105],[-96.63403,40.89015],[-96.63721,40.89023],[-96.63758,40.88943],[-96.63882,40.88943],[-96.63885,40.88782],[-96.63403,40.88765],[-96.63403,40.88849],[-96.63166,40.88848],[-96.63166,40.8861],[-96.62767,40.88608],[-96.62708,40.88768],[-96.62701,40.89298],[-96.6245,40.89297],[-96.62451,40.88965],[-96.62163,40.88958],[-96.6217,40.89291],[-96.62097,40.89289],[-96.62099,40.88956],[-96.61327,40.88938],[-96.61323,40.88561],[-96.60535,40.88557],[-96.60523,40.88555],[-96.60523,40.88513],[-96.60535,40.88514],[-96.60764,40.88516],[-96.60771,40.88195],[-96.60774,40.88061],[-96.61974,40.88068],[-96.6198,40.87119],[-96.61436,40.87127],[-96.6125,40.87228],[-96.60689,40.87503],[-96.60549,40.87577],[-96.60442,40.87632],[-96.60249,40.87411],[-96.60243,40.87107],[-96.60559,40.8711],[-96.60565,40.86431],[-96.61995,40.86426],[-96.62006,40.85803],[-96.61049,40.8581],[-96.61043,40.86229],[-96.60567,40.86233],[-96.60572,40.85709],[-96.6001,40.8571],[-96.59612,40.85711],[-96.59296,40.85633],[-96.59343,40.85506],[-96.58979,40.85191],[-96.59143,40.84914],[-96.59147,40.84613],[-96.5888,40.84255],[-96.58879,40.84244],[-96.58907,40.84128],[-96.59631,40.84135],[-96.59633,40.83522],[-96.59042,40.83516],[-96.59042,40.83152],[-96.60115,40.83162],[-96.60117,40.82798],[-96.58689,40.82784],[-96.57422,40.82762],[-96.57108,40.82394],[-96.56765,40.82389],[-96.5677,40.82028],[-96.5725,40.82035],[-96.57254,40.81312],[-96.57626,40.81317],[-96.57737,40.81318],[-96.58029,40.81321],[-96.5822,40.81323],[-96.58678,40.81327],[-96.59044,40.8133],[-96.59173,40.81097],[-96.59355,40.81099],[-96.59386,40.80372],[-96.59309,40.80151],[-96.58677,40.80169],[-96.58666,40.79872],[-96.58697,40.79872],[-96.59293,40.79877],[-96.59292,40.79513],[-96.59649,40.79516],[-96.5965,40.7988],[-96.60129,40.79884],[-96.60127,40.79672],[-96.60355,40.79737],[-96.60536,40.79635],[-96.60401,40.79523],[-96.6048,40.79414],[-96.60409,40.79167],[-96.60607,40.79151],[-96.60607,40.79129],[-96.60567,40.78423],[-96.60124,40.78422],[-96.60128,40.79139],[-96.60045,40.79126],[-96.60047,40.79108],[-96.59853,40.79108],[-96.59853,40.79118],[-96.59788,40.79119],[-96.59788,40.79153],[-96.59648,40.79152],[-96.59649,40.79252],[-96.59282,40.79252],[-96.58939,40.79147],[-96.58965,40.78827],[-96.58695,40.78797],[-96.58695,40.78897],[-96.58215,40.78843],[-96.57738,40.78547],[-96.57738,40.78414],[-96.58236,40.78415],[-96.58237,40.78564],[-96.58424,40.78627],[-96.58695,40.78627],[-96.5884,40.78722],[-96.58989,40.78418],[-96.59169,40.78418],[-96.59547,40.7842],[-96.59484,40.7834],[-96.59583,40.78168],[-96.59335,40.78316],[-96.59182,40.78314],[-96.59376,40.78133],[-96.59565,40.78151],[-96.59555,40.77939],[-96.59639,40.77864],[-96.59574,40.77755],[-96.5922,40.7798],[-96.59112,40.77982],[-96.59012,40.78225],[-96.58902,40.78234],[-96.58948,40.77886],[-96.5905,40.77757],[-96.58827,40.77791],[-96.58836,40.77593],[-96.58793,40.77181],[-96.58867,40.76969],[-96.58945,40.7697],[-96.59182,40.7697],[-96.59872,40.76972],[-96.59876,40.77261],[-96.59974,40.77265],[-96.60056,40.77259],[-96.60113,40.77223],[-96.60117,40.76983],[-96.60098,40.76973],[-96.59941,40.76784],[-96.59924,40.76628],[-96.59573,40.76696],[-96.59701,40.76248],[-96.59617,40.7615],[-96.59642,40.7593],[-96.59537,40.75835],[-96.5898,40.75882],[-96.5895,40.75648],[-96.58811,40.75532],[-96.58707,40.75534],[-96.58689,40.75519],[-96.58697,40.74072],[-96.58715,40.74072],[-96.58715,40.73836],[-96.58715,40.73725],[-96.58703,40.73725],[-96.58701,40.73345],[-96.58702,40.73187],[-96.58702,40.73122],[-96.58701,40.72656],[-96.58891,40.72623],[-96.58965,40.72663],[-96.59236,40.72811],[-96.59255,40.72792],[-96.59599,40.72974],[-96.5964,40.72927],[-96.59908,40.7279],[-96.59703,40.7257],[-96.59664,40.71396],[-96.59308,40.71399],[-96.59311,40.71174],[-96.59106,40.71173],[-96.59108,40.70765],[-96.59669,40.70766],[-96.59681,40.71174],[-96.60614,40.71179],[-96.60615,40.71543],[-96.61103,40.71543],[-96.61104,40.7118],[-96.60915,40.7118],[-96.60985,40.70991],[-96.6136,40.70992],[-96.61478,40.70856],[-96.61478,40.70611],[-96.61588,40.70455],[-96.61582,40.69729],[-96.62273,40.6973],[-96.62275,40.69926],[-96.62537,40.69926],[-96.62542,40.70457],[-96.62572,40.71908],[-96.62552,40.71908],[-96.6255,40.72214],[-96.62546,40.72636],[-96.62879,40.72621],[-96.62945,40.72621],[-96.63489,40.72634],[-96.6365,40.72621],[-96.63711,40.7262],[-96.63769,40.72623],[-96.64437,40.72633],[-96.64464,40.72633],[-96.64454,40.73086],[-96.64453,40.73359],[-96.64682,40.7336],[-96.65165,40.73359],[-96.65389,40.73358],[-96.65389,40.73112],[-96.65392,40.72633],[-96.64922,40.72633],[-96.64923,40.72432],[-96.65393,40.72432],[-96.65393,40.72175],[-96.65389,40.72122],[-96.65394,40.71907],[-96.654,40.71128],[-96.66012,40.71131],[-96.66008,40.71098],[-96.6598,40.71064],[-96.65923,40.71045],[-96.65958,40.70915],[-96.65964,40.70859],[-96.66053,40.70859],[-96.65848,40.70459],[-96.66345,40.7046],[-96.66344,40.71185],[-96.66821,40.71185],[-96.66822,40.70823],[-96.6706,40.70823],[-96.67064,40.7062],[-96.67121,40.70621],[-96.67273,40.70695],[-96.67299,40.70695],[-96.673,40.70461],[-96.6825,40.70464],[-96.68523,40.70464],[-96.68246,40.69943],[-96.68233,40.69738],[-96.6858,40.69729],[-96.68809,40.6973],[-96.68727,40.69577],[-96.69025,40.69571],[-96.69029,40.69377],[-96.69986,40.6938],[-96.69982,40.6974],[-96.69021,40.69739],[-96.68848,40.69738],[-96.69566,40.7106],[-96.69638,40.71199],[-96.69632,40.71203],[-96.69365,40.71202],[-96.6935,40.71207],[-96.69287,40.71303],[-96.69199,40.71473],[-96.6934,40.71668],[-96.70151,40.72792],[-96.71105,40.74122],[-96.71159,40.74282],[-96.71203,40.74832],[-96.71522,40.74834],[-96.71716,40.74585],[-96.71745,40.7435],[-96.7163,40.73977],[-96.71778,40.73947],[-96.71916,40.73743],[-96.72055,40.73676],[-96.72297,40.73673],[-96.72399,40.73713],[-96.73024,40.73642],[-96.73032,40.74113],[-96.73032,40.74124],[-96.73031,40.74384],[-96.73988,40.74393],[-96.73991,40.74849],[-96.7389,40.74849],[-96.73886,40.75125],[-96.73593,40.75265],[-96.73463,40.75576],[-96.73264,40.75576],[-96.73272,40.75812],[-96.73031,40.75904],[-96.7303,40.74842],[-96.72118,40.74835],[-96.72066,40.74835],[-96.7207,40.75201],[-96.71231,40.75197],[-96.71344,40.77018],[-96.71399,40.77018],[-96.71485,40.77747],[-96.71808,40.77817],[-96.7191,40.77916],[-96.71923,40.78403],[-96.72061,40.78446],[-96.72687,40.78433],[-96.7266,40.7776],[-96.72666,40.77028],[-96.72081,40.77018],[-96.72075,40.75562],[-96.7221,40.75563],[-96.72356,40.75905],[-96.72544,40.76202],[-96.73033,40.762],[-96.73038,40.76984],[-96.73137,40.7702],[-96.73134,40.7729],[-96.73481,40.77292],[-96.73556,40.77398],[-96.73512,40.77551],[-96.73482,40.77508],[-96.73395,40.77759],[-96.73584,40.77761],[-96.73578,40.78459],[-96.73576,40.78553],[-96.73572,40.78934],[-96.73981,40.78579],[-96.73982,40.78458],[-96.73982,40.7845],[-96.74717,40.7845],[-96.74715,40.78319],[-96.74937,40.78319],[-96.74947,40.7837],[-96.75058,40.7846],[-96.74945,40.7846],[-96.74953,40.78825],[-96.75416,40.78826],[-96.75415,40.78643],[-96.75883,40.78644],[-96.75884,40.78461],[-96.76844,40.78463],[-96.76849,40.79191],[-96.77392,40.79192],[-96.77557,40.79191],[-96.77576,40.79422],[-96.77717,40.79518],[-96.77327,40.79596],[-96.77401,40.79596],[-96.77401,40.7992],[-96.76614,40.79933],[-96.76612,40.80286],[-96.76849,40.80287],[-96.76848,40.80495],[-96.76373,40.80469],[-96.76373,40.80285],[-96.75894,40.80283],[-96.75896,40.80644],[-96.7787,40.80643],[-96.7787,40.80787],[-96.77869,40.80998],[-96.78516,40.81],[-96.78519,40.80884],[-96.79004,40.80847],[-96.79144,40.81019],[-96.79284,40.81008],[-96.79198,40.80821],[-96.7953,40.80855],[-96.79428,40.8097],[-96.79478,40.81066],[-96.79634,40.81029],[-96.7963,40.80824],[-96.80098,40.80957],[-96.80106,40.81388],[-96.79943,40.81389],[-96.79939,40.81825],[-96.79634,40.81783],[-96.79115,40.81699],[-96.78851,40.81537],[-96.78255,40.81625],[-96.77081,40.81528],[-96.77078,40.82103],[-96.76838,40.82103],[-96.76831,40.8387],[-96.77059,40.84046],[-96.77783,40.84047],[-96.77793,40.82818],[-96.78759,40.82808],[-96.78766,40.82227],[-96.79193,40.82233],[-96.79409,40.82114],[-96.7943,40.82824],[-96.79625,40.82825],[-96.79622,40.83188],[-96.80012,40.83189],[-96.80013,40.83551],[-96.80415,40.84138],[-96.79734,40.84138]],[[-96.61585,40.72634],[-96.61585,40.72651],[-96.61263,40.72647],[-96.61223,40.72993],[-96.60629,40.72992],[-96.60622,40.73211],[-96.60784,40.73353],[-96.60967,40.73354],[-96.61202,40.73354],[-96.61535,40.73348],[-96.61584,40.73356],[-96.61581,40.73809],[-96.6158,40.7394],[-96.61686,40.7394],[-96.61685,40.74067],[-96.62123,40.74067],[-96.62159,40.74067],[-96.62181,40.74255],[-96.62262,40.74224],[-96.62273,40.7417],[-96.62472,40.74121],[-96.62391,40.74122],[-96.62384,40.73985],[-96.62534,40.73956],[-96.62918,40.73898],[-96.62918,40.7384],[-96.62919,40.73776],[-96.63033,40.7372],[-96.63196,40.7372],[-96.63153,40.73653],[-96.6257,40.73081],[-96.62588,40.72951],[-96.62546,40.72636],[-96.61585,40.72634]],[[-96.76842,40.81648],[-96.76843,40.81509],[-96.76549,40.8151],[-96.76141,40.81554],[-96.76129,40.82104],[-96.76838,40.82103],[-96.76842,40.81648]]]}}]}