{"type":"FeatureCollection","features":[{"type":"Feature","properties":{"name":"CART (Cooperative Alliance for Regional Transportation)","boundary_type":"cousubs","source":"Census TIGER county subdivision","fidelity":"exact","updated":"2026-09","units":"Derry town; Hampstead town; Londonderry town; Salem town","note":"Service covers 4 towns in southern NH: curb-to-curb demand-response.","confidence":1.0},"geometry":{"type":"Polygon","coordinates":[[[-71.24613,42.80739],[-71.24293,42.81253],[-71.2407,42.81519],[-71.23703,42.82219],[-71.24253,42.84807],[-71.24307,42.8507],[-71.24845,42.85018],[-71.25321,42.84934],[-71.26443,42.84816],[-71.30754,42.84366],[-71.33269,42.84098],[-71.34885,42.83927],[-71.34952,42.83918],[-71.34667,42.83664],[-71.34691,42.8345],[-71.34737,42.8346],[-71.348,42.8315],[-71.34678,42.82753],[-71.34873,42.82444],[-71.34405,42.82268],[-71.3446,42.82107],[-71.3458,42.82083],[-71.34626,42.81931],[-71.34569,42.81777],[-71.34463,42.81721],[-71.34569,42.81537],[-71.34876,42.81282],[-71.34722,42.80995],[-71.34853,42.80799],[-71.3501,42.80688],[-71.35224,42.80669],[-71.35395,42.80574],[-71.35485,42.80396],[-71.35403,42.8022],[-71.35482,42.80175],[-71.35689,42.80227],[-71.35747,42.79937],[-71.36068,42.79896],[-71.36888,42.80647],[-71.3872,42.82356],[-71.40789,42.82424],[-71.42707,42.82484],[-71.43157,42.84441],[-71.43286,42.84984],[-71.44168,42.88775],[-71.4423,42.8904],[-71.44365,42.89617],[-71.44818,42.91685],[-71.45123,42.93044],[-71.44979,42.93109],[-71.42529,42.93377],[-71.42528,42.93377],[-71.3845,42.9383],[-71.38406,42.93835],[-71.37543,42.93932],[-71.37719,42.94715],[-71.34668,42.94183],[-71.34664,42.94183],[-71.31096,42.93573],[-71.30817,42.93526],[-71.28217,42.93068],[-71.27622,42.92962],[-71.24165,42.92362],[-71.21981,42.91994],[-71.2195,42.91955],[-71.21944,42.91226],[-71.19599,42.91064],[-71.19589,42.90905],[-71.1932,42.90819],[-71.16455,42.89903],[-71.1635,42.89871],[-71.14627,42.89765],[-71.13228,42.8965],[-71.12589,42.89623],[-71.10649,42.89544],[-71.11011,42.89243],[-71.12523,42.8777],[-71.12553,42.87722],[-71.13646,42.86052],[-71.14375,42.85347],[-71.15541,42.85592],[-71.16258,42.85537],[-71.17446,42.85662],[-71.18105,42.85601],[-71.18398,42.85797],[-71.18633,42.86031],[-71.1904,42.85527],[-71.19776,42.86672],[-71.20221,42.86605],[-71.20493,42.86402],[-71.20854,42.85919],[-71.20691,42.85222],[-71.20679,42.85054],[-71.19096,42.83423],[-71.18663,42.82981],[-71.18778,42.82954],[-71.19197,42.81288],[-71.17307,42.81536],[-71.16963,42.81188],[-71.16665,42.80888],[-71.16627,42.80827],[-71.1677,42.80739],[-71.17437,42.80162],[-71.1744,42.80159],[-71.18228,42.79425],[-71.18465,42.79204],[-71.1861,42.79069],[-71.18408,42.76571],[-71.18289,42.751],[-71.1818,42.73759],[-71.19374,42.74017],[-71.19775,42.74103],[-71.20814,42.74327],[-71.20823,42.74329],[-71.2083,42.74331],[-71.21364,42.74447],[-71.21651,42.74509],[-71.2239,42.74669],[-71.2334,42.74549],[-71.2455,42.74259],[-71.24554,42.74257],[-71.26009,42.75573],[-71.26531,42.75669],[-71.26608,42.7569],[-71.28426,42.76011],[-71.26375,42.78535],[-71.24704,42.80593],[-71.24613,42.80739]]]}}]}