{"type":"FeatureCollection","features":[{"type":"Feature","properties":{"name":"Camden Loop","boundary_type":"city","source":"Census TIGER place","fidelity":"exact","updated":"2026-09","units":"Camden city","note":"City of Camden, citywide service","confidence":1.0},"geometry":{"type":"Polygon","coordinates":[[[-75.13601,39.93748],[-75.13584,39.94327],[-75.13572,39.94711],[-75.13422,39.95284],[-75.13419,39.95294],[-75.13385,39.95422],[-75.13224,39.95617],[-75.13022,39.95859],[-75.13012,39.95871],[-75.12692,39.96111],[-75.12542,39.96195],[-75.12386,39.96282],[-75.1228,39.96153],[-75.11732,39.96001],[-75.11323,39.95913],[-75.10852,39.95811],[-75.10342,39.9597],[-75.09902,39.96291],[-75.09432,39.96631],[-75.08812,39.96948],[-75.08264,39.96202],[-75.08089,39.95968],[-75.07755,39.95521],[-75.0729,39.95709],[-75.07201,39.95626],[-75.07085,39.95519],[-75.0697,39.95408],[-75.07449,39.95109],[-75.07305,39.94914],[-75.07271,39.94787],[-75.06694,39.94848],[-75.06655,39.94852],[-75.0666,39.94683],[-75.06976,39.94695],[-75.07176,39.94536],[-75.0724,39.94486],[-75.07384,39.94357],[-75.07612,39.94163],[-75.07669,39.94113],[-75.07932,39.93888],[-75.08203,39.94013],[-75.08341,39.94079],[-75.08828,39.93663],[-75.08929,39.93576],[-75.09013,39.93606],[-75.0885,39.93435],[-75.08677,39.93483],[-75.0864,39.93327],[-75.0873,39.92775],[-75.08691,39.92708],[-75.08154,39.92604],[-75.08806,39.9227],[-75.08991,39.92183],[-75.08993,39.92182],[-75.09176,39.92096],[-75.0957,39.91985],[-75.10198,39.91815],[-75.101,39.91586],[-75.10007,39.91395],[-75.0998,39.91336],[-75.09869,39.91366],[-75.09589,39.91365],[-75.09247,39.9096],[-75.09697,39.90833],[-75.0974,39.90804],[-75.09583,39.90418],[-75.09572,39.90374],[-75.09476,39.90148],[-75.09598,39.9014],[-75.10114,39.89887],[-75.10348,39.90013],[-75.10812,39.90018],[-75.1097,39.89923],[-75.11045,39.89893],[-75.11184,39.89856],[-75.11372,39.90081],[-75.11667,39.90208],[-75.11469,39.90597],[-75.11513,39.90665],[-75.11791,39.90862],[-75.12036,39.90847],[-75.12203,39.90746],[-75.129,39.90748],[-75.12792,39.91181],[-75.12918,39.91479],[-75.13012,39.91701],[-75.13234,39.92167],[-75.1343,39.92578],[-75.13502,39.92731],[-75.13502,39.92733],[-75.13589,39.93252],[-75.13612,39.93391],[-75.13604,39.93655],[-75.13601,39.93748]]]}},{"type":"Feature","properties":{"name":"GOTrenton!","boundary_type":"city","source":"Census TIGER place","fidelity":"approximate","updated":"2026-09","units":"Trenton city","note":"City of Trenton with expanded service to surrounding areas; exact coverage of surrounding areas not specified","confidence":0.85},"geometry":{"type":"Polygon","coordinates":[[[-74.81585,40.24334],[-74.81051,40.24162],[-74.80953,40.24294],[-74.80873,40.24436],[-74.80289,40.24847],[-74.79685,40.24511],[-74.7938,40.24667],[-74.79012,40.24503],[-74.78962,40.24631],[-74.78848,40.24518],[-74.78518,40.24197],[-74.78293,40.24418],[-74.78195,40.24335],[-74.78023,40.24237],[-74.7778,40.24129],[-74.77568,40.24039],[-74.7736,40.23919],[-74.77012,40.23721],[-74.7692,40.23573],[-74.76474,40.23284],[-74.76085,40.23661],[-74.75843,40.23902],[-74.75495,40.2377],[-74.75069,40.24187],[-74.74894,40.23981],[-74.74245,40.24504],[-74.73591,40.24327],[-74.73566,40.24321],[-74.73179,40.24219],[-74.73345,40.24085],[-74.73469,40.23943],[-74.7378,40.23615],[-74.73846,40.23473],[-74.73814,40.23361],[-74.73786,40.23247],[-74.73948,40.23151],[-74.73523,40.22725],[-74.73413,40.22614],[-74.7314,40.22341],[-74.73051,40.22252],[-74.72881,40.22077],[-74.73281,40.21971],[-74.72976,40.21666],[-74.73177,40.21485],[-74.73489,40.21201],[-74.73742,40.20971],[-74.73607,40.20793],[-74.73256,40.20339],[-74.7332,40.20267],[-74.73498,40.20066],[-74.73552,40.20079],[-74.73731,40.20052],[-74.74011,40.20013],[-74.7466,40.19921],[-74.75098,40.19861],[-74.75268,40.19836],[-74.75098,40.19119],[-74.7501,40.18905],[-74.7487,40.18735],[-74.7461,40.18568],[-74.75199,40.18352],[-74.7543,40.18521],[-74.7556,40.18671],[-74.7569,40.18941],[-74.7595,40.19691],[-74.7599,40.19743],[-74.76116,40.19911],[-74.76443,40.20344],[-74.76768,40.20775],[-74.76851,40.21019],[-74.77168,40.21522],[-74.77172,40.21529],[-74.77841,40.21968],[-74.78121,40.22151],[-74.78195,40.22193],[-74.78352,40.22281],[-74.78943,40.22612],[-74.79531,40.22941],[-74.81903,40.23833],[-74.81587,40.24329],[-74.81585,40.24334]]]}},{"type":"Feature","properties":{"name":"MicroLink (NJ Transit)","boundary_type":"places","source":"Census TIGER place","fidelity":"approximate","updated":"2026-09","units":"Bergenfield borough; Tenafly borough; Englewood city; Teaneck township; Manalapan township; Marlboro CDP; Freehold borough","note":"Pilot covers small zones WITHIN named towns, not the full counties: Bergen zone is centered on the Knickerbocker Rd corridor (sections of Bergenfield, Tenafly, Englewood, Teaneck); Monmouth service area 1 covers sections of Manalapan/Marlboro (to Union Hill Park & Ride, Marlboro); service area 2 covers sections of Freehold Township/Freehold Borough (to Freehold Mall Park & Ride) -- Freehold Township is not separately resolvable from TIGER/Line place data (collides with Freehold Borough under this tool's name matching), so only the Freehold Borough polygon is included and the mapped area understates that zone's true footprint. No zone size or exact boundary published as of launch (April 2026). Source: https://www.njtransit.com/press-releases/nj-transit-pilot-microtransit-shuttle-service-monmouth-and-bergen-counties","confidence":0.7},"geometry":{"type":"MultiPolygon","coordinates":[[[[-75.32651,39.48845],[-75.32609,39.48849],[-75.3251,39.4891],[-75.32374,39.48974],[-75.32004,39.48797],[-75.31848,39.4877],[-75.31205,39.48946],[-75.31104,39.48564],[-75.31304,39.48406],[-75.31379,39.48134],[-75.31783,39.48441],[-75.32231,39.48277],[-75.32455,39.48369],[-75.32763,39.48352],[-75.32975,39.48119],[-75.33123,39.48952],[-75.32972,39.48947],[-75.32782,39.48922],[-75.327,39.4886],[-75.32651,39.48845]]],[[[-74.27575,40.27041],[-74.27128,40.27147],[-74.26877,40.27203],[-74.26531,40.27247],[-74.26468,40.27255],[-74.26314,40.26866],[-74.2628,40.26487],[-74.26228,40.25895],[-74.26202,40.25608],[-74.26459,40.25349],[-74.26688,40.25117],[-74.2683,40.24974],[-74.26887,40.24916],[-74.27093,40.24768],[-74.28515,40.24936],[-74.28758,40.25121],[-74.28959,40.25804],[-74.28908,40.25991],[-74.29225,40.2649],[-74.28961,40.26588],[-74.28417,40.26708],[-74.27868,40.26775],[-74.27502,40.26817],[-74.27575,40.27041]]],[[[-74.39314,40.28188],[-74.39412,40.28289],[-74.39493,40.28609],[-74.39423,40.28839],[-74.37754,40.30543],[-74.37606,40.3066],[-74.35252,40.32498],[-74.33789,40.33637],[-74.32738,40.3446],[-74.31786,40.33745],[-74.3055,40.32882],[-74.30105,40.32562],[-74.2965,40.32232],[-74.28659,40.31536],[-74.28504,40.31445],[-74.28248,40.31318],[-74.28447,40.30818],[-74.28703,40.30272],[-74.29027,40.29362],[-74.29513,40.28785],[-74.30095,40.2809],[-74.30838,40.27062],[-74.31514,40.26228],[-74.31782,40.25637],[-74.31959,40.25225],[-74.31844,40.25208],[-74.32103,40.2467],[-74.32518,40.23801],[-74.3327,40.22233],[-74.34163,40.21654],[-74.35338,40.20901],[-74.35353,40.2089],[-74.35641,40.21428],[-74.36078,40.21855],[-74.36165,40.22014],[-74.36248,40.22559],[-74.36628,40.23003],[-74.36967,40.23246],[-74.37046,40.23301],[-74.37628,40.23705],[-74.37951,40.24041],[-74.38455,40.24257],[-74.3883,40.24611],[-74.3904,40.24929],[-74.39138,40.2525],[-74.39633,40.25833],[-74.40264,40.26569],[-74.40816,40.27343],[-74.39859,40.27743],[-74.39791,40.27821],[-74.39338,40.27964],[-74.39314,40.28188]],[[-74.35502,40.30243],[-74.35781,40.30439],[-74.36684,40.30064],[-74.3717,40.29863],[-74.37059,40.29627],[-74.3573,40.29001],[-74.35545,40.28915],[-74.35307,40.2948],[-74.35502,40.30243]]],[[[-74.03001,40.90255],[-74.0279,40.90329],[-74.02645,40.90652],[-74.02482,40.90757],[-74.02538,40.91018],[-74.02731,40.91271],[-74.02989,40.91347],[-74.03019,40.91401],[-74.02827,40.91433],[-74.02533,40.91611],[-74.02153,40.91708],[-74.01853,40.91473],[-74.01641,40.9146],[-74.01439,40.9208],[-74.01307,40.92399],[-74.01241,40.92713],[-74.0122,40.92783],[-74.01185,40.93124],[-74.01298,40.93252],[-74.01085,40.93635],[-74.00622,40.93633],[-74.00349,40.93709],[-74.00359,40.93593],[-73.99875,40.93615],[-73.99706,40.93623],[-73.99484,40.9363],[-73.99149,40.93645],[-73.9877,40.93661],[-73.98732,40.93663],[-73.9797,40.93701],[-73.97959,40.93701],[-73.97997,40.93418],[-73.97735,40.93429],[-73.97049,40.93459],[-73.97048,40.93461],[-73.96414,40.93627],[-73.96257,40.93685],[-73.96242,40.93783],[-73.95684,40.93453],[-73.94223,40.92608],[-73.94168,40.9259],[-73.93482,40.92181],[-73.9275,40.91758],[-73.91994,40.91362],[-73.92712,40.8955],[-73.93766,40.90112],[-73.93795,40.90128],[-73.94648,40.90605],[-73.94939,40.90073],[-73.95245,40.89568],[-73.95411,40.89301],[-73.95462,40.89219],[-73.95899,40.88491],[-73.95583,40.88312],[-73.96053,40.87725],[-73.96517,40.87162],[-73.96807,40.86918],[-73.96747,40.86885],[-73.97004,40.8657],[-73.9734,40.86768],[-73.97538,40.86884],[-73.97575,40.86906],[-73.98062,40.87187],[-73.98235,40.87372],[-73.98497,40.87467],[-73.98486,40.87487],[-73.98983,40.8764],[-73.99412,40.8765],[-73.99376,40.87319],[-73.99573,40.87125],[-73.99715,40.86881],[-73.99897,40.86675],[-74.00182,40.8646],[-74.00499,40.86014],[-74.01245,40.8632],[-74.01507,40.86427],[-74.01582,40.86438],[-74.01574,40.8647],[-74.02025,40.86537],[-74.02232,40.86567],[-74.02174,40.86845],[-74.02104,40.87181],[-74.02081,40.87291],[-74.02376,40.87423],[-74.0231,40.8761],[-74.02212,40.8795],[-74.02179,40.88053],[-74.02548,40.88173],[-74.02892,40.88266],[-74.02974,40.88299],[-74.03445,40.88427],[-74.0335,40.88727],[-74.03683,40.88853],[-74.03613,40.89191],[-74.03124,40.89624],[-74.03196,40.90032],[-74.0317,40.90134],[-74.03001,40.90255]]],[[[-74.00512,40.93754],[-74.00539,40.93755],[-74.00532,40.93841],[-74.00338,40.9384],[-74.00348,40.93717],[-74.00514,40.93717],[-74.00512,40.93754]]]]}},{"type":"Feature","properties":{"name":"Middlesex County RIDE On Demand","boundary_type":"places","source":"Census TIGER place","fidelity":"exact","updated":"2026-09","units":"New Brunswick city; North Brunswick township; East Brunswick township","note":"Three municipalities in Middlesex County; service launched in New Brunswick and expanded to others","confidence":0.95},"geometry":{"type":"Polygon","coordinates":[[[-74.38508,40.48721],[-74.38399,40.48611],[-74.38349,40.48181],[-74.38219,40.4798],[-74.37969,40.4783],[-74.37681,40.4778],[-74.37564,40.47509],[-74.376,40.47431],[-74.37904,40.47364],[-74.37927,40.47241],[-74.37817,40.47007],[-74.37887,40.46921],[-74.38214,40.46902],[-74.38228,40.46801],[-74.37909,40.4643],[-74.37916,40.46287],[-74.38133,40.46223],[-74.38436,40.46318],[-74.38579,40.46416],[-74.38627,40.46466],[-74.40345,40.46276],[-74.40242,40.46186],[-74.39562,40.45917],[-74.39352,40.45537],[-74.39527,40.44881],[-74.39459,40.44615],[-74.39447,40.44591],[-74.39263,40.44365],[-74.39047,40.44103],[-74.38865,40.43904],[-74.37925,40.42895],[-74.37861,40.42925],[-74.37766,40.43082],[-74.37595,40.43226],[-74.36533,40.43322],[-74.36577,40.43171],[-74.36597,40.42901],[-74.35633,40.42959],[-74.35747,40.42834],[-74.35647,40.42491],[-74.35595,40.42346],[-74.35847,40.42164],[-74.36227,40.42111],[-74.3632,40.41844],[-74.36154,40.41659],[-74.35777,40.41626],[-74.35723,40.41443],[-74.36124,40.41301],[-74.36466,40.41247],[-74.36462,40.41233],[-74.36646,40.41344],[-74.36695,40.41308],[-74.36785,40.41173],[-74.36623,40.40957],[-74.36606,40.40612],[-74.36798,40.40697],[-74.36958,40.40602],[-74.36953,40.40288],[-74.37303,40.40798],[-74.37599,40.40577],[-74.38112,40.40912],[-74.3874,40.40739],[-74.39863,40.40341],[-74.40287,40.40248],[-74.40939,40.40084],[-74.40569,40.39597],[-74.40131,40.3931],[-74.39889,40.39232],[-74.4123,40.38725],[-74.41336,40.38738],[-74.41229,40.38547],[-74.42005,40.38362],[-74.42388,40.38654],[-74.42564,40.38468],[-74.43546,40.3743],[-74.43868,40.37125],[-74.45186,40.37755],[-74.44409,40.38496],[-74.44095,40.38712],[-74.43929,40.38893],[-74.43688,40.3922],[-74.44665,40.40669],[-74.44712,40.40624],[-74.44933,40.40593],[-74.45083,40.40526],[-74.45282,40.40484],[-74.45611,40.40563],[-74.45861,40.40708],[-74.46004,40.40722],[-74.46328,40.40967],[-74.46605,40.41014],[-74.46851,40.41358],[-74.47082,40.41529],[-74.47365,40.41599],[-74.47514,40.41701],[-74.47815,40.41767],[-74.48349,40.4173],[-74.48394,40.41757],[-74.4849,40.41836],[-74.48453,40.41991],[-74.48556,40.4209],[-74.49148,40.41778],[-74.49217,40.41987],[-74.49622,40.41927],[-74.50215,40.41608],[-74.50233,40.41612],[-74.50751,40.41586],[-74.5079,40.41482],[-74.51375,40.41267],[-74.51457,40.41345],[-74.51487,40.41423],[-74.5129,40.41733],[-74.50998,40.4212],[-74.51026,40.42188],[-74.50792,40.42461],[-74.50858,40.42701],[-74.51027,40.42733],[-74.51138,40.42677],[-74.51709,40.42901],[-74.51892,40.42932],[-74.51605,40.43165],[-74.53127,40.44125],[-74.53152,40.44136],[-74.52657,40.44485],[-74.52064,40.451],[-74.52034,40.45128],[-74.51438,40.45529],[-74.51239,40.45662],[-74.512,40.45697],[-74.50781,40.46098],[-74.50707,40.46149],[-74.50448,40.46306],[-74.50247,40.46431],[-74.49532,40.46894],[-74.49358,40.47049],[-74.48949,40.47445],[-74.48494,40.47959],[-74.48431,40.48017],[-74.48234,40.48175],[-74.47947,40.48337],[-74.4785,40.48392],[-74.47589,40.48465],[-74.47245,40.48561],[-74.46821,40.48685],[-74.46394,40.48888],[-74.45986,40.49105],[-74.46014,40.49157],[-74.45904,40.49607],[-74.45918,40.49662],[-74.46079,40.49863],[-74.46243,40.50022],[-74.46503,40.50126],[-74.46699,40.50293],[-74.46731,40.50502],[-74.4674,40.50795],[-74.46695,40.5089],[-74.4662,40.50926],[-74.46362,40.50911],[-74.45426,40.50854],[-74.44884,40.50712],[-74.44868,40.5071],[-74.44627,40.50568],[-74.44139,40.50272],[-74.44018,40.50159],[-74.43708,40.4978],[-74.43686,40.49762],[-74.43617,40.49643],[-74.43555,40.49339],[-74.43437,40.49079],[-74.43206,40.48917],[-74.42838,40.48805],[-74.42388,40.48815],[-74.42093,40.48891],[-74.41918,40.49076],[-74.41897,40.49059],[-74.41807,40.49138],[-74.41576,40.49269],[-74.41571,40.49274],[-74.41484,40.49316],[-74.41306,40.49344],[-74.41216,40.49371],[-74.40861,40.49331],[-74.40587,40.49209],[-74.40173,40.49146],[-74.39852,40.49189],[-74.39554,40.48882],[-74.39469,40.48774],[-74.39228,40.48631],[-74.39247,40.48526],[-74.38786,40.48732],[-74.38508,40.48721]],[[-74.44265,40.44741],[-74.43939,40.44709],[-74.43986,40.44541],[-74.43739,40.44276],[-74.43383,40.43673],[-74.43324,40.43447],[-74.43273,40.43461],[-74.43058,40.43518],[-74.42758,40.4381],[-74.42813,40.43852],[-74.42518,40.43949],[-74.42317,40.44072],[-74.42388,40.44648],[-74.4241,40.4478],[-74.42513,40.45851],[-74.43258,40.46001],[-74.43606,40.45871],[-74.43658,40.45897],[-74.44508,40.46323],[-74.44631,40.46205],[-74.44973,40.45886],[-74.44888,40.45748],[-74.44843,40.45441],[-74.44879,40.45393],[-74.44736,40.45093],[-74.44766,40.44896],[-74.4461,40.44873],[-74.44265,40.44741]]]}},{"type":"Feature","properties":{"name":"Passaic County MOVE","boundary_type":"places","source":"Census TIGER place","fidelity":"exact","updated":"2026-09","units":"Passaic city; Clifton city","note":"Two cities in Passaic County","confidence":0.95},"geometry":{"type":"Polygon","coordinates":[[[-74.11524,40.87419],[-74.11381,40.87],[-74.1124,40.86886],[-74.11107,40.86538],[-74.11,40.86475],[-74.10845,40.86402],[-74.10748,40.86322],[-74.10679,40.8593],[-74.10761,40.85673],[-74.1083,40.85597],[-74.10951,40.85532],[-74.11083,40.85519],[-74.11228,40.85598],[-74.1125,40.85831],[-74.11388,40.8597],[-74.11597,40.85998],[-74.11703,40.85989],[-74.11942,40.85912],[-74.12125,40.8576],[-74.11959,40.8543],[-74.11934,40.85332],[-74.11939,40.85102],[-74.12119,40.84683],[-74.12222,40.84243],[-74.1228,40.84147],[-74.12403,40.83872],[-74.12283,40.8362],[-74.12255,40.83536],[-74.12168,40.83406],[-74.12107,40.83306],[-74.12112,40.82987],[-74.12372,40.82281],[-74.12404,40.82251],[-74.12644,40.82078],[-74.13002,40.81994],[-74.13957,40.82528],[-74.1452,40.82836],[-74.14815,40.82997],[-74.15123,40.83166],[-74.15851,40.83556],[-74.16267,40.83781],[-74.16309,40.83804],[-74.1794,40.84697],[-74.1799,40.84726],[-74.18266,40.84878],[-74.19234,40.85407],[-74.19787,40.85705],[-74.19799,40.85723],[-74.197,40.85946],[-74.19489,40.86302],[-74.19402,40.86517],[-74.19377,40.86692],[-74.19371,40.86863],[-74.19127,40.87185],[-74.1908,40.87245],[-74.19015,40.87341],[-74.18952,40.87369],[-74.18883,40.87482],[-74.18849,40.87512],[-74.18794,40.87549],[-74.18752,40.87549],[-74.18733,40.87555],[-74.18671,40.87612],[-74.18662,40.87609],[-74.18625,40.87648],[-74.1865,40.87664],[-74.1867,40.87676],[-74.18698,40.87721],[-74.18668,40.87742],[-74.18614,40.87736],[-74.18597,40.87816],[-74.18563,40.87896],[-74.18517,40.87904],[-74.18241,40.88347],[-74.18061,40.88491],[-74.17927,40.88801],[-74.17904,40.8916],[-74.17718,40.89401],[-74.17707,40.89563],[-74.17455,40.89947],[-74.17187,40.89791],[-74.16989,40.89676],[-74.16573,40.8943],[-74.16543,40.89411],[-74.16174,40.89193],[-74.16055,40.89077],[-74.1597,40.88868],[-74.15445,40.88962],[-74.14961,40.89049],[-74.13965,40.89227],[-74.12953,40.89409],[-74.12848,40.89413],[-74.12854,40.89374],[-74.12923,40.88976],[-74.12942,40.88858],[-74.12971,40.88755],[-74.12981,40.88705],[-74.13035,40.88564],[-74.13008,40.88512],[-74.1215,40.88095],[-74.12038,40.87974],[-74.11953,40.87815],[-74.11808,40.87677],[-74.11585,40.87519],[-74.11524,40.87419]]]}},{"type":"Feature","properties":{"name":"Union County On-Demand Micro-Transit Pilot","boundary_type":"zone_approx","source":"Manual approximation","fidelity":"approximate","updated":"2026-09","units":"buffer 2.414 km @ 40.6640,-74.3181","note":"1.5-mile radius zone centered at Route 28 & South Avenue (40.6640, -74.3181) in Westfield/Scotch Plains/Fanwood area","confidence":0.9},"geometry":{"type":"Polygon","coordinates":[[[-74.28962,40.66211],[-74.28995,40.66023],[-74.29049,40.65839],[-74.29124,40.65658],[-74.29219,40.65484],[-74.29334,40.65316],[-74.29468,40.65156],[-74.2962,40.65006],[-74.29789,40.64867],[-74.29972,40.64739],[-74.3017,40.64624],[-74.30381,40.64522],[-74.30602,40.64435],[-74.30832,40.64362],[-74.3107,40.64305],[-74.31314,40.64264],[-74.31561,40.6424],[-74.3181,40.64231],[-74.32059,40.6424],[-74.32306,40.64264],[-74.3255,40.64305],[-74.32788,40.64362],[-74.33018,40.64435],[-74.33239,40.64522],[-74.3345,40.64624],[-74.33648,40.64739],[-74.33831,40.64867],[-74.34,40.65006],[-74.34152,40.65156],[-74.34286,40.65316],[-74.34401,40.65484],[-74.34496,40.65658],[-74.34571,40.65839],[-74.34625,40.66023],[-74.34658,40.66211],[-74.34669,40.664],[-74.34658,40.66589],[-74.34625,40.66777],[-74.34571,40.66961],[-74.34496,40.67142],[-74.34401,40.67316],[-74.34286,40.67484],[-74.34152,40.67644],[-74.34,40.67794],[-74.33831,40.67933],[-74.33648,40.68061],[-74.3345,40.68176],[-74.33239,40.68278],[-74.33018,40.68365],[-74.32788,40.68438],[-74.3255,40.68495],[-74.32306,40.68536],[-74.32059,40.6856],[-74.3181,40.68569],[-74.31561,40.6856],[-74.31314,40.68536],[-74.3107,40.68495],[-74.30832,40.68438],[-74.30602,40.68365],[-74.30381,40.68278],[-74.3017,40.68176],[-74.29972,40.68061],[-74.29789,40.67933],[-74.2962,40.67794],[-74.29468,40.67644],[-74.29334,40.67484],[-74.29219,40.67316],[-74.29124,40.67142],[-74.29049,40.66961],[-74.28995,40.66777],[-74.28962,40.66589],[-74.28951,40.664],[-74.28962,40.66211]]]}},{"type":"Feature","properties":{"name":"Via Jersey City","boundary_type":"city","source":"Census TIGER place","fidelity":"exact","updated":"2026-09","units":"Jersey City city","note":"City-wide service as stated","confidence":1.0},"geometry":{"type":"MultiPolygon","coordinates":[[[[-74.04166,40.69644],[-74.04406,40.69828],[-74.0422,40.69997],[-74.039,40.69762],[-74.04166,40.69644]]],[[[-74.10384,40.71867],[-74.09909,40.7261],[-74.09857,40.72721],[-74.0947,40.73447],[-74.09396,40.7352],[-74.08929,40.7384],[-74.08306,40.74015],[-74.07705,40.74325],[-74.0752,40.74739],[-74.07869,40.7506],[-74.07519,40.75291],[-74.07639,40.75438],[-74.07483,40.75577],[-74.0748,40.75815],[-74.07266,40.7589],[-74.07023,40.76116],[-74.06493,40.76376],[-74.06018,40.76247],[-74.05998,40.76572],[-74.05697,40.76899],[-74.05208,40.76089],[-74.05114,40.76018],[-74.04969,40.75936],[-74.04892,40.75844],[-74.04582,40.75738],[-74.04365,40.75659],[-74.0432,40.75494],[-74.04201,40.75218],[-74.04093,40.75177],[-74.03877,40.75089],[-74.03778,40.75032],[-74.03873,40.74845],[-74.03978,40.74667],[-74.04078,40.7455],[-74.04132,40.74483],[-74.04244,40.74286],[-74.04237,40.74122],[-74.04359,40.74007],[-74.04387,40.7376],[-74.04282,40.73627],[-74.04044,40.73629],[-74.03914,40.73631],[-74.03525,40.73538],[-74.02927,40.73368],[-74.02064,40.73039],[-74.02097,40.72904],[-74.02135,40.72746],[-74.02183,40.72549],[-74.02189,40.72525],[-74.02229,40.72361],[-74.02307,40.72041],[-74.02319,40.71989],[-74.02938,40.71897],[-74.0308,40.71659],[-74.03373,40.71167],[-74.03413,40.71033],[-74.03549,40.70574],[-74.03942,40.70619],[-74.04875,40.69898],[-74.0543,40.6921],[-74.05533,40.69082],[-74.06498,40.69595],[-74.07011,40.69065],[-74.06997,40.68395],[-74.07781,40.67465],[-74.06422,40.66886],[-74.06572,40.66685],[-74.09813,40.68068],[-74.09868,40.68217],[-74.09935,40.68397],[-74.09979,40.68577],[-74.101,40.68822],[-74.10203,40.69048],[-74.10191,40.69096],[-74.10104,40.69213],[-74.10154,40.69319],[-74.10285,40.69542],[-74.10358,40.69578],[-74.10626,40.69708],[-74.10481,40.69895],[-74.10248,40.70193],[-74.10637,40.70481],[-74.1066,40.70939],[-74.10815,40.71596],[-74.10563,40.71754],[-74.10384,40.71867]]]]}},{"type":"Feature","properties":{"name":"Via Newark","boundary_type":"city","source":"Census TIGER place","fidelity":"approximate","updated":"2026-09","units":"Newark city","note":"Newark Arts and Education District within city limits; service launched as 6-month pilot focusing on downtown destinations","confidence":0.9},"geometry":{"type":"Polygon","coordinates":[[[-74.24975,40.73867],[-74.24837,40.73965],[-74.24487,40.74068],[-74.24391,40.74174],[-74.24043,40.74084],[-74.23846,40.74472],[-74.2379,40.74499],[-74.23686,40.74555],[-74.23574,40.74887],[-74.23529,40.75014],[-74.23467,40.75056],[-74.23317,40.75153],[-74.23125,40.75142],[-74.23026,40.75136],[-74.22831,40.75125],[-74.22637,40.75116],[-74.22639,40.75113],[-74.22892,40.74645],[-74.22778,40.74637],[-74.22632,40.74612],[-74.22508,40.74577],[-74.22431,40.74555],[-74.22232,40.74515],[-74.22172,40.74508],[-74.22092,40.74698],[-74.22014,40.7488],[-74.2187,40.74886],[-74.21669,40.74894],[-74.21446,40.74902],[-74.21261,40.74909],[-74.2068,40.7493],[-74.20623,40.74945],[-74.20446,40.74892],[-74.20217,40.75065],[-74.20106,40.75076],[-74.19933,40.75418],[-74.19832,40.75429],[-74.19801,40.75491],[-74.19706,40.75666],[-74.19526,40.75904],[-74.19466,40.75923],[-74.19365,40.76118],[-74.19154,40.76522],[-74.19045,40.76731],[-74.19011,40.76797],[-74.18976,40.76863],[-74.18671,40.77448],[-74.18626,40.77466],[-74.18617,40.77454],[-74.18453,40.7748],[-74.18061,40.77788],[-74.17971,40.77719],[-74.17898,40.77739],[-74.17775,40.77743],[-74.17699,40.77891],[-74.17739,40.77999],[-74.17688,40.78097],[-74.1765,40.78319],[-74.17695,40.78344],[-74.17476,40.78561],[-74.17155,40.78825],[-74.16983,40.78701],[-74.16591,40.78668],[-74.16128,40.78418],[-74.15916,40.78311],[-74.15714,40.78238],[-74.15451,40.78129],[-74.15336,40.78081],[-74.15279,40.78061],[-74.14834,40.77988],[-74.14833,40.7797],[-74.14899,40.778],[-74.15037,40.77689],[-74.15224,40.77521],[-74.1558,40.77081],[-74.15637,40.7689],[-74.15664,40.76799],[-74.15769,40.7661],[-74.16215,40.76137],[-74.16319,40.75964],[-74.16453,40.7563],[-74.1648,40.75472],[-74.16546,40.751],[-74.16608,40.74724],[-74.16595,40.74511],[-74.16379,40.7392],[-74.16196,40.73601],[-74.15998,40.73448],[-74.15528,40.73354],[-74.14719,40.7344],[-74.14529,40.7357],[-74.14269,40.7393],[-74.1368,40.74146],[-74.12279,40.7421],[-74.12119,40.7417],[-74.1176,40.73964],[-74.11699,40.73712],[-74.11811,40.73242],[-74.12099,40.7229],[-74.12139,40.721],[-74.12057,40.71713],[-74.12319,40.71222],[-74.12128,40.70637],[-74.12066,40.70448],[-74.13032,40.6902],[-74.13611,40.68901],[-74.14421,40.68005],[-74.14372,40.6795],[-74.15043,40.68315],[-74.15386,40.68592],[-74.15786,40.68595],[-74.15967,40.68697],[-74.16102,40.68891],[-74.16505,40.69016],[-74.16763,40.68996],[-74.16927,40.68862],[-74.19307,40.68718],[-74.19807,40.68688],[-74.2018,40.68681],[-74.20747,40.68977],[-74.20823,40.69018],[-74.20925,40.69071],[-74.2124,40.69926],[-74.21297,40.70081],[-74.21301,40.70091],[-74.21847,40.70485],[-74.22167,40.70714],[-74.22195,40.70734],[-74.22589,40.70804],[-74.22607,40.70807],[-74.22855,40.70851],[-74.22671,40.71062],[-74.22685,40.71226],[-74.2268,40.71234],[-74.22419,40.71525],[-74.22347,40.71535],[-74.21885,40.72026],[-74.21805,40.72131],[-74.21734,40.72365],[-74.21674,40.72515],[-74.2155,40.72773],[-74.21538,40.72872],[-74.21505,40.72949],[-74.21492,40.72993],[-74.214,40.73227],[-74.21339,40.73389],[-74.21146,40.73764],[-74.20958,40.74299],[-74.21127,40.74265],[-74.2144,40.74114],[-74.21532,40.74157],[-74.21537,40.74159],[-74.2172,40.74119],[-74.22008,40.73955],[-74.22065,40.73932],[-74.22119,40.73917],[-74.22161,40.73927],[-74.22183,40.73874],[-74.22537,40.73749],[-74.22662,40.73795],[-74.22851,40.73653],[-74.23171,40.7349],[-74.23341,40.73538],[-74.23577,40.73511],[-74.23621,40.73428],[-74.23682,40.73386],[-74.23807,40.73365],[-74.23976,40.73186],[-74.24278,40.73059],[-74.24345,40.73075],[-74.2437,40.7328],[-74.24437,40.73331],[-74.24628,40.73381],[-74.24815,40.73429],[-74.24865,40.7344],[-74.24964,40.7348],[-74.25101,40.73622],[-74.25136,40.73753],[-74.24975,40.73867]]]}}]}