{"type":"FeatureCollection","features":[{"type":"Feature","properties":{"name":"ABQ RIDE Connect","boundary_type":"city","source":"Census TIGER place","fidelity":"approximate","updated":"2026-09","units":"Albuquerque city","note":"Three on-demand zones within Albuquerque city limits: Southwest Mesa Zone, Rio Grande Zone (active since March 2024), and South Valley Zone (launching May 2026). Service area varies by zone.","confidence":0.75},"geometry":{"type":"MultiPolygon","coordinates":[[[[-106.71218,35.01269],[-106.71125,35.01273],[-106.71126,35.01356],[-106.70972,35.01356],[-106.70971,35.01274],[-106.70939,35.01274],[-106.70938,35.01184],[-106.70895,35.01184],[-106.70896,35.01192],[-106.70515,35.01195],[-106.70491,35.01276],[-106.70467,35.01194],[-106.70468,35.01307],[-106.70258,35.01308],[-106.70258,35.01187],[-106.7022,35.01187],[-106.70222,35.0093],[-106.70397,35.00931],[-106.70585,35.00678],[-106.70921,35.00676],[-106.70922,35.0052],[-106.71204,35.00451],[-106.71241,35.00274],[-106.71128,35.00273],[-106.71208,34.99694],[-106.71524,34.99855],[-106.7129,35.00935],[-106.71313,35.01183],[-106.71201,35.01185],[-106.71205,35.01232],[-106.71218,35.01269]]],[[[-106.7094,35.0276],[-106.70994,35.02519],[-106.71444,35.02392],[-106.71457,35.02303],[-106.71568,35.01433],[-106.71617,35.01184],[-106.71581,35.01612],[-106.71421,35.02706],[-106.71412,35.02793],[-106.71629,35.0273],[-106.71682,35.02686],[-106.71644,35.02929],[-106.71373,35.02931],[-106.71378,35.02719],[-106.71188,35.02753],[-106.7094,35.0276]]],[[[-106.65581,35.03978],[-106.65507,35.04364],[-106.6547,35.04362],[-106.65537,35.03973],[-106.65581,35.03978]]],[[[-106.68317,35.06206],[-106.68221,35.06329],[-106.68666,35.06386],[-106.68909,35.06578],[-106.68647,35.0653],[-106.68159,35.06501],[-106.68139,35.06431],[-106.68038,35.06189],[-106.68317,35.06206]]],[[[-106.67034,35.06835],[-106.67225,35.06757],[-106.67174,35.06933],[-106.6701,35.06902],[-106.66859,35.06946],[-106.66797,35.06803],[-106.66848,35.06791],[-106.67034,35.06835]]],[[[-106.67462,35.06873],[-106.67463,35.06935],[-106.67189,35.06936],[-106.67198,35.06901],[-106.67223,35.06861],[-106.67462,35.06873]]],[[[-106.69079,35.07876],[-106.691,35.07854],[-106.6913,35.07813],[-106.6914,35.07791],[-106.69239,35.07767],[-106.69194,35.07786],[-106.69246,35.07948],[-106.69213,35.0794],[-106.69156,35.07935],[-106.69051,35.07939],[-106.69033,35.07912],[-106.69079,35.07876]]],[[[-106.86472,35.13825],[-106.86412,35.14269],[-106.86279,35.14477],[-106.86224,35.15038],[-106.86328,35.15606],[-106.86829,35.15605],[-106.86779,35.17984],[-106.86576,35.17983],[-106.785,35.17984],[-106.7835,35.17984],[-106.75882,35.17981],[-106.75634,35.18005],[-106.74974,35.18004],[-106.74975,35.18431],[-106.74973,35.18879],[-106.74863,35.18879],[-106.74973,35.1906],[-106.74973,35.19604],[-106.75411,35.19606],[-106.7541,35.19426],[-106.75849,35.1942],[-106.75853,35.19976],[-106.75415,35.19978],[-106.75415,35.2033],[-106.75263,35.2033],[-106.75235,35.20291],[-106.75075,35.20338],[-106.75017,35.20338],[-106.75023,35.2033],[-106.74755,35.20326],[-106.74685,35.20324],[-106.74532,35.20325],[-106.74314,35.20325],[-106.74314,35.2044],[-106.74314,35.20501],[-106.7405,35.20501],[-106.7405,35.20324],[-106.73655,35.20324],[-106.72984,35.20327],[-106.72985,35.20692],[-106.72857,35.20693],[-106.72773,35.20693],[-106.72773,35.21193],[-106.72803,35.21252],[-106.72811,35.21703],[-106.72808,35.21798],[-106.71395,35.21797],[-106.70995,35.21797],[-106.70283,35.21797],[-106.69656,35.21796],[-106.68656,35.21796],[-106.67709,35.21795],[-106.67201,35.21794],[-106.66387,35.21793],[-106.66255,35.21792],[-106.66261,35.21769],[-106.66257,35.21383],[-106.66035,35.21183],[-106.65794,35.2114],[-106.65761,35.21321],[-106.65147,35.21103],[-106.65101,35.21078],[-106.64741,35.20942],[-106.64602,35.20873],[-106.64249,35.2073],[-106.64464,35.20616],[-106.64546,35.20158],[-106.6456,35.20154],[-106.6486,35.1996],[-106.64909,35.19719],[-106.65162,35.19597],[-106.65268,35.19409],[-106.65291,35.19219],[-106.652,35.19022],[-106.65211,35.18829],[-106.65318,35.19223],[-106.6525,35.1962],[-106.65722,35.19096],[-106.65567,35.18966],[-106.6573,35.18632],[-106.66085,35.18106],[-106.66394,35.18026],[-106.6637,35.17791],[-106.67021,35.17803],[-106.67029,35.17111],[-106.66225,35.16996],[-106.66132,35.16942],[-106.6641,35.16732],[-106.6703,35.16819],[-106.67032,35.16592],[-106.66841,35.16503],[-106.66987,35.16396],[-106.67264,35.16386],[-106.67391,35.16457],[-106.67468,35.16193],[-106.67436,35.16108],[-106.67603,35.15898],[-106.67786,35.15583],[-106.68004,35.15085],[-106.68255,35.14779],[-106.68447,35.14544],[-106.68928,35.13639],[-106.68792,35.13604],[-106.68855,35.13455],[-106.68966,35.13397],[-106.69139,35.12908],[-106.69193,35.1252],[-106.69643,35.12522],[-106.69589,35.12295],[-106.69473,35.12226],[-106.69289,35.12221],[-106.69345,35.1195],[-106.69302,35.1172],[-106.69364,35.1149],[-106.69447,35.10668],[-106.69234,35.10651],[-106.69224,35.10671],[-106.68418,35.10606],[-106.68085,35.10583],[-106.6808,35.10633],[-106.68401,35.10823],[-106.68427,35.10768],[-106.68447,35.10944],[-106.68255,35.11574],[-106.68431,35.11602],[-106.68417,35.11655],[-106.68773,35.1175],[-106.68547,35.12912],[-106.68196,35.13319],[-106.68096,35.13513],[-106.67627,35.13402],[-106.67477,35.13259],[-106.67513,35.13683],[-106.67373,35.13872],[-106.67353,35.13895],[-106.67318,35.13937],[-106.67215,35.14171],[-106.6711,35.14356],[-106.67476,35.14445],[-106.67464,35.14462],[-106.67486,35.14465],[-106.67457,35.14473],[-106.6664,35.14323],[-106.66645,35.14312],[-106.66685,35.14202],[-106.66698,35.14124],[-106.66711,35.14067],[-106.66515,35.13997],[-106.66679,35.13716],[-106.66871,35.13768],[-106.66877,35.13753],[-106.66978,35.13764],[-106.66884,35.13734],[-106.6689,35.13716],[-106.66668,35.13652],[-106.66495,35.13614],[-106.6585,35.13495],[-106.65856,35.13554],[-106.65883,35.13638],[-106.65907,35.13683],[-106.66251,35.14012],[-106.6619,35.14206],[-106.66243,35.14218],[-106.66038,35.14563],[-106.65394,35.14549],[-106.65242,35.14568],[-106.65313,35.14398],[-106.64673,35.143],[-106.64409,35.143],[-106.64246,35.145],[-106.6472,35.14565],[-106.64781,35.14687],[-106.6463,35.14668],[-106.64589,35.14893],[-106.64581,35.14891],[-106.64564,35.14954],[-106.64462,35.15011],[-106.64315,35.15004],[-106.63919,35.14952],[-106.6376,35.14925],[-106.63802,35.14845],[-106.63867,35.14823],[-106.6394,35.14835],[-106.63953,35.14773],[-106.63986,35.1461],[-106.6344,35.14507],[-106.62982,35.14418],[-106.63221,35.13745],[-106.63551,35.12862],[-106.63546,35.12857],[-106.63004,35.12706],[-106.62867,35.12484],[-106.62941,35.12471],[-106.62977,35.12312],[-106.63054,35.12259],[-106.62959,35.1224],[-106.62941,35.123],[-106.62871,35.12285],[-106.62819,35.12448],[-106.62492,35.12385],[-106.62366,35.12777],[-106.62533,35.12878],[-106.63081,35.13011],[-106.63044,35.13117],[-106.62376,35.12941],[-106.62384,35.13103],[-106.6299,35.13263],[-106.62901,35.13308],[-106.62376,35.132],[-106.62375,35.13368],[-106.6266,35.13436],[-106.62413,35.13586],[-106.62374,35.13722],[-106.62207,35.13695],[-106.62133,35.13808],[-106.61831,35.14028],[-106.61757,35.14211],[-106.61651,35.14669],[-106.61548,35.14894],[-106.62379,35.15003],[-106.62367,35.15072],[-106.62675,35.15183],[-106.62362,35.15163],[-106.62451,35.15517],[-106.6222,35.15493],[-106.62268,35.15331],[-106.62128,35.15315],[-106.62179,35.15144],[-106.61695,35.15137],[-106.61377,35.15118],[-106.61222,35.15507],[-106.61267,35.15654],[-106.6131,35.15726],[-106.61662,35.15805],[-106.62097,35.15865],[-106.62045,35.16008],[-106.61662,35.15982],[-106.6135,35.1599],[-106.6137,35.16102],[-106.61716,35.16471],[-106.61106,35.16956],[-106.61145,35.17412],[-106.61377,35.17481],[-106.6133,35.17591],[-106.61166,35.17819],[-106.61003,35.18245],[-106.60681,35.18543],[-106.60532,35.18734],[-106.60445,35.18854],[-106.59814,35.20196],[-106.59986,35.20389],[-106.60004,35.2041],[-106.59968,35.20406],[-106.5989,35.20399],[-106.57849,35.20169],[-106.57776,35.20163],[-106.57684,35.20153],[-106.57077,35.20094],[-106.56434,35.20001],[-106.56434,35.19815],[-106.56766,35.19855],[-106.5688,35.19749],[-106.56877,35.19468],[-106.56875,35.19307],[-106.56876,35.19185],[-106.5638,35.19183],[-106.5649,35.19466],[-106.55994,35.19467],[-106.56011,35.19313],[-106.5601,35.19168],[-106.55109,35.19167],[-106.54224,35.19168],[-106.54221,35.18879],[-106.54224,35.1844],[-106.54222,35.18155],[-106.5373,35.18154],[-106.53729,35.17717],[-106.53344,35.1772],[-106.52955,35.17716],[-106.52902,35.17569],[-106.52571,35.17566],[-106.5257,35.17464],[-106.53344,35.17467],[-106.53342,35.16551],[-106.52459,35.16552],[-106.5245,35.15971],[-106.50697,35.15967],[-106.49815,35.15971],[-106.497,35.15955],[-106.49677,35.15958],[-106.49237,35.15962],[-106.48988,35.15833],[-106.48725,35.15943],[-106.48663,35.15955],[-106.48589,35.15956],[-106.48482,35.15944],[-106.48387,35.15917],[-106.4833,35.15915],[-106.48074,35.15967],[-106.48035,35.15975],[-106.48036,35.15951],[-106.47972,35.15976],[-106.47844,35.16021],[-106.47524,35.16069],[-106.47443,35.15566],[-106.47368,35.15041],[-106.47922,35.1484],[-106.4804,35.1488],[-106.4804,35.13602],[-106.4804,35.13455],[-106.48037,35.13104],[-106.48004,35.11274],[-106.48006,35.10114],[-106.4712,35.10056],[-106.4712,35.099],[-106.47118,35.09395],[-106.47556,35.09396],[-106.47547,35.07231],[-106.47993,35.07233],[-106.47994,35.06489],[-106.48442,35.06435],[-106.48217,35.06245],[-106.48233,35.06137],[-106.48374,35.06144],[-106.4855,35.06134],[-106.4855,35.06138],[-106.48608,35.06487],[-106.48866,35.06596],[-106.48854,35.06031],[-106.48853,35.05797],[-106.48801,35.05732],[-106.48525,35.05742],[-106.47997,35.05738],[-106.47991,35.04266],[-106.49516,35.04275],[-106.49773,35.04285],[-106.50087,35.04274],[-106.50887,35.04279],[-106.52818,35.04302],[-106.52688,35.0451],[-106.51974,35.04987],[-106.51973,35.05053],[-106.52028,35.05053],[-106.52845,35.05054],[-106.52851,35.0468],[-106.53275,35.04683],[-106.53258,35.05576],[-106.53259,35.05795],[-106.53254,35.06734],[-106.53483,35.06739],[-106.53547,35.06737],[-106.55046,35.06733],[-106.55049,35.0655],[-106.55942,35.06549],[-106.55951,35.06549],[-106.55966,35.05917],[-106.55964,35.05822],[-106.56877,35.05823],[-106.5689,35.05249],[-106.56919,35.05259],[-106.56954,35.05192],[-106.57335,35.05215],[-106.57263,35.0537],[-106.57761,35.0553],[-106.58578,35.05784],[-106.58648,35.05836],[-106.58764,35.05819],[-106.59525,35.05823],[-106.60304,35.05824],[-106.6043,35.05826],[-106.60435,35.05115],[-106.60729,35.05114],[-106.60729,35.05839],[-106.60874,35.05844],[-106.60916,35.05844],[-106.61003,35.04614],[-106.57806,35.04594],[-106.57507,35.04621],[-106.57508,35.04452],[-106.57135,35.04449],[-106.57124,35.04174],[-106.58618,35.04187],[-106.60532,35.04263],[-106.60832,35.03593],[-106.60627,35.03456],[-106.61233,35.03038],[-106.61328,35.02971],[-106.61234,35.0297],[-106.59397,35.0296],[-106.59393,35.02859],[-106.58659,35.02855],[-106.58636,35.02339],[-106.58607,35.01134],[-106.56893,35.01102],[-106.56905,34.94754],[-106.66355,34.94679],[-106.66367,34.94679],[-106.66574,34.9468],[-106.66637,34.94694],[-106.66608,34.95666],[-106.65963,34.95664],[-106.65909,34.95665],[-106.657,34.95666],[-106.65701,34.96328],[-106.65701,34.96484],[-106.65703,34.97755],[-106.65363,34.99323],[-106.64809,34.9933],[-106.6476,34.9933],[-106.6395,34.99338],[-106.63948,35.00032],[-106.62186,35.00037],[-106.62185,35.01183],[-106.62183,35.01522],[-106.64005,35.01465],[-106.63942,35.01644],[-106.6398,35.0166],[-106.63953,35.01737],[-106.63965,35.04756],[-106.63975,35.04853],[-106.63955,35.04905],[-106.63956,35.05134],[-106.64404,35.05128],[-106.64386,35.05029],[-106.64421,35.04883],[-106.64422,35.04431],[-106.65498,35.04432],[-106.6571,35.0443],[-106.65803,35.04788],[-106.66246,35.04784],[-106.66637,35.04779],[-106.66552,35.04897],[-106.66249,35.05319],[-106.66232,35.05322],[-106.66127,35.05642],[-106.66045,35.06073],[-106.66315,35.06867],[-106.66319,35.06948],[-106.6661,35.07124],[-106.6673,35.07076],[-106.66882,35.07274],[-106.6702,35.07384],[-106.67461,35.07917],[-106.67679,35.07947],[-106.67714,35.07824],[-106.67908,35.08424],[-106.68108,35.08409],[-106.68209,35.08605],[-106.68367,35.08561],[-106.6832,35.08423],[-106.68149,35.08429],[-106.67969,35.0818],[-106.68066,35.07988],[-106.67868,35.07902],[-106.68279,35.07974],[-106.68185,35.07778],[-106.67927,35.0777],[-106.67932,35.0748],[-106.6809,35.0757],[-106.68109,35.07349],[-106.68447,35.07373],[-106.68468,35.07479],[-106.68621,35.0738],[-106.68728,35.07373],[-106.68726,35.07541],[-106.68648,35.07553],[-106.6861,35.07749],[-106.68303,35.07692],[-106.68298,35.07749],[-106.6865,35.07802],[-106.686,35.07857],[-106.68446,35.07823],[-106.68385,35.0792],[-106.68459,35.07942],[-106.68399,35.08016],[-106.68274,35.08002],[-106.6819,35.08172],[-106.68255,35.08319],[-106.68282,35.08194],[-106.68382,35.08215],[-106.6837,35.08381],[-106.68856,35.08408],[-106.68865,35.08187],[-106.69093,35.082],[-106.69088,35.08382],[-106.69375,35.08318],[-106.69219,35.07535],[-106.69383,35.07511],[-106.69298,35.07389],[-106.69479,35.0717],[-106.69531,35.07196],[-106.69596,35.07113],[-106.69693,35.06986],[-106.69937,35.06763],[-106.7,35.06606],[-106.70037,35.06613],[-106.70047,35.06649],[-106.70128,35.06671],[-106.70088,35.06791],[-106.70095,35.06793],[-106.70896,35.06934],[-106.71753,35.0709],[-106.71809,35.0665],[-106.71989,35.06591],[-106.72039,35.06459],[-106.71855,35.0641],[-106.71882,35.06158],[-106.72071,35.06148],[-106.72112,35.06451],[-106.72181,35.06433],[-106.72096,35.05826],[-106.72029,35.05827],[-106.71361,35.05915],[-106.7123,35.06018],[-106.7116,35.06269],[-106.71407,35.06216],[-106.71492,35.06516],[-106.71287,35.06555],[-106.71217,35.06325],[-106.70992,35.063],[-106.70899,35.06008],[-106.71111,35.05965],[-106.71289,35.05681],[-106.70655,35.05618],[-106.70662,35.0558],[-106.70829,35.05517],[-106.71291,35.05548],[-106.7132,35.05352],[-106.70913,35.05329],[-106.70957,35.05161],[-106.71404,35.05214],[-106.71493,35.04725],[-106.71447,35.04722],[-106.70912,35.04653],[-106.70956,35.04538],[-106.71054,35.0455],[-106.71247,35.04256],[-106.71552,35.04276],[-106.71508,35.04393],[-106.71769,35.04392],[-106.7178,35.04392],[-106.71943,35.04062],[-106.72263,35.04099],[-106.7233,35.03798],[-106.72052,35.03769],[-106.71848,35.03749],[-106.71893,35.03456],[-106.72407,35.0351],[-106.72362,35.03801],[-106.72757,35.03849],[-106.72754,35.02993],[-106.72737,35.02464],[-106.72744,35.02464],[-106.72812,35.02198],[-106.7451,35.02185],[-106.74514,35.02455],[-106.74617,35.02457],[-106.75207,35.02452],[-106.75239,35.02452],[-106.75309,35.0245],[-106.75391,35.02723],[-106.754,35.02952],[-106.76311,35.02946],[-106.76289,35.0438],[-106.7572,35.04382],[-106.75408,35.04394],[-106.75406,35.04451],[-106.7547,35.04468],[-106.75428,35.04654],[-106.75526,35.05076],[-106.7572,35.05075],[-106.75716,35.05535],[-106.75721,35.0554],[-106.75716,35.05604],[-106.75697,35.05615],[-106.7569,35.05618],[-106.75687,35.05849],[-106.75697,35.06027],[-106.75683,35.06342],[-106.75115,35.06473],[-106.75117,35.07088],[-106.74812,35.07153],[-106.74913,35.07456],[-106.74714,35.07501],[-106.74812,35.07794],[-106.74459,35.07874],[-106.74617,35.08198],[-106.74981,35.08297],[-106.75279,35.08214],[-106.76306,35.07697],[-106.76336,35.07742],[-106.76442,35.08048],[-106.76279,35.08084],[-106.76323,35.08568],[-106.76417,35.08907],[-106.76751,35.09142],[-106.7698,35.09177],[-106.76942,35.09327],[-106.76625,35.09604],[-106.76578,35.09752],[-106.77356,35.09884],[-106.7728,35.10251],[-106.76541,35.10378],[-106.76158,35.10108],[-106.75542,35.10108],[-106.75542,35.11069],[-106.75396,35.11143],[-106.75262,35.11207],[-106.74472,35.1122],[-106.74472,35.11358],[-106.73702,35.11383],[-106.73401,35.11604],[-106.73314,35.118],[-106.73026,35.11849],[-106.72811,35.11861],[-106.72811,35.12513],[-106.72815,35.12522],[-106.78753,35.12522],[-106.79669,35.1252],[-106.79804,35.12504],[-106.81639,35.12501],[-106.81745,35.12514],[-106.87278,35.12501],[-106.87054,35.12655],[-106.87172,35.13103],[-106.87018,35.13398],[-106.87077,35.13573],[-106.86472,35.13825]],[[-106.51666,35.05414],[-106.51854,35.05415],[-106.5197,35.05416],[-106.51971,35.05224],[-106.51973,35.05053],[-106.51666,35.05414]],[[-106.75209,35.09077],[-106.75111,35.08783],[-106.74924,35.08782],[-106.7487,35.08858],[-106.74877,35.09076],[-106.75209,35.09077]],[[-106.72682,35.064],[-106.72898,35.06384],[-106.72814,35.05761],[-106.72678,35.05772],[-106.72721,35.06083],[-106.7264,35.0609],[-106.72682,35.064]],[[-106.72591,35.05779],[-106.72527,35.05785],[-106.72564,35.06097],[-106.72632,35.0609],[-106.72591,35.05779]],[[-106.72454,35.05792],[-106.72254,35.0581],[-106.72297,35.06123],[-106.72428,35.0611],[-106.72454,35.05792]],[[-106.70334,35.19684],[-106.70326,35.19695],[-106.70024,35.19694],[-106.69853,35.19677],[-106.69694,35.19607],[-106.69578,35.19528],[-106.69809,35.19321],[-106.69591,35.19376],[-106.69486,35.19198],[-106.69102,35.19086],[-106.68878,35.18938],[-106.68854,35.19061],[-106.68633,35.1899],[-106.68625,35.18919],[-106.68474,35.18887],[-106.68371,35.18887],[-106.68358,35.18904],[-106.68387,35.1893],[-106.68427,35.18958],[-106.68409,35.18975],[-106.68474,35.19011],[-106.68477,35.19242],[-106.69086,35.19317],[-106.69251,35.19507],[-106.68828,35.19565],[-106.68732,35.19392],[-106.68531,35.19453],[-106.68604,35.19774],[-106.68677,35.19857],[-106.68939,35.1993],[-106.69134,35.19841],[-106.69396,35.19873],[-106.69846,35.19987],[-106.69635,35.20113],[-106.69298,35.19991],[-106.6931,35.20197],[-106.69083,35.20244],[-106.69132,35.20065],[-106.68864,35.2006],[-106.68715,35.20203],[-106.68933,35.20292],[-106.69039,35.20327],[-106.69485,35.20285],[-106.70329,35.20321],[-106.70412,35.20323],[-106.70998,35.20386],[-106.71296,35.204],[-106.7156,35.20329],[-106.71665,35.2034],[-106.71944,35.19581],[-106.71857,35.19375],[-106.71956,35.19258],[-106.70655,35.19665],[-106.70645,35.19646],[-106.70507,35.19675],[-106.70334,35.19684]],[[-106.68342,35.18906],[-106.6797,35.18691],[-106.67906,35.18773],[-106.68144,35.189],[-106.68016,35.19198],[-106.67913,35.1948],[-106.67823,35.19452],[-106.67296,35.19489],[-106.67259,35.19321],[-106.67065,35.19323],[-106.67029,35.19531],[-106.67041,35.1965],[-106.67438,35.19628],[-106.67654,35.19679],[-106.67868,35.19865],[-106.67988,35.20046],[-106.681,35.19825],[-106.68302,35.19802],[-106.68314,35.19709],[-106.68389,35.19726],[-106.68179,35.19566],[-106.68127,35.1938],[-106.68313,35.19024],[-106.68409,35.18975],[-106.68342,35.18906]],[[-106.68348,35.15813],[-106.68046,35.15814],[-106.67926,35.16003],[-106.6772,35.16382],[-106.67386,35.17436],[-106.67725,35.17439],[-106.68573,35.16558],[-106.68694,35.1651],[-106.68749,35.16422],[-106.69133,35.16018],[-106.69068,35.16007],[-106.6881,35.15985],[-106.68569,35.1599],[-106.68348,35.15988],[-106.68348,35.15813]],[[-106.68966,35.10296],[-106.68907,35.10224],[-106.68564,35.10202],[-106.68562,35.10249],[-106.68555,35.10274],[-106.68966,35.10296]],[[-106.68964,35.10581],[-106.68961,35.1051],[-106.68475,35.10467],[-106.68458,35.10497],[-106.68439,35.10541],[-106.68964,35.10581]],[[-106.68827,35.10121],[-106.68684,35.09965],[-106.68678,35.09955],[-106.68478,35.09948],[-106.68568,35.10107],[-106.68827,35.10121]],[[-106.68088,35.1051],[-106.68204,35.10293],[-106.679,35.1022],[-106.67857,35.10132],[-106.67787,35.10382],[-106.68088,35.1051]],[[-106.65231,35.14012],[-106.65173,35.13987],[-106.65136,35.13975],[-106.65077,35.13966],[-106.65066,35.14162],[-106.6485,35.14191],[-106.65432,35.14296],[-106.65235,35.14218],[-106.65401,35.14177],[-106.65337,35.1404],[-106.65306,35.14034],[-106.65231,35.14012]],[[-106.64257,35.14714],[-106.64284,35.1479],[-106.64295,35.14789],[-106.64381,35.14766],[-106.64359,35.14708],[-106.64472,35.14696],[-106.64428,35.1465],[-106.64409,35.14679],[-106.64166,35.14704],[-106.64182,35.14793],[-106.64257,35.14714]],[[-106.62447,35.11948],[-106.62711,35.12012],[-106.62693,35.12083],[-106.62416,35.12029],[-106.62394,35.12097],[-106.63007,35.12221],[-106.63029,35.12154],[-106.63331,35.12217],[-106.63296,35.12372],[-106.63207,35.12357],[-106.63176,35.12555],[-106.63255,35.12532],[-106.6364,35.12604],[-106.63938,35.11842],[-106.63923,35.11838],[-106.63456,35.11663],[-106.63415,35.11875],[-106.62573,35.11599],[-106.62447,35.11948]],[[-106.57227,35.07639],[-106.56871,35.076],[-106.56885,35.08711],[-106.57735,35.08714],[-106.57735,35.07977],[-106.57351,35.07977],[-106.5735,35.07844],[-106.57348,35.07651],[-106.57227,35.07639]],[[-106.56617,35.17432],[-106.56877,35.17432],[-106.56878,35.17163],[-106.56691,35.1717],[-106.56601,35.17168],[-106.56602,35.17374],[-106.56617,35.17432]],[[-106.50187,35.05665],[-106.49958,35.05711],[-106.50498,35.05738],[-106.50586,35.05772],[-106.50152,35.06024],[-106.5011,35.06151],[-106.50059,35.06176],[-106.50002,35.062],[-106.50251,35.06199],[-106.5043,35.06077],[-106.50857,35.05975],[-106.51084,35.05896],[-106.51086,35.05691],[-106.51088,35.05523],[-106.5064,35.05646],[-106.50641,35.05558],[-106.50191,35.0555],[-106.50187,35.05665]],[[-106.49685,35.06059],[-106.49624,35.06098],[-106.49659,35.06138],[-106.49687,35.06134],[-106.49736,35.06146],[-106.49763,35.06146],[-106.4978,35.06148],[-106.49798,35.06155],[-106.49768,35.06127],[-106.49754,35.05952],[-106.49668,35.05952],[-106.49685,35.06059]],[[-106.49762,35.04639],[-106.49761,35.04543],[-106.49469,35.04565],[-106.49261,35.04557],[-106.49257,35.0464],[-106.49762,35.04639]]],[[[-106.64671,35.14878],[-106.6465,35.14886],[-106.64621,35.14808],[-106.64665,35.1469],[-106.64808,35.14732],[-106.64782,35.1479],[-106.64748,35.1478],[-106.64721,35.14857],[-106.64705,35.14864],[-106.64683,35.14875],[-106.64671,35.14878]]],[[[-106.65248,35.15055],[-106.65054,35.15025],[-106.65066,35.14975],[-106.64907,35.14949],[-106.6502,35.14781],[-106.65167,35.14965],[-106.65217,35.15001],[-106.65281,35.14949],[-106.65605,35.15096],[-106.65574,35.15201],[-106.65407,35.1517],[-106.65352,35.1516],[-106.65314,35.1512],[-106.65234,35.15104],[-106.65248,35.15055]]]]}},{"type":"Feature","properties":{"name":"Corre Cantinas","boundary_type":"counties","source":"Census TIGER county","fidelity":"exact","updated":"2026-09","units":"Grant County; Luna County","note":"Weekend-night safe-ride service in Grant County (Silver City hub) and Luna County. Distinct from daytime Silver Route. Expanded to Luna County in Sept 2009.","confidence":0.8},"geometry":{"type":"Polygon","coordinates":[[[-107.29963,32.60537],[-107.29949,32.59583],[-107.29898,32.56192],[-107.29851,32.51832],[-107.29777,32.51832],[-107.29805,32.49335],[-107.29844,32.24298],[-107.29829,32.22013],[-107.29855,32.16971],[-107.29874,32.08235],[-107.29769,32.08235],[-107.29759,32.07961],[-107.29679,31.78376],[-107.29682,31.78376],[-107.42225,31.7836],[-107.42249,31.7836],[-107.62055,31.7836],[-107.62793,31.7836],[-107.64025,31.7836],[-107.86586,31.7836],[-108.20839,31.7836],[-108.20999,31.7837],[-108.21001,31.8205],[-108.21713,31.82047],[-108.21714,31.86414],[-108.31901,31.86399],[-108.52454,31.86361],[-108.52474,31.90534],[-108.52473,31.92145],[-108.52465,31.9798],[-108.52463,32.07983],[-108.53768,32.07983],[-108.53793,32.11701],[-108.53786,32.1181],[-108.53788,32.15731],[-108.53769,32.1591],[-108.53699,32.16719],[-108.53708,32.19913],[-108.53701,32.49405],[-108.53701,32.51662],[-108.64677,32.51652],[-108.64652,32.60373],[-108.68895,32.60384],[-108.73805,32.6035],[-108.85292,32.60337],[-108.85458,32.77728],[-109.04712,32.77779],[-109.04717,32.81665],[-109.04737,32.97644],[-109.04748,33.06842],[-109.04745,33.06943],[-109.0469,33.09193],[-109.04701,33.09292],[-109.04705,33.10739],[-109.04712,33.13756],[-109.04712,33.13799],[-109.04724,33.20889],[-108.97378,33.20846],[-108.95644,33.20754],[-108.85809,33.20862],[-108.85714,33.20872],[-108.819,33.20914],[-108.75176,33.2078],[-108.746,33.209],[-108.65952,33.20929],[-108.6466,33.20934],[-108.64658,33.20773],[-108.54318,33.20795],[-108.44999,33.201],[-108.21384,33.20095],[-108.20839,33.20097],[-108.19476,33.20103],[-108.18149,33.20109],[-108.0006,33.20125],[-107.86501,33.19997],[-107.86373,33.19886],[-107.86163,33.19873],[-107.85829,33.20088],[-107.85721,33.19707],[-107.85895,33.1951],[-107.86042,33.19189],[-107.8605,33.19066],[-107.8617,33.18975],[-107.86117,33.18767],[-107.85772,33.19085],[-107.85536,33.19106],[-107.85441,33.18953],[-107.85189,33.19012],[-107.84949,33.18881],[-107.84851,33.18536],[-107.84472,33.18421],[-107.84207,33.1854],[-107.84065,33.1831],[-107.83965,33.18277],[-107.84239,33.18084],[-107.84158,33.17999],[-107.8419,33.1784],[-107.83954,33.17717],[-107.84103,33.17586],[-107.84123,33.17392],[-107.84268,33.17244],[-107.84695,33.17138],[-107.85014,33.17306],[-107.85318,33.17093],[-107.85406,33.16778],[-107.85629,33.16532],[-107.85762,33.16504],[-107.8562,33.16321],[-107.85665,33.16146],[-107.85588,33.15877],[-107.85392,33.15742],[-107.85476,33.15407],[-107.85445,33.15306],[-107.85624,33.14986],[-107.85494,33.14754],[-107.85294,33.14532],[-107.85402,33.14236],[-107.85215,33.13929],[-107.85257,33.1342],[-107.85015,33.13392],[-107.84684,33.1326],[-107.84559,33.13095],[-107.84653,33.12985],[-107.84704,33.12752],[-107.84903,33.12556],[-107.84837,33.12466],[-107.84965,33.12377],[-107.85064,33.11971],[-107.84837,33.11696],[-107.84922,33.11613],[-107.84899,33.11372],[-107.84778,33.11192],[-107.84703,33.1086],[-107.84803,33.10805],[-107.84732,33.10657],[-107.84636,33.10482],[-107.84614,33.10223],[-107.84473,33.10082],[-107.84477,33.09986],[-107.84297,33.09853],[-107.84213,33.09582],[-107.8434,33.09135],[-107.84477,33.09076],[-107.84494,33.08843],[-107.8458,33.08604],[-107.8454,33.08407],[-107.84401,33.08303],[-107.84063,33.08247],[-107.83845,33.08023],[-107.83651,33.08027],[-107.83432,33.07807],[-107.8334,33.07404],[-107.83448,33.07112],[-107.8361,33.06976],[-107.83619,33.06776],[-107.83947,33.06587],[-107.84048,33.06329],[-107.84187,33.06194],[-107.84436,33.06098],[-107.84477,33.05859],[-107.84758,33.05715],[-107.85018,33.0571],[-107.85149,33.05619],[-107.84983,33.05225],[-107.85188,33.04914],[-107.85047,33.04438],[-107.85264,33.04335],[-107.8552,33.04112],[-107.85681,33.03664],[-107.85424,33.03411],[-107.85205,33.03043],[-107.84952,33.02835],[-107.84818,33.02635],[-107.84851,33.02478],[-107.84788,33.02156],[-107.84827,33.01862],[-107.84604,33.01619],[-107.8464,33.01239],[-107.8476,33.01087],[-107.84747,33.00877],[-107.84886,33.00633],[-107.85014,33.00699],[-107.85202,33.0065],[-107.85457,33.00689],[-107.85667,33.00254],[-107.85341,33.00007],[-107.85316,32.99854],[-107.8511,32.99603],[-107.84733,32.99399],[-107.84515,32.99129],[-107.84297,32.98768],[-107.84074,32.98758],[-107.84038,32.98654],[-107.84048,32.98267],[-107.83965,32.98093],[-107.83775,32.97912],[-107.83891,32.97829],[-107.8382,32.97638],[-107.83841,32.97388],[-107.83395,32.97364],[-107.83184,32.97431],[-107.83076,32.97321],[-107.83081,32.97154],[-107.82947,32.96984],[-107.8304,32.96589],[-107.82977,32.96392],[-107.82623,32.96338],[-107.82205,32.96221],[-107.82118,32.96078],[-107.81598,32.95793],[-107.81331,32.95747],[-107.81108,32.9578],[-107.80884,32.95927],[-107.80689,32.95967],[-107.80386,32.95914],[-107.80203,32.95833],[-107.80124,32.95783],[-107.79914,32.95446],[-107.79438,32.94964],[-107.7918,32.94807],[-107.78502,32.95034],[-107.78283,32.95064],[-107.78055,32.95278],[-107.77597,32.95234],[-107.77406,32.95057],[-107.77128,32.94215],[-107.77037,32.94094],[-107.77277,32.93861],[-107.77576,32.93754],[-107.77502,32.93346],[-107.77571,32.93082],[-107.77476,32.92972],[-107.77253,32.92881],[-107.76996,32.92644],[-107.76981,32.9247],[-107.76731,32.92169],[-107.76625,32.91969],[-107.76694,32.91712],[-107.76511,32.91521],[-107.76604,32.91347],[-107.76533,32.91182],[-107.76617,32.9108],[-107.76733,32.9103],[-107.76788,32.90877],[-107.76993,32.90796],[-107.77141,32.90559],[-107.77365,32.90355],[-107.77458,32.90011],[-107.7789,32.89688],[-107.77621,32.89333],[-107.77729,32.89076],[-107.77594,32.88999],[-107.77721,32.88334],[-107.77584,32.87863],[-107.77585,32.87729],[-107.77761,32.87507],[-107.77609,32.87507],[-107.77439,32.87387],[-107.77449,32.87207],[-107.77559,32.87047],[-107.77349,32.86457],[-107.77289,32.86077],[-107.77329,32.85847],[-107.77279,32.85697],[-107.77369,32.85567],[-107.77309,32.85377],[-107.77169,32.85298],[-107.76979,32.85057],[-107.76579,32.85028],[-107.76389,32.84887],[-107.76209,32.84848],[-107.75899,32.84667],[-107.75799,32.84398],[-107.75589,32.84027],[-107.75299,32.83697],[-107.75209,32.83387],[-107.74939,32.83067],[-107.74919,32.82727],[-107.74499,32.82507],[-107.74659,32.82147],[-107.74859,32.81158],[-107.74839,32.80918],[-107.74979,32.80648],[-107.74979,32.80538],[-107.74679,32.80348],[-107.74789,32.80007],[-107.74499,32.79918],[-107.74499,32.79798],[-107.74379,32.79458],[-107.74269,32.79288],[-107.74209,32.79028],[-107.74089,32.78858],[-107.73799,32.78688],[-107.73689,32.78438],[-107.73539,32.78338],[-107.73109,32.78308],[-107.72769,32.78098],[-107.72599,32.78088],[-107.72499,32.77968],[-107.72179,32.77878],[-107.72129,32.77448],[-107.71939,32.77218],[-107.71849,32.76398],[-107.71619,32.76268],[-107.71959,32.76058],[-107.71979,32.75958],[-107.71769,32.75508],[-107.71989,32.75138],[-107.72123,32.74828],[-107.71951,32.74687],[-107.71973,32.74379],[-107.72166,32.74195],[-107.72237,32.73971],[-107.72286,32.73612],[-107.72192,32.73304],[-107.71903,32.72866],[-107.71834,32.72676],[-107.71566,32.72604],[-107.71516,32.72282],[-107.71528,32.72157],[-107.71885,32.72013],[-107.71822,32.7162],[-107.72044,32.71423],[-107.71969,32.71014],[-107.71995,32.70739],[-107.71891,32.70574],[-107.71845,32.70347],[-107.71991,32.70116],[-107.71957,32.69747],[-107.72286,32.69586],[-107.72329,32.69498],[-107.72745,32.69211],[-107.72742,32.689],[-107.7284,32.6871],[-107.72754,32.68216],[-107.72828,32.68022],[-107.72702,32.67725],[-107.72542,32.67587],[-107.72434,32.67378],[-107.72455,32.67101],[-107.72409,32.66748],[-107.72587,32.66534],[-107.72532,32.66108],[-107.7271,32.65985],[-107.7285,32.65544],[-107.73083,32.65319],[-107.73156,32.64946],[-107.72948,32.64748],[-107.72995,32.64646],[-107.73374,32.64251],[-107.7334,32.63927],[-107.73176,32.63735],[-107.73206,32.63484],[-107.73446,32.63151],[-107.73695,32.62949],[-107.73444,32.62914],[-107.73228,32.62735],[-107.72831,32.62745],[-107.72252,32.62575],[-107.71692,32.62255],[-107.60848,32.60545],[-107.46484,32.60547],[-107.29963,32.60537]]]}},{"type":"Feature","properties":{"name":"MyBlue On-Demand Microtransit","boundary_type":"places","source":"Census TIGER place","fidelity":"approximate","updated":"2026-09","units":"Espa\u00f1ola city; Taos town; Nambe Pueblo and Off-Reservation Trust Land; Pueblo of Pojoaque and Off-Reservation Trust Land; Edgewood town; La Cienega CDP","note":"Five MyBlue zones per NCRTD: Espanola (town, plus service within a 15-mi radius of the Espanola Transit Center), Taos (town, plus service within a 2-mi radius of the 340 Chile Line route), Pojoaque-Nambe (Pueblo of Pojoaque + Nambe Pueblo + Jacona schools campus), Edgewood (Town of Edgewood -- NCRTD site places this in Santa Fe County, though the row text says Torrance County), La Cienega (La Cienega/La Cieneguilla, Santa Fe County). Drawn as the named towns/pueblos only, at approximate fidelity; the Espanola and Taos zones extend further (~15mi / ~2mi radius) beyond these municipal limits per official source, so true coverage is somewhat larger than shown. Source: https://ncrtd.org/myblue/","confidence":0.55},"geometry":{"type":"MultiPolygon","coordinates":[[[[-106.31312,35.19994],[-106.31225,35.20452],[-106.31167,35.20573],[-106.30539,35.2137],[-106.30375,35.2165],[-106.30195,35.21862],[-106.29809,35.22061],[-106.29708,35.22076],[-106.29191,35.22003],[-106.27316,35.22268],[-106.26822,35.2236],[-106.26418,35.22435],[-106.25215,35.23512],[-106.24597,35.23567],[-106.24505,35.23605],[-106.24422,35.21566],[-106.2442,35.21518],[-106.21228,35.21471],[-106.21124,35.21469],[-106.2112,35.21189],[-106.21021,35.17089],[-106.2091,35.17089],[-106.20908,35.16726],[-106.21487,35.16726],[-106.21487,35.17028],[-106.21792,35.17028],[-106.21792,35.16364],[-106.20913,35.16363],[-106.20938,35.15994],[-106.20917,35.15645],[-106.2135,35.1564],[-106.21353,35.15277],[-106.20918,35.15275],[-106.20918,35.1457],[-106.21792,35.14567],[-106.21794,35.14184],[-106.21571,35.14184],[-106.21572,35.14373],[-106.21351,35.14371],[-106.21351,35.14183],[-106.2038,35.14185],[-106.20026,35.14195],[-106.20026,35.14564],[-106.1959,35.14564],[-106.1959,35.14197],[-106.19143,35.142],[-106.19128,35.14915],[-106.18482,35.14918],[-106.18264,35.14829],[-106.18258,35.14201],[-106.18261,35.13474],[-106.17367,35.13482],[-106.17369,35.14202],[-106.16933,35.14204],[-106.1694,35.13842],[-106.16497,35.13839],[-106.16503,35.13476],[-106.15612,35.13469],[-106.1561,35.13469],[-106.15608,35.13275],[-106.15616,35.10574],[-106.12933,35.10567],[-106.12952,35.08403],[-106.12966,35.04956],[-106.13852,35.04953],[-106.13852,35.0438],[-106.13073,35.04053],[-106.13993,35.04051],[-106.17387,35.04033],[-106.17388,35.04771],[-106.18252,35.04771],[-106.18255,35.04405],[-106.19126,35.04402],[-106.19135,35.04026],[-106.19165,35.04025],[-106.22634,35.04015],[-106.22656,35.05476],[-106.21993,35.05482],[-106.22001,35.06932],[-106.22657,35.06927],[-106.22657,35.07516],[-106.24141,35.08124],[-106.24383,35.08212],[-106.24382,35.08255],[-106.24383,35.08391],[-106.24381,35.08464],[-106.24297,35.08431],[-106.22947,35.07876],[-106.22951,35.08391],[-106.20906,35.08398],[-106.20918,35.1104],[-106.21211,35.10889],[-106.2142,35.10927],[-106.2142,35.11046],[-106.21236,35.11051],[-106.21236,35.11164],[-106.20914,35.11166],[-106.20915,35.11297],[-106.22042,35.11293],[-106.22044,35.11036],[-106.22182,35.11033],[-106.22182,35.10925],[-106.2202,35.10924],[-106.22018,35.10808],[-106.22661,35.10806],[-106.22665,35.09844],[-106.23504,35.09847],[-106.23505,35.10565],[-106.23086,35.10562],[-106.23088,35.10941],[-106.2266,35.10942],[-106.22571,35.11087],[-106.22395,35.1109],[-106.22438,35.11305],[-106.22345,35.11306],[-106.22348,35.11657],[-106.22017,35.11656],[-106.22017,35.11838],[-106.22126,35.11838],[-106.22127,35.12025],[-106.23106,35.12018],[-106.23107,35.12736],[-106.23549,35.12733],[-106.23547,35.12366],[-106.23988,35.12364],[-106.23988,35.11995],[-106.24368,35.11993],[-106.24359,35.13443],[-106.23568,35.13447],[-106.23558,35.14173],[-106.23228,35.14176],[-106.22688,35.14184],[-106.22675,35.15634],[-106.23552,35.15634],[-106.23551,35.17025],[-106.24368,35.17024],[-106.28015,35.17037],[-106.31524,35.1705],[-106.3401,35.17058],[-106.33695,35.17383],[-106.32306,35.18421],[-106.3221,35.18505],[-106.31484,35.19484],[-106.31312,35.19994]],[[-106.21088,35.0694],[-106.20784,35.06942],[-106.21069,35.07037],[-106.21119,35.06952],[-106.21088,35.0694]],[[-106.17598,35.06584],[-106.17378,35.06585],[-106.17379,35.06774],[-106.17596,35.06771],[-106.17598,35.06584]],[[-106.15897,35.05495],[-106.16611,35.05486],[-106.1612,35.05292],[-106.15897,35.05495]]],[[[-106.24371,35.15628],[-106.23569,35.15631],[-106.23563,35.14982],[-106.23693,35.14906],[-106.24362,35.149],[-106.24371,35.15628]]],[[[-106.19912,35.16363],[-106.1981,35.16278],[-106.19168,35.1628],[-106.19162,35.15956],[-106.19809,35.15954],[-106.19809,35.15649],[-106.20026,35.15647],[-106.20026,35.16106],[-106.20467,35.16105],[-106.20467,35.16363],[-106.20908,35.16363],[-106.20906,35.16726],[-106.20025,35.1673],[-106.20025,35.16545],[-106.19584,35.16544],[-106.19584,35.16363],[-106.19912,35.16363]]],[[[-106.14431,35.56421],[-106.14342,35.56407],[-106.14104,35.56601],[-106.14167,35.56809],[-106.14176,35.57035],[-106.14315,35.57388],[-106.14227,35.57424],[-106.1425,35.57624],[-106.14171,35.57541],[-106.13909,35.57462],[-106.14017,35.57828],[-106.13856,35.57929],[-106.13633,35.58188],[-106.13629,35.58369],[-106.13492,35.58649],[-106.13599,35.58834],[-106.13597,35.5897],[-106.13423,35.59062],[-106.12996,35.59131],[-106.12946,35.59202],[-106.1305,35.59463],[-106.12847,35.59724],[-106.12471,35.60126],[-106.12381,35.60285],[-106.12128,35.60497],[-106.11972,35.60856],[-106.11826,35.61012],[-106.11806,35.61348],[-106.12013,35.61453],[-106.12085,35.61725],[-106.12276,35.61796],[-106.12019,35.62391],[-106.11504,35.62396],[-106.11505,35.62406],[-106.11203,35.62415],[-106.11198,35.61897],[-106.11218,35.61656],[-106.11211,35.60969],[-106.10773,35.60969],[-106.10777,35.59878],[-106.10332,35.59875],[-106.10327,35.60239],[-106.0855,35.60244],[-106.08454,35.60131],[-106.08593,35.59945],[-106.08449,35.59945],[-106.08387,35.60117],[-106.08167,35.60117],[-106.08144,35.59631],[-106.07581,35.59937],[-106.07155,35.59961],[-106.06737,35.59556],[-106.06283,35.59101],[-106.06473,35.58966],[-106.06677,35.58791],[-106.0669,35.58815],[-106.0763,35.58193],[-106.11575,35.55543],[-106.11956,35.55376],[-106.12199,35.55079],[-106.14446,35.53588],[-106.14541,35.53944],[-106.147,35.54314],[-106.1441,35.54537],[-106.14529,35.54813],[-106.14528,35.55],[-106.14732,35.55052],[-106.14792,35.55227],[-106.14935,35.55206],[-106.15067,35.5537],[-106.15227,35.55474],[-106.15082,35.55571],[-106.15054,35.55823],[-106.1482,35.56074],[-106.14558,35.56153],[-106.14431,35.56421]]],[[[-106.07659,36.02142],[-106.07566,36.02099],[-106.07515,36.01732],[-106.0859,36.01653],[-106.07296,36.0165],[-106.07064,36.0165],[-106.07059,36.03085],[-106.0683,36.03086],[-106.06753,36.03083],[-106.0642,36.03089],[-106.06125,36.03103],[-106.05918,36.03094],[-106.05731,36.02483],[-106.05079,36.02492],[-106.04987,36.02401],[-106.0496,36.02329],[-106.05163,36.02307],[-106.05642,36.02329],[-106.05612,36.02219],[-106.05223,36.02178],[-106.0523,36.02089],[-106.05572,36.02112],[-106.05582,36.02018],[-106.05284,36.02],[-106.0538,36.0185],[-106.05628,36.01866],[-106.053,36.01812],[-106.05461,36.017],[-106.04787,36.01653],[-106.04925,36.01612],[-106.05491,36.01597],[-106.05353,36.01255],[-106.0553,36.01246],[-106.05451,36.0107],[-106.05168,36.01059],[-106.05043,36.01156],[-106.0476,36.01098],[-106.04583,36.01006],[-106.04613,36.00889],[-106.04117,36.00889],[-106.04149,36.01067],[-106.04567,36.01058],[-106.04153,36.01109],[-106.04252,36.01269],[-106.04253,36.0127],[-106.02959,36.01298],[-106.02346,36.01291],[-106.02419,36.01144],[-106.02939,36.00963],[-106.03063,36.00731],[-106.03065,36.00207],[-106.03066,36.00002],[-106.03285,35.9963],[-106.03954,35.99694],[-106.04104,35.99631],[-106.03699,35.99574],[-106.03747,35.99372],[-106.0417,35.99431],[-106.0417,35.99714],[-106.04681,35.99832],[-106.04705,35.99652],[-106.04517,35.99538],[-106.04814,35.99569],[-106.04784,35.99461],[-106.04771,35.99202],[-106.0467,35.99184],[-106.04703,35.99139],[-106.04277,35.9901],[-106.0417,35.99117],[-106.04161,35.98981],[-106.03648,35.98858],[-106.03453,35.98911],[-106.03643,35.98531],[-106.03846,35.98607],[-106.03954,35.98611],[-106.0417,35.98605],[-106.04566,35.98674],[-106.04641,35.98699],[-106.04743,35.98093],[-106.04404,35.97653],[-106.04442,35.97633],[-106.04518,35.9759],[-106.05185,35.98381],[-106.05415,35.98508],[-106.05876,35.98627],[-106.05872,35.98632],[-106.05932,35.98618],[-106.06171,35.9858],[-106.06229,35.98576],[-106.06337,35.98606],[-106.06398,35.98589],[-106.0639,35.98539],[-106.06483,35.98203],[-106.06521,35.98121],[-106.06722,35.98204],[-106.06919,35.98276],[-106.06943,35.98253],[-106.07055,35.98279],[-106.07165,35.98307],[-106.07323,35.98389],[-106.07511,35.98486],[-106.07575,35.98518],[-106.07703,35.98584],[-106.07781,35.98584],[-106.08043,35.98582],[-106.08166,35.98581],[-106.085,35.98578],[-106.09017,35.98572],[-106.09016,35.98627],[-106.09016,35.9902],[-106.09044,36.00275],[-106.09027,36.00609],[-106.09027,36.00639],[-106.11711,36.00644],[-106.11709,36.01631],[-106.11709,36.01644],[-106.08613,36.01652],[-106.0848,36.02046],[-106.08003,36.0212],[-106.07659,36.02142]],[[-106.05109,36.00986],[-106.05133,36.01027],[-106.05437,36.01026],[-106.05432,36.01011],[-106.05394,36.00852],[-106.0516,36.00854],[-106.0516,36.00908],[-106.05111,36.00908],[-106.05109,36.00986]],[[-106.04067,36.00205],[-106.04077,36.00471],[-106.04171,36.00472],[-106.04171,36.0062],[-106.04234,36.00622],[-106.04486,36.0064],[-106.04589,36.00675],[-106.04648,36.00821],[-106.0481,36.0082],[-106.04827,36.00677],[-106.04889,36.00676],[-106.04703,36.00621],[-106.04938,36.00478],[-106.04664,36.00539],[-106.04571,36.00327],[-106.04171,36.00318],[-106.0417,36.00204],[-106.04067,36.00205]],[[-106.03999,35.99928],[-106.04016,36.00006],[-106.04133,36.00012],[-106.04131,35.99919],[-106.03999,35.99928]]],[[[-105.99664,35.84931],[-105.99789,35.84942],[-105.99626,35.84645],[-105.99352,35.84606],[-105.99276,35.84488],[-105.9912,35.84278],[-105.98999,35.84135],[-105.99254,35.84126],[-105.99407,35.84372],[-105.99726,35.8417],[-106.00046,35.84573],[-106.00215,35.84859],[-106.00137,35.85141],[-106.00177,35.85269],[-105.9989,35.85319],[-105.99861,35.85073],[-105.99664,35.84931]]],[[[-105.99103,35.84792],[-105.99281,35.84843],[-105.99103,35.84839],[-105.99114,35.8486],[-105.99136,35.8488],[-105.99157,35.84902],[-105.99265,35.84849],[-105.99298,35.84923],[-105.99246,35.84938],[-105.99278,35.85016],[-105.99442,35.85094],[-105.99499,35.85155],[-105.99557,35.85195],[-105.99702,35.85511],[-105.99553,35.85418],[-105.99044,35.85317],[-105.9904,35.85581],[-105.9904,35.85591],[-105.99752,35.85592],[-105.99779,35.85567],[-106.00119,35.85562],[-106.01245,35.85613],[-106.01542,35.85607],[-106.01741,35.85608],[-106.06279,35.85636],[-106.06246,35.87493],[-106.06253,35.88102],[-106.0628,35.88598],[-106.06252,35.88963],[-106.06249,35.89209],[-106.0625,35.9142],[-106.06251,35.93079],[-106.05435,35.93078],[-106.04166,35.93092],[-106.04166,35.93149],[-106.04166,35.93152],[-106.03616,35.93156],[-106.01838,35.93165],[-106.00733,35.93174],[-105.99032,35.93207],[-105.99036,35.92511],[-105.96221,35.92514],[-105.91773,35.9249],[-105.91781,35.89881],[-105.91788,35.88452],[-105.87478,35.88468],[-105.87549,35.87579],[-105.87558,35.87003],[-105.87477,35.8516],[-105.87471,35.82643],[-105.87533,35.82644],[-105.89242,35.82646],[-105.90017,35.82648],[-105.90394,35.82682],[-105.90609,35.82649],[-105.90989,35.8265],[-105.90969,35.8268],[-105.91341,35.82662],[-105.92183,35.82686],[-105.92895,35.82681],[-105.92919,35.83968],[-105.92905,35.84867],[-105.93595,35.84864],[-105.94897,35.84805],[-105.96619,35.84844],[-105.98305,35.84833],[-105.98322,35.84573],[-105.98847,35.84572],[-105.99103,35.84792]],[[-105.98935,35.84852],[-105.98872,35.84853],[-105.98924,35.84838],[-105.98931,35.84786],[-105.98878,35.84799],[-105.9868,35.84792],[-105.98677,35.84898],[-105.99044,35.84898],[-105.99032,35.84851],[-105.98958,35.84795],[-105.98935,35.84852]],[[-105.98798,35.84653],[-105.98828,35.84656],[-105.98753,35.84595],[-105.98334,35.84589],[-105.98329,35.84697],[-105.98715,35.84689],[-105.98798,35.84653]]],[[[-105.82635,35.85858],[-105.82133,35.85863],[-105.82114,35.84372],[-105.82625,35.84364],[-105.82619,35.85321],[-105.82635,35.85858]]],[[[-105.59937,36.38733],[-105.60083,36.38893],[-105.60065,36.3899],[-105.59957,36.3887],[-105.59893,36.38911],[-105.59835,36.38852],[-105.59901,36.3881],[-105.59799,36.38702],[-105.59742,36.38636],[-105.59449,36.38903],[-105.59298,36.39029],[-105.59925,36.3923],[-105.59723,36.39278],[-105.59767,36.39402],[-105.59475,36.3962],[-105.59175,36.39946],[-105.59287,36.40113],[-105.59003,36.4011],[-105.59044,36.40278],[-105.58794,36.4036],[-105.58859,36.40588],[-105.58823,36.40558],[-105.59175,36.40913],[-105.59082,36.40984],[-105.58937,36.40999],[-105.58779,36.40861],[-105.5859,36.40827],[-105.58678,36.40692],[-105.58527,36.40769],[-105.58353,36.40666],[-105.58265,36.40829],[-105.58326,36.41062],[-105.58447,36.4114],[-105.58254,36.41243],[-105.58207,36.41269],[-105.58006,36.41309],[-105.57973,36.41231],[-105.57941,36.41488],[-105.57826,36.41535],[-105.57945,36.41775],[-105.57978,36.41958],[-105.5738,36.42026],[-105.57488,36.42172],[-105.57274,36.42355],[-105.57273,36.42354],[-105.57039,36.42029],[-105.57003,36.41977],[-105.56775,36.41658],[-105.56682,36.41537],[-105.56591,36.41531],[-105.56385,36.4147],[-105.56394,36.41448],[-105.56529,36.41112],[-105.56624,36.40981],[-105.56595,36.40954],[-105.56561,36.40946],[-105.56517,36.40955],[-105.56504,36.40939],[-105.56469,36.40941],[-105.56452,36.40892],[-105.56497,36.4081],[-105.56495,36.4081],[-105.56527,36.40756],[-105.56355,36.40569],[-105.56361,36.40401],[-105.5632,36.40215],[-105.56355,36.40126],[-105.56385,36.40063],[-105.56574,36.4013],[-105.56759,36.39936],[-105.57102,36.39521],[-105.57107,36.39513],[-105.56989,36.3944],[-105.56856,36.39334],[-105.57093,36.38886],[-105.56945,36.38825],[-105.5711,36.38567],[-105.56895,36.38463],[-105.56752,36.38694],[-105.56503,36.38573],[-105.56498,36.38255],[-105.56772,36.37864],[-105.5648,36.37738],[-105.56424,36.37739],[-105.55868,36.37909],[-105.55632,36.37855],[-105.55629,36.37637],[-105.56191,36.37621],[-105.56316,36.37489],[-105.56213,36.37435],[-105.56535,36.37177],[-105.56322,36.37024],[-105.56754,36.3661],[-105.56603,36.36516],[-105.57587,36.35491],[-105.58002,36.35772],[-105.58063,36.35926],[-105.58052,36.36151],[-105.5794,36.36303],[-105.5845,36.36644],[-105.58559,36.3651],[-105.5928,36.37051],[-105.59605,36.36659],[-105.59579,36.36518],[-105.59797,36.36667],[-105.59937,36.36695],[-105.59762,36.36878],[-105.60141,36.37115],[-105.59994,36.37265],[-105.60598,36.37633],[-105.60596,36.37752],[-105.60196,36.381],[-105.6015,36.38477],[-105.59992,36.38426],[-105.59805,36.38588],[-105.59937,36.38733]],[[-105.57067,36.37989],[-105.56938,36.38049],[-105.57111,36.38309],[-105.57459,36.38545],[-105.57653,36.38238],[-105.57447,36.38157],[-105.57393,36.38245],[-105.57335,36.38205],[-105.57383,36.3813],[-105.57067,36.37989]]]]}},{"type":"Feature","properties":{"name":"Po'Pay Messenger","boundary_type":"zone_approx","source":"Manual approximation","fidelity":"approximate","updated":"2026-09","units":"buffer 57.4 km @ 36.0644,-106.0653","note":"Row text states a ~4,000 sq mi four-county primary service area (~10,079 route miles) centered on Ohkay Owingeh Pueblo; the four counties are not individually named in available sources, so this is drawn as a circle of the stated ~4,000 sq mi area centered on the pueblo rather than the ~27 sq mi tribal boundary alone (which drastically understated the stated service area). Source: FTA National Transit Database agency profile for Ohkay Owingeh Pueblo (https://www.transit.dot.gov/ntd/transit-agency-profiles/ohkay-owingeh-pueblo), matching figures on https://ohkay.org/popay-messenger/.","confidence":0.5},"geometry":{"type":"Polygon","coordinates":[[[-105.42985,36.01946],[-105.43711,35.97486],[-105.44916,35.93094],[-105.46589,35.88804],[-105.48719,35.84649],[-105.51288,35.80658],[-105.54278,35.76865],[-105.57666,35.73296],[-105.61425,35.69979],[-105.65528,35.6694],[-105.69943,35.64202],[-105.74636,35.61785],[-105.79572,35.59708],[-105.84713,35.57987],[-105.90021,35.56634],[-105.95453,35.5566],[-106.00971,35.55073],[-106.0653,35.54877],[-106.12089,35.55073],[-106.17607,35.5566],[-106.23039,35.56634],[-106.28347,35.57987],[-106.33488,35.59708],[-106.38424,35.61785],[-106.43117,35.64202],[-106.47532,35.6694],[-106.51635,35.69979],[-106.55394,35.73296],[-106.58782,35.76865],[-106.61772,35.80658],[-106.64341,35.84649],[-106.66471,35.88804],[-106.68144,35.93094],[-106.69349,35.97486],[-106.70075,36.01946],[-106.70318,36.0644],[-106.70075,36.10934],[-106.69349,36.15394],[-106.68144,36.19786],[-106.66471,36.24076],[-106.64341,36.28231],[-106.61772,36.32222],[-106.58782,36.36015],[-106.55394,36.39584],[-106.51635,36.42901],[-106.47532,36.4594],[-106.43117,36.48678],[-106.38424,36.51095],[-106.33488,36.53172],[-106.28347,36.54893],[-106.23039,36.56246],[-106.17607,36.5722],[-106.12089,36.57807],[-106.0653,36.58003],[-106.00971,36.57807],[-105.95453,36.5722],[-105.90021,36.56246],[-105.84713,36.54893],[-105.79572,36.53172],[-105.74636,36.51095],[-105.69943,36.48678],[-105.65528,36.4594],[-105.61425,36.42901],[-105.57666,36.39584],[-105.54278,36.36015],[-105.51288,36.32222],[-105.48719,36.28231],[-105.46589,36.24076],[-105.44916,36.19786],[-105.43711,36.15394],[-105.42985,36.10934],[-105.42742,36.0644],[-105.42985,36.01946]]]}},{"type":"Feature","properties":{"name":"Rio Metro Valencia County Dial-A-Ride","boundary_type":"county","source":"Census TIGER county","fidelity":"exact","updated":"2026-09","units":"Valencia County","note":"Countywide dial-a-ride serving Belen, Bosque Farms, Los Chavez, Los Lunas, Peralta, Rio Communities, Tome, and UNM-Valencia Campus.","confidence":0.9},"geometry":{"type":"Polygon","coordinates":[[[-107.20331,34.79696],[-107.20304,34.81152],[-107.20306,34.82561],[-107.20301,34.84146],[-107.20301,34.85516],[-107.20301,34.86962],[-107.20271,34.89518],[-107.20269,34.89883],[-107.20284,34.94229],[-107.20288,34.95757],[-107.19881,34.95758],[-107.18558,34.95756],[-107.14502,34.95737],[-107.06656,34.95719],[-107.025,34.87102],[-107.02448,34.86995],[-106.76623,34.86997],[-106.72183,34.87006],[-106.72083,34.87005],[-106.72059,34.87063],[-106.72009,34.87214],[-106.71845,34.87502],[-106.71445,34.87956],[-106.713,34.88044],[-106.71081,34.88063],[-106.70937,34.88182],[-106.70287,34.88533],[-106.70048,34.88881],[-106.70007,34.8905],[-106.69644,34.89703],[-106.69238,34.90093],[-106.68921,34.9029],[-106.68619,34.90625],[-106.42949,34.9034],[-106.4288,34.90267],[-106.424,34.90187],[-106.42291,34.90071],[-106.4229,34.89804],[-106.4208,34.89665],[-106.42068,34.89506],[-106.41895,34.89406],[-106.41811,34.89228],[-106.41521,34.89303],[-106.41336,34.89019],[-106.41156,34.88973],[-106.41178,34.87025],[-106.46387,34.87019],[-106.46455,34.81052],[-106.46456,34.80795],[-106.46477,34.7832],[-106.46679,34.74527],[-106.46672,34.72726],[-106.46665,34.70637],[-106.46622,34.67096],[-106.4662,34.67043],[-106.4661,34.66711],[-106.46487,34.60838],[-106.47118,34.60842],[-106.46979,34.52122],[-106.41688,34.52171],[-106.41699,34.51477],[-106.41787,34.50715],[-106.41748,34.49956],[-106.41692,34.43969],[-106.43875,34.43748],[-106.45631,34.43705],[-106.50462,34.457],[-106.50688,34.4576],[-106.56465,34.47389],[-106.76278,34.52974],[-106.76828,34.53126],[-106.77306,34.53329],[-106.77329,34.53339],[-106.79783,34.5438],[-106.79809,34.54391],[-106.88256,34.57946],[-106.88266,34.57953],[-106.90442,34.58045],[-107.02005,34.57958],[-107.20174,34.57876],[-107.20197,34.6088],[-107.20438,34.6088],[-107.20333,34.78303],[-107.20331,34.79696]]]}},{"type":"Feature","properties":{"name":"Rockin' 66 Express","boundary_type":"places","source":"Census TIGER place","fidelity":"approximate","updated":"2026-09","units":"Milan village; Grants city; Bluewater Village CDP; San Rafael CDP; Mount Taylor CDP","note":"Cibola County demand-response serving Milan, Grants, Bluewater Village, San Rafael, and the Mt. Taylor Addition (mapped to the Mount Taylor CDP bordering Grants; extended-area stops there require 24hr notice).","confidence":0.7},"geometry":{"type":"MultiPolygon","coordinates":[[[[-107.91977,35.09711],[-107.91987,35.09837],[-107.91849,35.10001],[-107.92062,35.10049],[-107.91736,35.10409],[-107.91539,35.10433],[-107.91163,35.1029],[-107.90919,35.1035],[-107.90618,35.10258],[-107.90396,35.10373],[-107.90161,35.10349],[-107.90159,35.10231],[-107.89997,35.10226],[-107.89917,35.1013],[-107.89733,35.10149],[-107.89642,35.10241],[-107.89437,35.10286],[-107.88915,35.10548],[-107.88739,35.10517],[-107.88801,35.10643],[-107.89302,35.11004],[-107.89584,35.11117],[-107.89664,35.11259],[-107.89796,35.11264],[-107.90276,35.11488],[-107.90439,35.11427],[-107.90669,35.11513],[-107.90718,35.11737],[-107.90667,35.14833],[-107.90813,35.15141],[-107.9081,35.15256],[-107.90663,35.15265],[-107.90647,35.16123],[-107.90533,35.16129],[-107.90581,35.17169],[-107.90999,35.17181],[-107.91005,35.17572],[-107.90681,35.17567],[-107.91004,35.18009],[-107.91217,35.18012],[-107.912,35.18722],[-107.91052,35.18611],[-107.90854,35.18703],[-107.90655,35.18615],[-107.90644,35.18979],[-107.90054,35.18955],[-107.89929,35.18967],[-107.89869,35.18969],[-107.90475,35.20186],[-107.90459,35.20406],[-107.90575,35.20409],[-107.90585,35.20552],[-107.90647,35.20556],[-107.91117,35.21487],[-107.91116,35.21509],[-107.91265,35.21798],[-107.91252,35.21813],[-107.89455,35.21807],[-107.88489,35.21795],[-107.87143,35.21791],[-107.87138,35.2138],[-107.87365,35.21083],[-107.87668,35.20825],[-107.88309,35.20379],[-107.88621,35.20134],[-107.88826,35.19893],[-107.89351,35.18984],[-107.88987,35.18973],[-107.89032,35.18847],[-107.88958,35.1864],[-107.88748,35.18351],[-107.8883,35.18137],[-107.88727,35.17953],[-107.89081,35.17817],[-107.89358,35.17816],[-107.891,35.17305],[-107.88556,35.16491],[-107.88333,35.16483],[-107.87022,35.1646],[-107.87023,35.16845],[-107.85721,35.16856],[-107.84458,35.16867],[-107.84458,35.17029],[-107.8446,35.17478],[-107.84461,35.17551],[-107.83554,35.17557],[-107.83547,35.18281],[-107.8247,35.18285],[-107.81395,35.18294],[-107.80031,35.18308],[-107.80007,35.14672],[-107.79424,35.14655],[-107.79163,35.14614],[-107.79162,35.15392],[-107.78317,35.154],[-107.78297,35.13206],[-107.7925,35.13204],[-107.79227,35.12355],[-107.79187,35.12305],[-107.7917,35.11875],[-107.79582,35.11469],[-107.7983,35.11657],[-107.79963,35.11633],[-107.8039,35.11706],[-107.80559,35.11603],[-107.80854,35.11553],[-107.8115,35.11582],[-107.81373,35.11373],[-107.82271,35.11967],[-107.82271,35.11937],[-107.82269,35.11711],[-107.83599,35.11718],[-107.83597,35.12801],[-107.83888,35.12995],[-107.84118,35.13173],[-107.85293,35.1422],[-107.85602,35.14411],[-107.85725,35.14061],[-107.86025,35.13834],[-107.86161,35.13564],[-107.86336,35.13392],[-107.86506,35.13335],[-107.8676,35.13081],[-107.87027,35.13003],[-107.87138,35.12886],[-107.87163,35.11785],[-107.87163,35.0603],[-107.8688,35.0606],[-107.86613,35.05912],[-107.86556,35.05758],[-107.86287,35.05536],[-107.86349,35.05127],[-107.86494,35.05015],[-107.8668,35.04738],[-107.87253,35.04722],[-107.87574,35.04738],[-107.88051,35.04669],[-107.88042,35.04503],[-107.88387,35.0449],[-107.88396,35.0462],[-107.88929,35.04543],[-107.889,35.05239],[-107.89797,35.05249],[-107.89797,35.04872],[-107.90672,35.04873],[-107.90687,35.0598],[-107.90475,35.05984],[-107.90163,35.06433],[-107.9023,35.06704],[-107.89972,35.06707],[-107.89538,35.0733],[-107.89485,35.07644],[-107.89168,35.08215],[-107.89009,35.08376],[-107.8902,35.08561],[-107.8895,35.08921],[-107.89477,35.08585],[-107.89861,35.08285],[-107.89895,35.08097],[-107.90103,35.08006],[-107.90273,35.07738],[-107.90485,35.07617],[-107.90681,35.07664],[-107.91119,35.07585],[-107.91545,35.079],[-107.91537,35.07413],[-107.92412,35.07426],[-107.92432,35.09436],[-107.92259,35.09424],[-107.92129,35.09503],[-107.91977,35.09711]]],[[[-107.98774,35.25648],[-107.98809,35.25957],[-107.98713,35.26189],[-107.98728,35.26378],[-107.98884,35.2653],[-107.98101,35.26548],[-107.98094,35.26204],[-107.97743,35.26183],[-107.97655,35.2596],[-107.97571,35.26153],[-107.97268,35.26473],[-107.96976,35.26216],[-107.95811,35.25019],[-107.95717,35.24939],[-107.93846,35.23664],[-107.93825,35.23572],[-107.94016,35.23367],[-107.94228,35.22999],[-107.94338,35.23092],[-107.94454,35.22998],[-107.94715,35.23275],[-107.97663,35.23281],[-107.97676,35.24697],[-107.99438,35.24717],[-107.99469,35.25053],[-107.98947,35.25203],[-107.98798,35.25393],[-107.98598,35.25508],[-107.98774,35.25648]]]]}},{"type":"Feature","properties":{"name":"Roswell Dial-a-Ride","boundary_type":"city","source":"Census TIGER place","fidelity":"exact","updated":"2026-09","units":"Roswell city","note":"Citywide demand-response within Roswell city limits, serving off-route stops not covered by Main Street fixed route.","confidence":0.85},"geometry":{"type":"Polygon","coordinates":[[[-104.58597,33.39424],[-104.57905,33.39424],[-104.57902,33.39771],[-104.57695,33.39773],[-104.57704,33.40857],[-104.56802,33.40876],[-104.56793,33.41219],[-104.56353,33.41214],[-104.56354,33.41576],[-104.55905,33.41572],[-104.55907,33.42304],[-104.5575,33.42303],[-104.54273,33.42332],[-104.54276,33.42519],[-104.54047,33.42523],[-104.54056,33.43071],[-104.54514,33.4306],[-104.54522,33.43646],[-104.54064,33.43658],[-104.54065,33.43807],[-104.52882,33.43796],[-104.52882,33.43951],[-104.52515,33.44034],[-104.52567,33.44145],[-104.52942,33.44255],[-104.52751,33.44561],[-104.52768,33.45236],[-104.52777,33.45973],[-104.51463,33.45976],[-104.51459,33.4524],[-104.51205,33.45243],[-104.51216,33.44782],[-104.50986,33.44981],[-104.50866,33.44952],[-104.50756,33.44872],[-104.50754,33.44485],[-104.5058,33.44312],[-104.50587,33.43771],[-104.50585,33.42862],[-104.49946,33.42874],[-104.49941,33.42698],[-104.49858,33.42699],[-104.49467,33.43064],[-104.48907,33.43061],[-104.48908,33.42921],[-104.48601,33.42824],[-104.48258,33.42876],[-104.48186,33.42979],[-104.47906,33.42779],[-104.47897,33.42502],[-104.48017,33.42454],[-104.47893,33.42337],[-104.47893,33.4197],[-104.48348,33.41971],[-104.48348,33.42093],[-104.48804,33.42092],[-104.48803,33.4197],[-104.49265,33.41965],[-104.49271,33.42333],[-104.50261,33.42323],[-104.50398,33.42195],[-104.50186,33.42196],[-104.5014,33.41597],[-104.50563,33.41595],[-104.50556,33.40877],[-104.49026,33.40875],[-104.48584,33.40862],[-104.48041,33.40877],[-104.4818,33.41051],[-104.48195,33.41246],[-104.47822,33.41247],[-104.47881,33.41119],[-104.47879,33.40861],[-104.5013,33.40856],[-104.50125,33.40505],[-104.5029,33.40504],[-104.50288,33.40359],[-104.50561,33.40359],[-104.5055,33.39958],[-104.5055,33.39778],[-104.50115,33.39778],[-104.50115,33.39663],[-104.50433,33.39425],[-104.49896,33.39418],[-104.49894,33.39054],[-104.49789,33.39054],[-104.49799,33.38511],[-104.50118,33.38513],[-104.50125,33.37972],[-104.50534,33.37974],[-104.50579,33.37974],[-104.50566,33.36877],[-104.50564,33.3542],[-104.50322,33.35417],[-104.50321,33.35035],[-104.50562,33.3504],[-104.50561,33.34853],[-104.50888,33.34842],[-104.50959,33.35053],[-104.51879,33.35083],[-104.51879,33.34605],[-104.52301,33.3461],[-104.52298,33.33634],[-104.52312,33.32136],[-104.52263,33.32135],[-104.52265,33.32232],[-104.52005,33.32231],[-104.52006,33.32131],[-104.50878,33.32109],[-104.49694,33.32101],[-104.49713,33.3199],[-104.49673,33.30733],[-104.49721,33.30625],[-104.49743,33.30595],[-104.49707,33.29885],[-104.49698,33.28849],[-104.49764,33.28748],[-104.49902,33.2871],[-104.53173,33.2867],[-104.53191,33.28239],[-104.53779,33.28222],[-104.53957,33.28033],[-104.54466,33.28015],[-104.54467,33.28675],[-104.55312,33.28684],[-104.55333,33.29286],[-104.55341,33.30618],[-104.55013,33.30628],[-104.54965,33.32082],[-104.54102,33.32091],[-104.52348,33.32136],[-104.5233,33.33633],[-104.52328,33.34548],[-104.52543,33.34541],[-104.52551,33.34352],[-104.52778,33.34344],[-104.52777,33.3489],[-104.53234,33.34875],[-104.53234,33.34327],[-104.54168,33.34302],[-104.54163,33.35018],[-104.55909,33.35001],[-104.55915,33.33546],[-104.5607,33.3355],[-104.56313,33.3363],[-104.5726,33.34301],[-104.5723,33.34853],[-104.57153,33.35017],[-104.54162,33.35038],[-104.53693,33.35058],[-104.53685,33.35415],[-104.5414,33.35401],[-104.54136,33.35583],[-104.54233,33.35582],[-104.54572,33.35594],[-104.54567,33.36989],[-104.54556,33.3796],[-104.54778,33.37961],[-104.55002,33.38053],[-104.55001,33.38323],[-104.55441,33.38325],[-104.55902,33.38325],[-104.55902,33.38689],[-104.56521,33.38688],[-104.58661,33.387],[-104.58669,33.39234],[-104.58597,33.39424]]]}}]}