{"type":"FeatureCollection","features":[{"type":"Feature","properties":{"name":"GET My Ride","boundary_type":"places","source":"Census TIGER place","fidelity":"exact","updated":"2026-09","units":"Elko city; Spring Creek CDP; Osino CDP; Carlin city; Wells city","note":"Main service in Elko, Spring Creek, Osino; limited service to Carlin and Wells. Ryndon not resolvable in gazetteer. Veterans medical-only trips available countywide but treated as secondary to primary service area.","confidence":0.7},"geometry":{"type":"MultiPolygon","coordinates":[[[[-116.13561,40.74197],[-116.13228,40.74197],[-116.13201,40.73862],[-116.12588,40.7386],[-116.12145,40.73896],[-116.05824,40.73857],[-116.05839,40.72479],[-116.06281,40.72467],[-116.08426,40.72467],[-116.08449,40.69532],[-116.12666,40.69535],[-116.12868,40.6957],[-116.14029,40.69564],[-116.14212,40.69563],[-116.14234,40.69756],[-116.14216,40.71729],[-116.14231,40.73872],[-116.13561,40.73864],[-116.13561,40.74197]]],[[[-115.7009,40.80936],[-115.69973,40.81157],[-115.69265,40.81474],[-115.68462,40.82053],[-115.67239,40.82958],[-115.66815,40.82678],[-115.66154,40.82544],[-115.65835,40.8251],[-115.65218,40.8251],[-115.65193,40.82445],[-115.6481,40.82316],[-115.64592,40.82327],[-115.64437,40.82196],[-115.63421,40.81986],[-115.62789,40.81958],[-115.62769,40.8167],[-115.63087,40.81092],[-115.63166,40.8084],[-115.6318,40.80267],[-115.63296,40.8003],[-115.63083,40.79967],[-115.63241,40.79814],[-115.63321,40.79599],[-115.63604,40.79233],[-115.6386,40.78794],[-115.63919,40.78596],[-115.63297,40.78599],[-115.63297,40.78115],[-115.63771,40.78112],[-115.63845,40.76883],[-115.63715,40.76694],[-115.63435,40.75831],[-115.63102,40.75396],[-115.62783,40.75389],[-115.62595,40.75482],[-115.61978,40.75699],[-115.61484,40.75764],[-115.61213,40.75872],[-115.6066,40.75857],[-115.59562,40.75926],[-115.59264,40.7599],[-115.58791,40.76024],[-115.58185,40.76028],[-115.57908,40.75993],[-115.56288,40.75723],[-115.55585,40.75759],[-115.54967,40.76079],[-115.54421,40.76133],[-115.54081,40.76236],[-115.53723,40.7624],[-115.53338,40.76065],[-115.53044,40.7608],[-115.52785,40.76515],[-115.52598,40.76677],[-115.51865,40.77049],[-115.51328,40.77115],[-115.5087,40.77059],[-115.49856,40.76837],[-115.49595,40.76727],[-115.49172,40.76624],[-115.48305,40.76602],[-115.4896,40.75423],[-115.48959,40.75259],[-115.49133,40.74568],[-115.4921,40.74438],[-115.49448,40.74436],[-115.49636,40.74138],[-115.49587,40.73949],[-115.49592,40.73006],[-115.48978,40.72986],[-115.48985,40.72414],[-115.49471,40.72253],[-115.50844,40.72241],[-115.5087,40.71517],[-115.52782,40.71513],[-115.52782,40.69994],[-115.52868,40.67799],[-115.53751,40.67224],[-115.54826,40.66595],[-115.54902,40.66775],[-115.54916,40.67019],[-115.55044,40.67186],[-115.55115,40.67461],[-115.55099,40.67741],[-115.55498,40.68104],[-115.55933,40.68192],[-115.56714,40.68187],[-115.56838,40.68219],[-115.57968,40.68217],[-115.58406,40.68375],[-115.59115,40.68474],[-115.59418,40.68572],[-115.59873,40.69239],[-115.60018,40.69356],[-115.60502,40.69649],[-115.61096,40.69975],[-115.61266,40.70113],[-115.6101,40.70796],[-115.62385,40.70792],[-115.62387,40.70911],[-115.64024,40.7099],[-115.64382,40.71104],[-115.64753,40.71358],[-115.65336,40.7171],[-115.65439,40.71615],[-115.65802,40.71757],[-115.66067,40.71672],[-115.66239,40.71739],[-115.66381,40.71884],[-115.66678,40.72341],[-115.66685,40.72703],[-115.66643,40.72785],[-115.66708,40.73344],[-115.66454,40.73454],[-115.66397,40.73659],[-115.66567,40.73936],[-115.66686,40.74256],[-115.66895,40.74626],[-115.67227,40.74942],[-115.675,40.75221],[-115.68075,40.75383],[-115.68299,40.75347],[-115.68316,40.75212],[-115.68545,40.75177],[-115.68947,40.75043],[-115.69198,40.7476],[-115.69706,40.74748],[-115.6938,40.75567],[-115.69222,40.75805],[-115.68481,40.76236],[-115.68309,40.76425],[-115.68273,40.76501],[-115.67615,40.78544],[-115.678,40.78578],[-115.69534,40.78798],[-115.69759,40.78847],[-115.69998,40.78952],[-115.70982,40.7958],[-115.70956,40.79978],[-115.70815,40.79981],[-115.70491,40.80396],[-115.70302,40.80752],[-115.7009,40.80936]]],[[[-115.8144,40.84314],[-115.80897,40.8432],[-115.80735,40.84159],[-115.80575,40.8416],[-115.80577,40.84322],[-115.80726,40.84321],[-115.8073,40.84683],[-115.80479,40.846],[-115.80241,40.84602],[-115.80138,40.84784],[-115.79894,40.84784],[-115.79893,40.84515],[-115.7976,40.84513],[-115.79768,40.84326],[-115.79529,40.84326],[-115.79534,40.8469],[-115.79536,40.84966],[-115.79875,40.84963],[-115.80014,40.8506],[-115.79907,40.85242],[-115.79907,40.8542],[-115.81469,40.85412],[-115.81473,40.8577],[-115.81477,40.86121],[-115.79564,40.86156],[-115.77639,40.86141],[-115.77633,40.85432],[-115.77625,40.85045],[-115.7672,40.85054],[-115.76673,40.84723],[-115.76632,40.84686],[-115.7619,40.8471],[-115.76187,40.85433],[-115.77356,40.85432],[-115.77397,40.86335],[-115.76929,40.86337],[-115.76923,40.86149],[-115.76222,40.86165],[-115.76219,40.85981],[-115.75977,40.85984],[-115.759,40.85803],[-115.75738,40.85859],[-115.75744,40.86297],[-115.7575,40.86926],[-115.73826,40.86929],[-115.73824,40.87219],[-115.72868,40.87216],[-115.72868,40.87654],[-115.72385,40.87653],[-115.72384,40.88018],[-115.7199,40.88017],[-115.71901,40.87833],[-115.71902,40.87704],[-115.7169,40.87877],[-115.71428,40.88269],[-115.71077,40.88727],[-115.71336,40.88832],[-115.71256,40.89069],[-115.70929,40.88937],[-115.70793,40.89115],[-115.70611,40.89052],[-115.70824,40.88727],[-115.71757,40.8693],[-115.71844,40.86797],[-115.74224,40.84707],[-115.73799,40.84707],[-115.73794,40.84312],[-115.73796,40.83633],[-115.73766,40.8366],[-115.73713,40.83627],[-115.73677,40.83658],[-115.73445,40.83656],[-115.73344,40.83721],[-115.73421,40.83825],[-115.73286,40.83865],[-115.73336,40.83953],[-115.73392,40.83988],[-115.7333,40.84039],[-115.73243,40.83982],[-115.6996,40.83972],[-115.69956,40.82534],[-115.71799,40.82514],[-115.71798,40.82315],[-115.71567,40.81787],[-115.71239,40.81517],[-115.71174,40.81298],[-115.71263,40.81067],[-115.71892,40.81063],[-115.71898,40.8157],[-115.72282,40.81569],[-115.72374,40.81923],[-115.7238,40.81766],[-115.73789,40.81747],[-115.74722,40.8176],[-115.75697,40.81795],[-115.76693,40.81785],[-115.76697,40.81425],[-115.77623,40.81418],[-115.77653,40.81777],[-115.77971,40.81777],[-115.78559,40.81778],[-115.7856,40.81637],[-115.79021,40.81363],[-115.79712,40.81357],[-115.80453,40.8135],[-115.80451,40.81054],[-115.80448,40.80672],[-115.81275,40.80671],[-115.8167,40.80671],[-115.82349,40.80671],[-115.82357,40.80346],[-115.82494,40.80308],[-115.8281,40.80311],[-115.83216,40.80315],[-115.83371,40.80316],[-115.83344,40.83937],[-115.81457,40.83949],[-115.81457,40.84159],[-115.8144,40.84154],[-115.8144,40.84314]],[[-115.83022,40.80675],[-115.82855,40.80672],[-115.82834,40.80672],[-115.82813,40.8069],[-115.82808,40.80915],[-115.83022,40.80675]],[[-115.81446,40.81136],[-115.80759,40.81494],[-115.79301,40.82031],[-115.7857,40.82256],[-115.78573,40.82384],[-115.801,40.81922],[-115.80843,40.81616],[-115.81015,40.81876],[-115.80912,40.81968],[-115.80486,40.82263],[-115.80485,40.82434],[-115.80481,40.82617],[-115.8048,40.83591],[-115.80002,40.83595],[-115.80002,40.83657],[-115.8025,40.83676],[-115.80252,40.83779],[-115.80483,40.83851],[-115.80481,40.83774],[-115.80965,40.8377],[-115.80959,40.83587],[-115.8145,40.83585],[-115.81444,40.82264],[-115.82087,40.82059],[-115.81783,40.81584],[-115.81625,40.81337],[-115.81445,40.8134],[-115.81443,40.81287],[-115.81446,40.81136]],[[-115.80969,40.83947],[-115.81123,40.83946],[-115.81122,40.83879],[-115.81214,40.83878],[-115.81212,40.83769],[-115.80965,40.8377],[-115.80969,40.83947]],[[-115.7961,40.83578],[-115.79906,40.8367],[-115.8,40.83499],[-115.79838,40.83532],[-115.79765,40.83414],[-115.79607,40.83415],[-115.7961,40.83578]],[[-115.79663,40.85061],[-115.79537,40.8506],[-115.79539,40.85227],[-115.79663,40.85227],[-115.79663,40.85061]],[[-115.73652,40.83373],[-115.73655,40.83288],[-115.73366,40.83262],[-115.73364,40.83395],[-115.73596,40.8346],[-115.73652,40.83373]],[[-115.72117,40.83159],[-115.72129,40.82887],[-115.72508,40.82886],[-115.72511,40.82526],[-115.71893,40.82525],[-115.71893,40.8325],[-115.72362,40.8325],[-115.72117,40.83159]]],[[[-115.70788,40.89121],[-115.70793,40.89115],[-115.7101,40.89116],[-115.71161,40.89115],[-115.71071,40.89276],[-115.70803,40.8926],[-115.70712,40.8922],[-115.70788,40.89121]]],[[[-115.64295,40.95598],[-115.64317,40.94558],[-115.64028,40.94601],[-115.639,40.94544],[-115.63856,40.94326],[-115.64321,40.9409],[-115.64266,40.93933],[-115.64441,40.9372],[-115.65175,40.93553],[-115.65468,40.93453],[-115.66619,40.92887],[-115.67067,40.92758],[-115.67555,40.92486],[-115.68082,40.92236],[-115.6769,40.92559],[-115.67732,40.92585],[-115.67824,40.92659],[-115.6825,40.92735],[-115.68188,40.92943],[-115.68155,40.94164],[-115.66238,40.94188],[-115.66237,40.95602],[-115.64295,40.95598]]],[[[-114.98306,41.11082],[-114.98344,41.11514],[-114.9837,41.11703],[-114.98374,41.11903],[-114.98434,41.1277],[-114.91496,41.12712],[-114.91523,41.11992],[-114.91161,41.11972],[-114.91177,41.11062],[-114.9253,41.1107],[-114.92529,41.10422],[-114.94482,41.10434],[-114.94516,41.0968],[-114.95666,41.09702],[-114.95681,41.09329],[-114.96211,41.09341],[-114.96257,41.09731],[-114.96526,41.09695],[-114.97411,41.09733],[-114.98373,41.09701],[-114.99294,41.09711],[-114.99295,41.10481],[-114.98355,41.10457],[-114.98352,41.10665],[-114.98189,41.10659],[-114.98306,41.11082]]]]}},{"type":"Feature","properties":{"name":"Lake Link (Nevada service area)","boundary_type":"places","source":"Census TIGER place","fidelity":"exact","updated":"2026-09","units":"Round Hill Village CDP; Zephyr Cove CDP; Stateline CDP","note":"Douglas County service area covering Round Hill, Lower Kingsbury, Zephyr Cove, Stateline casino corridor. Nevada portion of bi-state Lake Link service (CA row exists separately). Lower Kingsbury treated as part of broader Round Hill/Zephyr Cove cluster.","confidence":0.7},"geometry":{"type":"Polygon","coordinates":[[[-119.93895,38.96376],[-119.93602,38.96252],[-119.93521,38.96131],[-119.93556,38.95964],[-119.93876,38.95692],[-119.94207,38.95919],[-119.94957,38.96433],[-119.95129,38.96551],[-119.95137,38.96556],[-119.95387,38.9756],[-119.95898,38.98658],[-119.95829,38.98766],[-119.95502,38.98939],[-119.95554,38.99316],[-119.95866,38.99786],[-119.9611,39.00026],[-119.96143,39.0022],[-119.95631,39.00535],[-119.95096,39.00633],[-119.95007,39.00728],[-119.94742,39.00767],[-119.94437,39.00757],[-119.94267,39.0083],[-119.93766,39.00893],[-119.9369,39.01059],[-119.93468,39.01187],[-119.92966,39.01275],[-119.92845,39.01461],[-119.92598,39.01512],[-119.91851,39.01729],[-119.9172,39.01714],[-119.91371,39.01856],[-119.91116,39.01903],[-119.90979,39.01856],[-119.90721,39.01895],[-119.90595,39.02],[-119.90616,39.02221],[-119.9051,39.02333],[-119.90377,39.02369],[-119.90021,39.02602],[-119.89635,39.02715],[-119.89422,39.02954],[-119.89354,39.03119],[-119.89123,39.03143],[-119.89392,39.02823],[-119.89829,39.02543],[-119.89832,39.02435],[-119.89539,39.01901],[-119.89273,39.01894],[-119.89214,39.01544],[-119.89328,39.01436],[-119.89276,39.01205],[-119.8907,39.00856],[-119.89308,39.00474],[-119.89305,39.00167],[-119.89437,39.00055],[-119.89666,38.99741],[-119.8971,38.99477],[-119.89897,38.99306],[-119.89993,38.99035],[-119.90238,38.9889],[-119.90299,38.98754],[-119.90627,38.98514],[-119.90832,38.98471],[-119.91232,38.98327],[-119.91366,38.98224],[-119.9172,38.98087],[-119.91728,38.98646],[-119.92206,38.98636],[-119.92259,38.97858],[-119.92556,38.97792],[-119.92728,38.97616],[-119.92755,38.97462],[-119.92889,38.97333],[-119.93495,38.97119],[-119.93547,38.96904],[-119.93895,38.96376]]]}},{"type":"Feature","properties":{"name":"RTC OnDemand","boundary_type":"zone_approx","source":"Manual approximation","fidelity":"approximate","updated":"2026-09","units":"buffer 5.17 km @ 36.0272,-115.1147","note":"Approx. 32\u201333 sq mi zone spanning Southwest Las Vegas Valley and West Henderson, Clark County (RTC OnDemand, https://www.rtcsnv.com/rtcondemand/). Circle centered on CSV pin (36.0272, -115.1147) with radius from stated area (32.5 sq mi \u2192 r\u22485.17 km); not clipped to city limits since the zone straddles the Las Vegas/Henderson boundary. Service area has expanded multiple times since 2021 launch; current boundary approximated.","confidence":0.8},"geometry":{"type":"Polygon","coordinates":[[[-115.05749,36.02315],[-115.05815,36.01914],[-115.05923,36.01518],[-115.06074,36.01132],[-115.06265,36.00757],[-115.06497,36.00398],[-115.06766,36.00056],[-115.07071,35.99735],[-115.07409,35.99436],[-115.07779,35.99162],[-115.08176,35.98916],[-115.08599,35.98698],[-115.09043,35.98511],[-115.09506,35.98356],[-115.09984,35.98234],[-115.10473,35.98146],[-115.10969,35.98093],[-115.1147,35.98076],[-115.11971,35.98093],[-115.12467,35.98146],[-115.12956,35.98234],[-115.13434,35.98356],[-115.13897,35.98511],[-115.14341,35.98698],[-115.14764,35.98916],[-115.15161,35.99162],[-115.15531,35.99436],[-115.15869,35.99735],[-115.16174,36.00056],[-115.16443,36.00398],[-115.16675,36.00757],[-115.16866,36.01132],[-115.17017,36.01518],[-115.17125,36.01914],[-115.17191,36.02315],[-115.17213,36.0272],[-115.17191,36.03125],[-115.17125,36.03526],[-115.17017,36.03922],[-115.16866,36.04308],[-115.16675,36.04683],[-115.16443,36.05042],[-115.16174,36.05384],[-115.15869,36.05705],[-115.15531,36.06004],[-115.15161,36.06278],[-115.14764,36.06524],[-115.14341,36.06742],[-115.13897,36.06929],[-115.13434,36.07084],[-115.12956,36.07206],[-115.12467,36.07294],[-115.11971,36.07347],[-115.1147,36.07364],[-115.10969,36.07347],[-115.10473,36.07294],[-115.09984,36.07206],[-115.09506,36.07084],[-115.09043,36.06929],[-115.08599,36.06742],[-115.08176,36.06524],[-115.07779,36.06278],[-115.07409,36.06004],[-115.07071,36.05705],[-115.06766,36.05384],[-115.06497,36.05042],[-115.06265,36.04683],[-115.06074,36.04308],[-115.05923,36.03922],[-115.05815,36.03526],[-115.05749,36.03125],[-115.05727,36.0272],[-115.05749,36.02315]]]}},{"type":"Feature","properties":{"name":"RTC Washoe FlexRIDE On-Demand Service","boundary_type":"places","source":"Census TIGER place","fidelity":"exact","updated":"2026-09","units":"Reno city; Sparks city","note":"Service zones include North Valleys, Sparks/Spanish Springs, South Meadows, Verdi/Somersett. Specify main incorporated centers (Reno, Sparks); unincorporated zones approximated within these bounds.","confidence":0.7},"geometry":{"type":"MultiPolygon","coordinates":[[[[-120.00274,39.49467],[-120.00272,39.49552],[-119.99782,39.49548],[-119.99757,39.49495],[-119.99754,39.49463],[-120.00274,39.49467]]],[[[-119.99074,39.51331],[-119.98977,39.51644],[-119.98876,39.51517],[-119.98792,39.51638],[-119.98266,39.51636],[-119.9826,39.51913],[-119.97951,39.51949],[-119.97631,39.51794],[-119.97671,39.51738],[-119.9743,39.51624],[-119.97495,39.51769],[-119.97291,39.51758],[-119.97286,39.51844],[-119.96672,39.51837],[-119.96219,39.51755],[-119.96242,39.51573],[-119.95999,39.51191],[-119.95857,39.51082],[-119.96437,39.51094],[-119.96419,39.5093],[-119.96194,39.50751],[-119.95574,39.50717],[-119.95784,39.50498],[-119.97353,39.50541],[-119.97308,39.49752],[-119.97283,39.49301],[-119.97284,39.49091],[-119.97789,39.49091],[-119.97784,39.48733],[-119.97309,39.48734],[-119.97281,39.48734],[-119.97291,39.48377],[-119.97322,39.48377],[-119.98267,39.48375],[-119.98254,39.48084],[-119.98274,39.48008],[-119.98724,39.4801],[-119.9874,39.48375],[-119.99059,39.48374],[-119.99057,39.48689],[-119.99149,39.49513],[-119.99323,39.50215],[-119.99212,39.50545],[-119.99217,39.50926],[-119.99016,39.51272],[-119.98754,39.51414],[-119.99074,39.51331]]],[[[-119.99662,39.50691],[-119.9956,39.50966],[-119.99425,39.50989],[-119.99337,39.51155],[-119.99312,39.5149],[-119.99322,39.51149],[-119.99488,39.50319],[-119.99344,39.49724],[-119.9939,39.49459],[-119.99504,39.49576],[-119.99408,39.49801],[-119.99514,39.5029],[-119.99758,39.50255],[-119.99887,39.50062],[-119.99811,39.49576],[-120.00272,39.49581],[-120.0027,39.4965],[-120.00252,39.50437],[-119.99998,39.50435],[-119.99661,39.50481],[-119.99662,39.50691]]],[[[-119.97498,39.5216],[-119.97433,39.51997],[-119.96361,39.51968],[-119.97256,39.51931],[-119.97994,39.52081],[-119.97498,39.5216]]],[[[-119.99691,39.52609],[-119.99557,39.52452],[-119.99401,39.52425],[-119.99081,39.52703],[-119.98784,39.52621],[-119.98257,39.52712],[-119.97675,39.52714],[-119.9682,39.52699],[-119.96822,39.53423],[-119.97289,39.53435],[-119.97293,39.54875],[-119.95549,39.54875],[-119.9473,39.54863],[-119.94471,39.54859],[-119.93756,39.54304],[-119.93762,39.54442],[-119.93287,39.54463],[-119.93299,39.54653],[-119.92364,39.5469],[-119.92366,39.55234],[-119.91891,39.55247],[-119.91881,39.5549],[-119.91094,39.55492],[-119.91056,39.55373],[-119.90904,39.55225],[-119.90064,39.55208],[-119.90063,39.55446],[-119.89692,39.55411],[-119.89673,39.55242],[-119.88824,39.55147],[-119.88699,39.54893],[-119.88645,39.55194],[-119.88197,39.55196],[-119.88201,39.54829],[-119.85928,39.54867],[-119.85902,39.54974],[-119.85902,39.55227],[-119.85486,39.55237],[-119.84915,39.55237],[-119.84839,39.5511],[-119.84513,39.55219],[-119.84353,39.54989],[-119.84213,39.54999],[-119.84209,39.54871],[-119.83588,39.5488],[-119.83588,39.54551],[-119.82649,39.54555],[-119.82488,39.54496],[-119.82089,39.54366],[-119.82183,39.54635],[-119.82202,39.54904],[-119.82387,39.54903],[-119.82531,39.55068],[-119.82542,39.55069],[-119.82832,39.55335],[-119.82863,39.55608],[-119.84513,39.55608],[-119.8451,39.55971],[-119.84508,39.56339],[-119.84053,39.56342],[-119.83573,39.56346],[-119.8356,39.57259],[-119.83809,39.57255],[-119.8381,39.57347],[-119.84044,39.57354],[-119.84043,39.57618],[-119.8357,39.57621],[-119.83572,39.57802],[-119.84512,39.57798],[-119.84519,39.58628],[-119.84526,39.59079],[-119.84662,39.59078],[-119.84759,39.59077],[-119.8476,39.59167],[-119.84528,39.5917],[-119.84528,39.5926],[-119.84998,39.59262],[-119.85004,39.59624],[-119.85471,39.59623],[-119.85471,39.59799],[-119.85469,39.60343],[-119.85472,39.60446],[-119.85541,39.60536],[-119.85471,39.6062],[-119.8547,39.6124],[-119.85635,39.61306],[-119.85703,39.61305],[-119.85838,39.60947],[-119.85835,39.608],[-119.85951,39.60799],[-119.85943,39.6064],[-119.85946,39.60277],[-119.86231,39.6043],[-119.86375,39.60425],[-119.86379,39.60708],[-119.87533,39.60699],[-119.87118,39.60405],[-119.87418,39.60544],[-119.88012,39.60963],[-119.88017,39.60697],[-119.88301,39.6086],[-119.88299,39.60693],[-119.88301,39.60693],[-119.89239,39.60695],[-119.89236,39.61051],[-119.89995,39.61032],[-119.90006,39.60695],[-119.90007,39.60648],[-119.91893,39.60694],[-119.91893,39.60697],[-119.91888,39.61421],[-119.90947,39.61415],[-119.90879,39.61761],[-119.91423,39.61788],[-119.91881,39.61758],[-119.91886,39.61758],[-119.91893,39.6216],[-119.91742,39.6216],[-119.91701,39.62286],[-119.91893,39.62322],[-119.91893,39.62469],[-119.91647,39.62526],[-119.91633,39.62481],[-119.91622,39.62521],[-119.91404,39.62503],[-119.91444,39.62382],[-119.91085,39.62312],[-119.91133,39.62156],[-119.90552,39.62132],[-119.89642,39.62138],[-119.89618,39.62214],[-119.90273,39.62359],[-119.91437,39.62614],[-119.91467,39.62784],[-119.91545,39.6279],[-119.91568,39.62718],[-119.92134,39.62712],[-119.92134,39.62874],[-119.91882,39.62874],[-119.91868,39.63483],[-119.91904,39.63537],[-119.92234,39.63773],[-119.92231,39.65059],[-119.90356,39.65047],[-119.90357,39.65932],[-119.90358,39.68702],[-119.90359,39.6934],[-119.9036,39.70659],[-119.90226,39.70657],[-119.90226,39.70838],[-119.8745,39.7081],[-119.87454,39.70445],[-119.86992,39.70442],[-119.87003,39.69358],[-119.86539,39.69358],[-119.86567,39.68638],[-119.8563,39.68636],[-119.85649,39.67919],[-119.84717,39.67919],[-119.84844,39.67536],[-119.84936,39.67556],[-119.85652,39.67684],[-119.85633,39.66661],[-119.8565,39.65044],[-119.83938,39.65047],[-119.83937,39.64867],[-119.83242,39.64839],[-119.83242,39.64776],[-119.8312,39.64938],[-119.82849,39.64936],[-119.82813,39.64936],[-119.82806,39.65233],[-119.82841,39.65234],[-119.82994,39.65233],[-119.82881,39.65043],[-119.83078,39.65044],[-119.83064,39.6576],[-119.83297,39.65761],[-119.83288,39.66122],[-119.83756,39.66123],[-119.83747,39.67194],[-119.84705,39.67202],[-119.84726,39.67506],[-119.84273,39.67395],[-119.83489,39.67177],[-119.83213,39.66947],[-119.83182,39.66899],[-119.82965,39.66439],[-119.8269,39.66484],[-119.82587,39.66431],[-119.82601,39.65761],[-119.81468,39.6577],[-119.8147,39.6541],[-119.81009,39.65413],[-119.81016,39.65052],[-119.81696,39.64959],[-119.8193,39.64958],[-119.81929,39.64777],[-119.82249,39.64695],[-119.82492,39.64988],[-119.82883,39.64839],[-119.82931,39.64782],[-119.831,39.64657],[-119.83476,39.64384],[-119.83604,39.64523],[-119.83652,39.64626],[-119.84045,39.64745],[-119.84708,39.64686],[-119.84692,39.63941],[-119.84147,39.63935],[-119.84239,39.63873],[-119.84447,39.63887],[-119.84421,39.63607],[-119.84405,39.63556],[-119.8462,39.62904],[-119.848,39.62352],[-119.84868,39.62078],[-119.84812,39.616],[-119.84833,39.61496],[-119.84892,39.61403],[-119.84546,39.61449],[-119.83738,39.61455],[-119.83132,39.61459],[-119.83138,39.61203],[-119.83372,39.611],[-119.83381,39.60742],[-119.83265,39.60743],[-119.83149,39.60755],[-119.83134,39.60373],[-119.83399,39.6037],[-119.83353,39.60107],[-119.83172,39.59998],[-119.83152,39.59846],[-119.83,39.59742],[-119.82794,39.59775],[-119.82646,39.60114],[-119.82726,39.60377],[-119.81036,39.60386],[-119.81114,39.60504],[-119.81029,39.60591],[-119.80931,39.60496],[-119.80912,39.60388],[-119.80875,39.60249],[-119.80785,39.60197],[-119.8079,39.60194],[-119.80784,39.59836],[-119.80773,39.59436],[-119.80741,39.58549],[-119.80752,39.57824],[-119.80145,39.5782],[-119.79739,39.57817],[-119.78512,39.57828],[-119.78507,39.56738],[-119.78348,39.56739],[-119.78254,39.5674],[-119.78021,39.56742],[-119.77904,39.56563],[-119.77787,39.56564],[-119.77781,39.56742],[-119.7773,39.56722],[-119.7767,39.56468],[-119.7753,39.56494],[-119.77557,39.56652],[-119.77559,39.56982],[-119.77699,39.57012],[-119.7756,39.57109],[-119.77329,39.57112],[-119.77326,39.56753],[-119.77095,39.56752],[-119.771,39.57114],[-119.76164,39.5711],[-119.76171,39.56522],[-119.76363,39.56385],[-119.76174,39.56273],[-119.76186,39.5565],[-119.75702,39.55646],[-119.75847,39.55866],[-119.75965,39.55848],[-119.75788,39.56056],[-119.75414,39.56213],[-119.75026,39.56254],[-119.74895,39.56365],[-119.747,39.56365],[-119.747,39.56682],[-119.74691,39.56746],[-119.74595,39.5755],[-119.74528,39.57831],[-119.74388,39.58169],[-119.74771,39.58185],[-119.74771,39.58548],[-119.74257,39.58473],[-119.74225,39.58546],[-119.7339,39.58543],[-119.73357,39.58543],[-119.73362,39.5927],[-119.73399,39.59387],[-119.73467,39.59387],[-119.73483,39.59394],[-119.7336,39.60269],[-119.73473,39.60269],[-119.73333,39.60592],[-119.73353,39.60722],[-119.73996,39.60728],[-119.74324,39.60731],[-119.74311,39.60924],[-119.74277,39.61444],[-119.7434,39.61443],[-119.74683,39.61442],[-119.7522,39.61439],[-119.75208,39.61743],[-119.75693,39.61758],[-119.75685,39.62061],[-119.75195,39.62048],[-119.74274,39.62114],[-119.73788,39.62148],[-119.73785,39.62936],[-119.73877,39.63606],[-119.74099,39.63606],[-119.75287,39.6361],[-119.75292,39.63732],[-119.7532,39.63724],[-119.75321,39.65054],[-119.73433,39.65055],[-119.73432,39.63606],[-119.73442,39.63606],[-119.73538,39.6349],[-119.73492,39.63326],[-119.73284,39.63425],[-119.73263,39.63114],[-119.73619,39.63136],[-119.73618,39.62874],[-119.73515,39.62524],[-119.73266,39.62541],[-119.73265,39.62613],[-119.72865,39.62612],[-119.72867,39.62178],[-119.72518,39.62163],[-119.72569,39.6209],[-119.72139,39.618],[-119.714,39.61787],[-119.71391,39.62147],[-119.70454,39.62134],[-119.70443,39.62878],[-119.71392,39.62875],[-119.71408,39.62147],[-119.72503,39.62181],[-119.72045,39.62753],[-119.71554,39.6337],[-119.7135,39.63625],[-119.70906,39.63625],[-119.71016,39.63683],[-119.71097,39.63771],[-119.71188,39.63823],[-119.71169,39.63846],[-119.71161,39.63856],[-119.70968,39.63684],[-119.70846,39.63636],[-119.69118,39.63636],[-119.67783,39.63635],[-119.67776,39.63625],[-119.67465,39.63625],[-119.67417,39.62917],[-119.67267,39.62834],[-119.67155,39.62869],[-119.67328,39.62965],[-119.67155,39.62967],[-119.67156,39.63363],[-119.66689,39.63361],[-119.66691,39.63625],[-119.66578,39.63625],[-119.66361,39.63627],[-119.6559,39.63618],[-119.65594,39.63069],[-119.6497,39.63069],[-119.6497,39.6252],[-119.65282,39.6252],[-119.65282,39.62276],[-119.66219,39.62274],[-119.66218,39.59922],[-119.66567,39.59922],[-119.66566,39.59741],[-119.66217,39.59741],[-119.66214,39.59376],[-119.67759,39.5938],[-119.67756,39.58685],[-119.67755,39.58355],[-119.67753,39.54828],[-119.67753,39.52794],[-119.67753,39.52005],[-119.68223,39.5201],[-119.68223,39.52373],[-119.69047,39.5238],[-119.69103,39.52324],[-119.69113,39.52314],[-119.69159,39.52269],[-119.69209,39.52208],[-119.69408,39.52211],[-119.69525,39.5213],[-119.6963,39.52052],[-119.69627,39.51643],[-119.701,39.51648],[-119.70102,39.51276],[-119.71337,39.51283],[-119.71505,39.51284],[-119.72453,39.51197],[-119.71505,39.51298],[-119.71271,39.51297],[-119.71273,39.51995],[-119.71491,39.51792],[-119.71695,39.51771],[-119.71867,39.51603],[-119.72096,39.51457],[-119.72254,39.5143],[-119.72555,39.51493],[-119.72891,39.51453],[-119.7295,39.51299],[-119.73284,39.51208],[-119.73425,39.51373],[-119.73699,39.51436],[-119.73919,39.51693],[-119.74092,39.51742],[-119.7437,39.51271],[-119.73973,39.51246],[-119.74417,39.50521],[-119.74499,39.49805],[-119.74802,39.49864],[-119.74801,39.49773],[-119.74803,39.49368],[-119.74699,39.49192],[-119.74396,39.48968],[-119.74201,39.48978],[-119.74088,39.49144],[-119.7329,39.49485],[-119.7362,39.4956],[-119.73136,39.49802],[-119.7296,39.49809],[-119.72634,39.49808],[-119.7237,39.49817],[-119.72573,39.49645],[-119.72701,39.49577],[-119.72706,39.49516],[-119.72569,39.49461],[-119.72543,39.49385],[-119.72914,39.49004],[-119.73038,39.48469],[-119.73374,39.48487],[-119.7337,39.48144],[-119.73129,39.48139],[-119.73005,39.48253],[-119.72846,39.48116],[-119.72633,39.47814],[-119.72479,39.47728],[-119.72661,39.4764],[-119.73364,39.47654],[-119.73359,39.47375],[-119.73358,39.47294],[-119.73318,39.47294],[-119.72891,39.47298],[-119.72876,39.47113],[-119.72865,39.46615],[-119.72807,39.46596],[-119.72368,39.46601],[-119.72338,39.46254],[-119.71909,39.46232],[-119.71898,39.45732],[-119.71429,39.45709],[-119.71423,39.45646],[-119.71402,39.45436],[-119.7142,39.44797],[-119.705,39.44774],[-119.70515,39.44243],[-119.70516,39.4423],[-119.70539,39.43485],[-119.70543,39.43338],[-119.69609,39.43294],[-119.6914,39.43294],[-119.69112,39.42568],[-119.69581,39.42567],[-119.70058,39.42591],[-119.70049,39.42234],[-119.70531,39.42264],[-119.70528,39.41918],[-119.71015,39.41907],[-119.71014,39.42053],[-119.71345,39.42042],[-119.71354,39.41636],[-119.71501,39.41529],[-119.71491,39.40994],[-119.71361,39.41025],[-119.7135,39.40841],[-119.71482,39.40837],[-119.71458,39.40415],[-119.72642,39.40431],[-119.72666,39.40412],[-119.72834,39.40235],[-119.72903,39.40143],[-119.7292,39.40128],[-119.72957,39.4011],[-119.73362,39.39889],[-119.73409,39.3969],[-119.73561,39.39776],[-119.73679,39.39844],[-119.7369,39.3985],[-119.73735,39.39817],[-119.73645,39.39672],[-119.73842,39.3966],[-119.73847,39.38897],[-119.73789,39.3883],[-119.73853,39.38616],[-119.73794,39.38548],[-119.73931,39.3858],[-119.73944,39.38776],[-119.74091,39.38812],[-119.74034,39.38538],[-119.74058,39.38326],[-119.74128,39.38164],[-119.74291,39.37945],[-119.74311,39.38221],[-119.75253,39.38226],[-119.75284,39.38945],[-119.75701,39.38955],[-119.75379,39.38376],[-119.7532,39.38227],[-119.75871,39.38229],[-119.75822,39.38106],[-119.76228,39.38009],[-119.76316,39.38231],[-119.77104,39.38236],[-119.77122,39.38961],[-119.77249,39.38959],[-119.77239,39.39133],[-119.76978,39.39163],[-119.76741,39.39243],[-119.76793,39.39424],[-119.76496,39.39923],[-119.76547,39.39681],[-119.76101,39.3968],[-119.75623,39.40253],[-119.75498,39.40533],[-119.75016,39.40904],[-119.75136,39.41089],[-119.75279,39.41064],[-119.75961,39.40632],[-119.75967,39.4045],[-119.75962,39.40394],[-119.76897,39.40419],[-119.77134,39.40421],[-119.77135,39.4113],[-119.76137,39.4113],[-119.75964,39.41455],[-119.75933,39.41737],[-119.75897,39.41777],[-119.7577,39.41851],[-119.76007,39.4222],[-119.76175,39.42385],[-119.76341,39.42372],[-119.76371,39.42766],[-119.76675,39.42757],[-119.76676,39.43023],[-119.76975,39.43475],[-119.77048,39.43424],[-119.77017,39.43778],[-119.77077,39.43858],[-119.77134,39.4378],[-119.77274,39.43874],[-119.77341,39.44047],[-119.77481,39.44058],[-119.77467,39.44219],[-119.77762,39.44248],[-119.77824,39.44395],[-119.77663,39.44653],[-119.7769,39.44754],[-119.78814,39.44791],[-119.78804,39.44996],[-119.7902,39.44997],[-119.79057,39.45089],[-119.79055,39.4525],[-119.78794,39.45251],[-119.78788,39.45332],[-119.79055,39.45332],[-119.79055,39.45501],[-119.79231,39.45501],[-119.79231,39.45241],[-119.79395,39.4522],[-119.79776,39.45232],[-119.79742,39.4538],[-119.79854,39.45502],[-119.79867,39.45502],[-119.79869,39.45739],[-119.79722,39.45739],[-119.79684,39.45862],[-119.79395,39.45863],[-119.79396,39.46229],[-119.7889,39.46227],[-119.78987,39.46443],[-119.79241,39.4639],[-119.79343,39.46463],[-119.79379,39.46704],[-119.79664,39.46606],[-119.79948,39.46641],[-119.80056,39.46571],[-119.80205,39.46725],[-119.80109,39.46947],[-119.80793,39.46938],[-119.80793,39.46931],[-119.8078,39.46845],[-119.80977,39.46654],[-119.81003,39.46419],[-119.80931,39.46219],[-119.82645,39.46196],[-119.82648,39.46523],[-119.82894,39.4656],[-119.83384,39.46785],[-119.83441,39.47286],[-119.83354,39.47471],[-119.83119,39.47472],[-119.83121,39.47655],[-119.83199,39.47663],[-119.83487,39.47438],[-119.83594,39.47404],[-119.83739,39.474],[-119.84113,39.47535],[-119.84289,39.47611],[-119.84375,39.4767],[-119.84513,39.47665],[-119.84504,39.47298],[-119.84489,39.46805],[-119.84488,39.46752],[-119.84478,39.46181],[-119.85609,39.46171],[-119.87246,39.46161],[-119.87258,39.46889],[-119.86797,39.46887],[-119.86807,39.47249],[-119.86345,39.47248],[-119.86356,39.47515],[-119.86349,39.48017],[-119.86794,39.48443],[-119.86824,39.48645],[-119.86906,39.48954],[-119.86791,39.49327],[-119.86502,39.49606],[-119.86339,39.49695],[-119.86341,39.50075],[-119.85863,39.50473],[-119.85863,39.50388],[-119.85818,39.50204],[-119.8562,39.50244],[-119.85456,39.50476],[-119.85607,39.50664],[-119.85771,39.50555],[-119.85864,39.50745],[-119.85863,39.5059],[-119.86165,39.50543],[-119.86165,39.50366],[-119.8635,39.50578],[-119.86284,39.50713],[-119.86533,39.50712],[-119.8669,39.51041],[-119.87577,39.51017],[-119.8762,39.51009],[-119.87886,39.50941],[-119.88271,39.50781],[-119.88427,39.50735],[-119.88659,39.50699],[-119.88812,39.50692],[-119.8866,39.50556],[-119.8832,39.50543],[-119.88184,39.50552],[-119.88386,39.50339],[-119.88184,39.50304],[-119.88182,39.49914],[-119.88472,39.49813],[-119.88771,39.49661],[-119.88976,39.49672],[-119.89099,39.49812],[-119.88971,39.50088],[-119.8903,39.50086],[-119.89361,39.50078],[-119.89382,39.50361],[-119.89199,39.50475],[-119.89274,39.50509],[-119.89573,39.5035],[-119.89843,39.5038],[-119.90276,39.50653],[-119.90037,39.50413],[-119.90001,39.50104],[-119.90629,39.50004],[-119.91068,39.50428],[-119.91284,39.5081],[-119.91374,39.51225],[-119.91746,39.51215],[-119.91739,39.51389],[-119.91738,39.51542],[-119.91584,39.51502],[-119.91552,39.51577],[-119.91289,39.51579],[-119.90821,39.51581],[-119.90844,39.51335],[-119.90705,39.51293],[-119.90539,39.51015],[-119.90065,39.509],[-119.89855,39.50989],[-119.89754,39.50983],[-119.89578,39.5092],[-119.896,39.5114],[-119.89503,39.51212],[-119.90043,39.51224],[-119.90044,39.51367],[-119.89576,39.51444],[-119.89577,39.51574],[-119.90045,39.51594],[-119.90807,39.51594],[-119.90801,39.51936],[-119.91006,39.51935],[-119.91011,39.522],[-119.91162,39.522],[-119.91162,39.5231],[-119.92242,39.52309],[-119.92332,39.52308],[-119.92327,39.52191],[-119.92792,39.52105],[-119.93038,39.52145],[-119.93073,39.521],[-119.93134,39.51955],[-119.9314,39.521],[-119.93152,39.52309],[-119.93555,39.52309],[-119.93639,39.52497],[-119.93641,39.52308],[-119.94089,39.52305],[-119.94071,39.51045],[-119.94571,39.51172],[-119.94943,39.51311],[-119.95063,39.51247],[-119.9498,39.51334],[-119.95092,39.51401],[-119.95148,39.51434],[-119.9526,39.51319],[-119.95603,39.51705],[-119.95453,39.51616],[-119.9544,39.51937],[-119.95901,39.51947],[-119.95918,39.51941],[-119.96022,39.52113],[-119.96264,39.51967],[-119.96524,39.52111],[-119.96683,39.52043],[-119.96733,39.52253],[-119.96967,39.52238],[-119.97498,39.5216],[-119.9764,39.52271],[-119.97965,39.52373],[-119.98075,39.52534],[-119.98393,39.52286],[-119.98759,39.52113],[-119.9891,39.5232],[-119.99168,39.52204],[-119.99396,39.52423],[-119.99815,39.51624],[-120.00023,39.51632],[-120.0013,39.51828],[-119.99849,39.5222],[-119.99942,39.52367],[-119.99752,39.52318],[-119.99604,39.52436],[-119.99691,39.52609]],[[-119.76703,39.39155],[-119.76738,39.39077],[-119.76548,39.39058],[-119.76334,39.3919],[-119.76168,39.39372],[-119.76162,39.39449],[-119.76199,39.39495],[-119.76313,39.39447],[-119.76741,39.39243],[-119.76703,39.39155]],[[-119.78035,39.55276],[-119.77983,39.55299],[-119.77911,39.55393],[-119.77894,39.55339],[-119.77251,39.55391],[-119.77233,39.55486],[-119.77115,39.55336],[-119.77113,39.55433],[-119.77106,39.55654],[-119.77715,39.5567],[-119.77914,39.55667],[-119.77914,39.55709],[-119.78012,39.55697],[-119.78057,39.55692],[-119.78035,39.55276]],[[-119.96073,39.52163],[-119.96057,39.52195],[-119.96128,39.52241],[-119.96157,39.52254],[-119.96189,39.52261],[-119.96325,39.52268],[-119.96325,39.52255],[-119.96289,39.52251],[-119.96222,39.52239],[-119.96186,39.52228],[-119.96114,39.52193],[-119.96073,39.52163]],[[-119.8879,39.50479],[-119.88651,39.50496],[-119.88651,39.50511],[-119.88767,39.50507],[-119.8895,39.50467],[-119.89133,39.5046],[-119.89104,39.50422],[-119.89093,39.50415],[-119.89049,39.50392],[-119.88948,39.50412],[-119.88878,39.50458],[-119.8879,39.50479]],[[-119.852,39.62893],[-119.85375,39.63191],[-119.85459,39.63303],[-119.85563,39.63246],[-119.86219,39.63248],[-119.8637,39.63371],[-119.8637,39.63183],[-119.86369,39.62924],[-119.86633,39.62929],[-119.8667,39.62824],[-119.86874,39.62695],[-119.86913,39.62646],[-119.86954,39.62492],[-119.86839,39.6223],[-119.86399,39.62145],[-119.85468,39.62169],[-119.85463,39.62891],[-119.852,39.62893]],[[-119.86588,39.63761],[-119.86588,39.63598],[-119.8637,39.63599],[-119.85719,39.63599],[-119.85859,39.63761],[-119.86329,39.6368],[-119.86588,39.63761]],[[-119.85484,39.63333],[-119.85521,39.63377],[-119.85917,39.6338],[-119.85917,39.6332],[-119.85484,39.63333]],[[-119.84592,39.52997],[-119.84581,39.52983],[-119.84559,39.52967],[-119.84558,39.52954],[-119.84565,39.52938],[-119.8459,39.52916],[-119.84726,39.52837],[-119.84826,39.52752],[-119.84881,39.52725],[-119.84515,39.5274],[-119.84515,39.5301],[-119.84569,39.53023],[-119.84601,39.53024],[-119.84592,39.52997]],[[-119.84481,39.60842],[-119.84364,39.60725],[-119.84332,39.60726],[-119.84317,39.61105],[-119.84486,39.61126],[-119.84481,39.60842]],[[-119.8429,39.50395],[-119.84262,39.50387],[-119.84145,39.5036],[-119.84184,39.50438],[-119.84281,39.50402],[-119.8429,39.50395]],[[-119.83753,39.49741],[-119.83615,39.49786],[-119.83686,39.49819],[-119.83696,39.49823],[-119.83758,39.4978],[-119.83753,39.49741]],[[-119.81994,39.5928],[-119.82276,39.59344],[-119.82403,39.59276],[-119.82278,39.59268],[-119.82389,39.59192],[-119.82384,39.58978],[-119.82158,39.5898],[-119.82161,39.59278],[-119.81994,39.5928]],[[-119.81759,39.58037],[-119.81723,39.5803],[-119.81694,39.58364],[-119.81928,39.58361],[-119.81929,39.58498],[-119.81694,39.58579],[-119.81694,39.58639],[-119.81864,39.58637],[-119.81918,39.58559],[-119.81927,39.58675],[-119.82335,39.58665],[-119.82346,39.58656],[-119.82016,39.58291],[-119.82094,39.58269],[-119.82096,39.58177],[-119.81935,39.58201],[-119.81759,39.58037]],[[-119.8157,39.49277],[-119.81491,39.49473],[-119.81257,39.49475],[-119.81257,39.49511],[-119.81257,39.49807],[-119.81257,39.49819],[-119.81389,39.50019],[-119.81259,39.5002],[-119.81257,39.50185],[-119.81713,39.5018],[-119.81712,39.50077],[-119.82085,39.50055],[-119.82179,39.49829],[-119.82184,39.49175],[-119.8213,39.49158],[-119.82201,39.49066],[-119.82112,39.49153],[-119.81987,39.4912],[-119.81717,39.4912],[-119.81848,39.49191],[-119.8157,39.49277]],[[-119.8183,39.60011],[-119.81709,39.60012],[-119.81714,39.60206],[-119.81817,39.60203],[-119.81814,39.60088],[-119.8183,39.60011]],[[-119.79454,39.45679],[-119.79513,39.45502],[-119.79246,39.45501],[-119.79245,39.4571],[-119.79395,39.4571],[-119.79395,39.45677],[-119.79454,39.45679]],[[-119.78469,39.52893],[-119.78747,39.52893],[-119.78674,39.52745],[-119.78671,39.52101],[-119.78535,39.52051],[-119.78534,39.52745],[-119.78534,39.52746],[-119.78469,39.52893]],[[-119.75894,39.46948],[-119.7576,39.46944],[-119.7559,39.46918],[-119.75679,39.4658],[-119.76146,39.46581],[-119.76147,39.46216],[-119.75833,39.46216],[-119.75209,39.46214],[-119.75226,39.45482],[-119.74758,39.45483],[-119.74747,39.45844],[-119.74567,39.45848],[-119.74566,39.45627],[-119.74337,39.45601],[-119.74278,39.46046],[-119.7428,39.46952],[-119.74745,39.4695],[-119.74746,39.47212],[-119.74746,39.47238],[-119.7475,39.47238],[-119.74757,39.4722],[-119.74768,39.47217],[-119.74755,39.47154],[-119.74965,39.47153],[-119.75236,39.47342],[-119.75578,39.47431],[-119.75595,39.47665],[-119.76277,39.47667],[-119.7632,39.47425],[-119.76231,39.47087],[-119.76261,39.47071],[-119.76145,39.46963],[-119.76146,39.46945],[-119.75894,39.46948]],[[-119.76227,39.42773],[-119.76173,39.42691],[-119.76084,39.42554],[-119.75699,39.42701],[-119.75742,39.4276],[-119.75853,39.42911],[-119.76227,39.42773]],[[-119.75668,39.42377],[-119.75826,39.42629],[-119.76068,39.42529],[-119.75928,39.42313],[-119.75668,39.42377]],[[-119.75718,39.39366],[-119.75845,39.39349],[-119.75964,39.39334],[-119.75936,39.39184],[-119.75837,39.39173],[-119.75805,39.39089],[-119.75776,39.39089],[-119.75714,39.39091],[-119.75718,39.39366]],[[-119.75249,39.38944],[-119.75112,39.38944],[-119.74782,39.38943],[-119.74781,39.39309],[-119.75246,39.3931],[-119.75249,39.38944]],[[-119.74782,39.38879],[-119.74783,39.38583],[-119.74314,39.3858],[-119.74315,39.38942],[-119.74782,39.38943],[-119.74782,39.38879]],[[-119.75246,39.40161],[-119.75245,39.40003],[-119.75155,39.40047],[-119.75246,39.40161]],[[-119.74824,39.40876],[-119.74614,39.40955],[-119.74541,39.41127],[-119.74817,39.41125],[-119.74864,39.40968],[-119.74824,39.40876]],[[-119.73841,39.39777],[-119.73839,39.39943],[-119.73976,39.40028],[-119.73976,39.39778],[-119.73841,39.39777]],[[-119.71273,39.42812],[-119.7138,39.42766],[-119.71147,39.42762],[-119.71141,39.42987],[-119.71407,39.42987],[-119.71273,39.42812]],[[-119.77597,39.55102],[-119.77598,39.54982],[-119.77127,39.54982],[-119.77126,39.55004],[-119.77123,39.55104],[-119.77597,39.55102]],[[-119.77116,39.55313],[-119.77117,39.5528],[-119.77034,39.55278],[-119.77033,39.55314],[-119.77116,39.55315],[-119.77116,39.55313]],[[-119.71807,39.56726],[-119.71996,39.56724],[-119.72509,39.5671],[-119.72468,39.56353],[-119.71749,39.5636],[-119.71848,39.56463],[-119.71703,39.56645],[-119.71807,39.56726]],[[-119.68845,39.54605],[-119.69002,39.54909],[-119.69518,39.54911],[-119.69627,39.54911],[-119.69628,39.54297],[-119.69541,39.54335],[-119.69464,39.54273],[-119.6938,39.54374],[-119.68845,39.54605]],[[-119.68615,39.62884],[-119.69498,39.6288],[-119.69504,39.62522],[-119.69076,39.62522],[-119.68654,39.62537],[-119.68843,39.62793],[-119.68615,39.62884]],[[-119.67721,39.62131],[-119.67721,39.62113],[-119.67689,39.62113],[-119.67689,39.62138],[-119.67721,39.62138],[-119.67721,39.62131]],[[-119.67645,39.62708],[-119.67615,39.62708],[-119.67616,39.62731],[-119.67646,39.6273],[-119.67645,39.62708]]],[[[-119.87753,39.60302],[-119.88002,39.6032],[-119.88076,39.60426],[-119.88299,39.60693],[-119.88135,39.60695],[-119.87484,39.60505],[-119.86988,39.60283],[-119.87085,39.60029],[-119.87753,39.60302]]],[[[-119.98643,39.65578],[-119.99619,39.66807],[-119.9947,39.66882],[-119.99257,39.66957],[-119.99256,39.67197],[-119.98787,39.67197],[-119.98106,39.67491],[-119.9808,39.6791],[-119.97874,39.67912],[-119.9787,39.67694],[-119.97868,39.67664],[-119.9787,39.67551],[-119.97683,39.67565],[-119.97289,39.67482],[-119.97374,39.67305],[-119.97069,39.67095],[-119.96949,39.67337],[-119.96175,39.66913],[-119.96064,39.6675],[-119.96058,39.66293],[-119.95973,39.66107],[-119.95512,39.66106],[-119.9551,39.65743],[-119.94573,39.65746],[-119.94576,39.66458],[-119.94118,39.66447],[-119.94104,39.65029],[-119.95737,39.65024],[-119.95746,39.64551],[-119.95829,39.64363],[-119.9522,39.64123],[-119.95233,39.63591],[-119.97568,39.63586],[-119.97564,39.63088],[-119.97558,39.62157],[-119.985,39.62141],[-119.98488,39.61775],[-119.99437,39.61769],[-119.99443,39.62116],[-119.99207,39.62118],[-119.99211,39.62326],[-119.99531,39.62323],[-119.99531,39.62398],[-119.99914,39.62396],[-119.99914,39.63215],[-119.99456,39.63219],[-119.99454,39.63581],[-120.00152,39.6358],[-120.00148,39.65029],[-119.98064,39.65031],[-119.97995,39.65095],[-119.98457,39.65389],[-119.98643,39.65578]]],[[[-119.93886,39.66829],[-119.93886,39.66768],[-119.93882,39.66456],[-119.94118,39.66447],[-119.94126,39.66996],[-119.94107,39.6793],[-119.93874,39.6791],[-119.93876,39.67822],[-119.93888,39.66996],[-119.93886,39.66829]]],[[[-119.905,39.70839],[-119.92219,39.70832],[-119.92216,39.70519],[-119.92212,39.69956],[-119.92208,39.69404],[-119.92841,39.69398],[-119.94079,39.69386],[-119.94098,39.68352],[-119.94107,39.6793],[-119.95654,39.67931],[-119.95621,39.68259],[-119.95438,39.68277],[-119.95449,39.68811],[-119.95167,39.68807],[-119.94986,39.68997],[-119.95037,39.69015],[-119.95471,39.6936],[-119.95915,39.69354],[-119.96042,39.69427],[-119.96108,39.70831],[-119.96622,39.70827],[-119.96881,39.70826],[-119.96882,39.71079],[-119.96884,39.71913],[-119.95945,39.71919],[-119.95945,39.72295],[-119.90362,39.72292],[-119.9036,39.71009],[-119.905,39.70839]],[[-119.94079,39.69393],[-119.94052,39.70835],[-119.95937,39.70833],[-119.95947,39.69382],[-119.95013,39.69371],[-119.94164,39.69388],[-119.94079,39.69386],[-119.94079,39.69393]]]]}}]}