{"type":"FeatureCollection","features":[{"type":"Feature","properties":{"name":"Buffalo All Access","boundary_type":"city","source":"Census TIGER place","fidelity":"approximate","updated":"2026-09","units":"Buffalo city","note":"Service centered on Buffalo Niagara Medical Campus district and surrounding neighborhoods; open to general public. Service zone is a subset of city limits","confidence":0.7},"geometry":{"type":"Polygon","coordinates":[[[-78.91245,42.95625],[-78.91206,42.95665],[-78.90868,42.95913],[-78.90864,42.95916],[-78.90685,42.96047],[-78.89875,42.96646],[-78.89676,42.96499],[-78.89253,42.96126],[-78.89061,42.95857],[-78.88929,42.95857],[-78.88925,42.95857],[-78.87874,42.95863],[-78.87838,42.95864],[-78.86962,42.95869],[-78.86947,42.95869],[-78.86159,42.95867],[-78.85864,42.95865],[-78.85326,42.95863],[-78.84381,42.95849],[-78.83829,42.95841],[-78.83704,42.95838],[-78.8321,42.95829],[-78.8293,42.95823],[-78.82384,42.95813],[-78.81974,42.95803],[-78.81888,42.95741],[-78.81387,42.95946],[-78.80894,42.96142],[-78.80768,42.95654],[-78.80387,42.95641],[-78.80388,42.95456],[-78.80866,42.95465],[-78.80876,42.95226],[-78.81036,42.95216],[-78.81149,42.94946],[-78.80341,42.94938],[-78.79825,42.94926],[-78.79838,42.9489],[-78.79856,42.9441],[-78.79882,42.94292],[-78.79882,42.94094],[-78.79902,42.93734],[-78.79901,42.93546],[-78.79901,42.9351],[-78.799,42.93323],[-78.79898,42.92993],[-78.79898,42.92988],[-78.79955,42.92954],[-78.79915,42.92279],[-78.79915,42.919],[-78.79915,42.91848],[-78.79905,42.91616],[-78.79906,42.90974],[-78.79916,42.90683],[-78.79916,42.90304],[-78.79927,42.89877],[-78.79931,42.89558],[-78.79935,42.88978],[-78.79947,42.88727],[-78.79945,42.88506],[-78.79955,42.88458],[-78.79976,42.87633],[-78.7999,42.87173],[-78.7996,42.86731],[-78.80008,42.86484],[-78.80016,42.86152],[-78.80024,42.85848],[-78.80033,42.85456],[-78.80062,42.84599],[-78.80065,42.84543],[-78.79923,42.84638],[-78.7969,42.84552],[-78.79822,42.84329],[-78.79516,42.84114],[-78.79666,42.83837],[-78.8002,42.83927],[-78.80079,42.84154],[-78.80082,42.8396],[-78.80083,42.83895],[-78.80092,42.83551],[-78.80105,42.83254],[-78.8017,42.83198],[-78.80562,42.83199],[-78.80861,42.83201],[-78.80916,42.83201],[-78.81255,42.832],[-78.82391,42.83204],[-78.82393,42.83129],[-78.82394,42.83074],[-78.824,42.82688],[-78.82724,42.82688],[-78.82788,42.82689],[-78.83289,42.82677],[-78.83433,42.82615],[-78.83665,42.83186],[-78.8376,42.83196],[-78.8446,42.83221],[-78.85993,42.83226],[-78.8608,42.83744],[-78.85792,42.83878],[-78.86581,42.85288],[-78.87203,42.85211],[-78.88256,42.86726],[-78.89011,42.87667],[-78.88871,42.87805],[-78.88786,42.8789],[-78.89165,42.88484],[-78.90264,42.89588],[-78.90607,42.89932],[-78.90594,42.90695],[-78.90584,42.91306],[-78.9057,42.92115],[-78.90566,42.92336],[-78.90916,42.93326],[-78.91237,42.93775],[-78.91424,42.94038],[-78.91401,42.94248],[-78.91245,42.95625]]]}},{"type":"Feature","properties":{"name":"CDTA FLEX+","boundary_type":"city","source":"Census TIGER place","fidelity":"exact","updated":"2026-09","units":"Albany city","note":"Microtransit zone covering downtown Albany core and Amtrak station connections; actual service area may be subset of city limits","confidence":0.9},"geometry":{"type":"Polygon","coordinates":[[[-73.8968,42.71058],[-73.89649,42.712],[-73.89371,42.71242],[-73.89389,42.71329],[-73.87781,42.7194],[-73.8743,42.72073],[-73.86987,42.72238],[-73.86546,42.71962],[-73.83477,42.70152],[-73.82785,42.69638],[-73.81682,42.69094],[-73.81215,42.6902],[-73.81269,42.6905],[-73.80084,42.68844],[-73.80031,42.68905],[-73.79973,42.68869],[-73.79463,42.68835],[-73.78723,42.68702],[-73.78559,42.68444],[-73.78413,42.68373],[-73.77993,42.68184],[-73.77862,42.68299],[-73.77801,42.68555],[-73.77283,42.68318],[-73.7687,42.68129],[-73.77057,42.67895],[-73.7653,42.67638],[-73.76233,42.67897],[-73.76083,42.68029],[-73.76124,42.68089],[-73.76066,42.6811],[-73.75988,42.68129],[-73.75876,42.68166],[-73.75881,42.68176],[-73.76024,42.68493],[-73.75432,42.68308],[-73.75133,42.68209],[-73.74312,42.67932],[-73.74298,42.67927],[-73.73515,42.67687],[-73.72475,42.67346],[-73.72326,42.67288],[-73.72496,42.67018],[-73.72913,42.66505],[-73.72923,42.66494],[-73.73086,42.66328],[-73.73943,42.6568],[-73.74036,42.65608],[-73.7418,42.65432],[-73.74656,42.64618],[-73.74764,42.64323],[-73.74771,42.64308],[-73.75067,42.63702],[-73.75116,42.63608],[-73.75296,42.62868],[-73.75956,42.61418],[-73.75974,42.61379],[-73.76207,42.61391],[-73.76351,42.61586],[-73.76505,42.6152],[-73.76405,42.61949],[-73.76682,42.62056],[-73.76856,42.62027],[-73.77077,42.6221],[-73.77337,42.62279],[-73.77676,42.62545],[-73.7805,42.62584],[-73.78147,42.62489],[-73.78451,42.62653],[-73.78745,42.62704],[-73.78943,42.628],[-73.79068,42.62705],[-73.79546,42.62677],[-73.79527,42.62961],[-73.79711,42.62984],[-73.79691,42.63119],[-73.79777,42.63397],[-73.79904,42.63414],[-73.8022,42.63449],[-73.8053,42.63324],[-73.80715,42.63193],[-73.80925,42.63274],[-73.81005,42.63703],[-73.80896,42.63893],[-73.81182,42.64067],[-73.81343,42.64251],[-73.81613,42.64455],[-73.81877,42.6444],[-73.82034,42.64306],[-73.82115,42.64086],[-73.82239,42.64029],[-73.82577,42.64128],[-73.82782,42.64082],[-73.83068,42.64134],[-73.83383,42.64034],[-73.8372,42.64073],[-73.84008,42.64212],[-73.84387,42.64177],[-73.84541,42.64252],[-73.84607,42.64353],[-73.84571,42.64657],[-73.84646,42.64856],[-73.84719,42.64865],[-73.84226,42.6525],[-73.83791,42.65413],[-73.82955,42.655],[-73.82419,42.65686],[-73.82346,42.65781],[-73.8209,42.66022],[-73.82153,42.66027],[-73.82472,42.6593],[-73.82813,42.65937],[-73.82955,42.66075],[-73.82684,42.66245],[-73.82432,42.66543],[-73.82459,42.6658],[-73.82696,42.66856],[-73.82778,42.66889],[-73.82787,42.67025],[-73.82863,42.67574],[-73.82742,42.67645],[-73.82653,42.67754],[-73.82127,42.68328],[-73.84217,42.6898],[-73.8439,42.69026],[-73.84413,42.69031],[-73.85537,42.69392],[-73.87657,42.70061],[-73.8787,42.70104],[-73.8834,42.70276],[-73.8981,42.70743],[-73.89421,42.70977],[-73.8968,42.71058]]]}},{"type":"Feature","properties":{"name":"Centro MOVE","boundary_type":"city","source":"Census TIGER place","fidelity":"exact","updated":"2026-09","units":"Rome city","note":"Single microtransit zone in Rome launched March 2024; possible future Syracuse zone expansion reported in Nov 2025 but not yet confirmed as launched","confidence":0.85},"geometry":{"type":"Polygon","coordinates":[[[-75.65979,43.22756],[-75.65843,43.23096],[-75.65597,43.23568],[-75.65532,43.23941],[-75.65203,43.23999],[-75.6504,43.24089],[-75.64868,43.24354],[-75.64752,43.2439],[-75.64589,43.24327],[-75.64687,43.24168],[-75.64517,43.24037],[-75.64,43.24061],[-75.63776,43.23918],[-75.63448,43.2379],[-75.63335,43.23834],[-75.63217,43.2415],[-75.63244,43.24347],[-75.63398,43.24503],[-75.63294,43.24584],[-75.63096,43.24574],[-75.62951,43.24654],[-75.62739,43.24674],[-75.62562,43.24588],[-75.62523,43.24436],[-75.62585,43.24276],[-75.62543,43.24165],[-75.62238,43.2421],[-75.62195,43.24339],[-75.62227,43.24573],[-75.62462,43.24817],[-75.62521,43.25008],[-75.62484,43.25167],[-75.62451,43.25351],[-75.6205,43.25554],[-75.61993,43.25485],[-75.61974,43.25219],[-75.61858,43.25146],[-75.61434,43.2521],[-75.61165,43.25375],[-75.61009,43.25419],[-75.60838,43.25326],[-75.6072,43.25364],[-75.60748,43.25578],[-75.60886,43.25744],[-75.61033,43.25778],[-75.61229,43.25778],[-75.61273,43.25825],[-75.61156,43.26224],[-75.60796,43.26601],[-75.6068,43.26616],[-75.60333,43.2663],[-75.59777,43.26695],[-75.5934,43.26762],[-75.58315,43.26837],[-75.50657,43.27299],[-75.50593,43.27299],[-75.49606,43.27367],[-75.49561,43.27379],[-75.49146,43.27397],[-75.46939,43.27572],[-75.46423,43.27618],[-75.45092,43.27667],[-75.44082,43.27747],[-75.416,43.27938],[-75.39341,43.28152],[-75.39092,43.27337],[-75.38563,43.23232],[-75.38482,43.22657],[-75.38352,43.21777],[-75.38352,43.21727],[-75.38342,43.21297],[-75.38294,43.21133],[-75.38282,43.20548],[-75.38212,43.20408],[-75.38142,43.19686],[-75.37857,43.19473],[-75.37385,43.19506],[-75.36707,43.19453],[-75.36547,43.19337],[-75.36658,43.19167],[-75.36499,43.1906],[-75.36111,43.19129],[-75.35956,43.19048],[-75.36148,43.18971],[-75.36167,43.18787],[-75.35906,43.18855],[-75.35795,43.18969],[-75.35496,43.18946],[-75.35253,43.18788],[-75.35145,43.18663],[-75.35051,43.1842],[-75.34955,43.1837],[-75.34745,43.18565],[-75.34391,43.18223],[-75.3427,43.17949],[-75.34091,43.17876],[-75.35556,43.17757],[-75.40254,43.17517],[-75.40464,43.17508],[-75.42182,43.17427],[-75.46399,43.17249],[-75.47047,43.17215],[-75.47801,43.17186],[-75.48364,43.1718],[-75.4849,43.17181],[-75.49356,43.17111],[-75.52132,43.1699],[-75.53729,43.16935],[-75.54393,43.16889],[-75.54468,43.16962],[-75.54614,43.17134],[-75.54603,43.20125],[-75.54585,43.20528],[-75.54578,43.20668],[-75.5453,43.21546],[-75.54534,43.21914],[-75.54481,43.22593],[-75.55001,43.22565],[-75.55159,43.22373],[-75.55434,43.22325],[-75.55728,43.22413],[-75.55812,43.2231],[-75.56119,43.2233],[-75.56148,43.22229],[-75.56456,43.22239],[-75.56621,43.2219],[-75.56836,43.22238],[-75.56935,43.2217],[-75.56896,43.22072],[-75.57077,43.22042],[-75.57321,43.221],[-75.5761,43.22045],[-75.57635,43.22188],[-75.57807,43.22114],[-75.57934,43.22219],[-75.58009,43.223],[-75.57894,43.22364],[-75.58024,43.22447],[-75.58206,43.22418],[-75.58402,43.2229],[-75.58575,43.22521],[-75.58661,43.22347],[-75.58832,43.22354],[-75.5894,43.22444],[-75.59166,43.223],[-75.59189,43.22163],[-75.59314,43.22234],[-75.59426,43.22191],[-75.59418,43.2198],[-75.59568,43.22044],[-75.59722,43.21878],[-75.5942,43.21824],[-75.59435,43.21723],[-75.59704,43.21682],[-75.59953,43.21737],[-75.60096,43.21625],[-75.60346,43.2158],[-75.60493,43.21617],[-75.60771,43.21568],[-75.60961,43.21483],[-75.61144,43.21622],[-75.61341,43.21513],[-75.61548,43.21574],[-75.61658,43.21725],[-75.6159,43.21964],[-75.61904,43.21866],[-75.61915,43.21954],[-75.6207,43.21818],[-75.62179,43.21927],[-75.62277,43.2185],[-75.62501,43.21853],[-75.62426,43.21764],[-75.6257,43.2167],[-75.62533,43.21567],[-75.62803,43.21556],[-75.62966,43.21481],[-75.63109,43.21526],[-75.6331,43.21263],[-75.63484,43.21332],[-75.63591,43.21282],[-75.63608,43.21408],[-75.63824,43.21311],[-75.63954,43.21356],[-75.6413,43.2122],[-75.64021,43.21113],[-75.64159,43.21082],[-75.64546,43.21099],[-75.64545,43.20927],[-75.64896,43.20872],[-75.64881,43.20721],[-75.65043,43.20754],[-75.65093,43.20677],[-75.65169,43.20781],[-75.65245,43.20699],[-75.65558,43.20719],[-75.65633,43.20941],[-75.6554,43.21153],[-75.65717,43.2113],[-75.65803,43.21283],[-75.66203,43.21171],[-75.66509,43.20882],[-75.66702,43.20981],[-75.65979,43.22756]]]}},{"type":"Feature","properties":{"name":"Circuit Brentwood","boundary_type":"places","source":"Census TIGER place","fidelity":"exact","updated":"2026-09","units":"Brentwood CDP","note":"Brentwood hamlet service area including Hauppauge Industrial Area and Suffolk County Community College connections","confidence":0.75},"geometry":{"type":"Polygon","coordinates":[[[-73.29478,40.7949],[-73.29476,40.79526],[-73.29465,40.80398],[-73.28619,40.80461],[-73.28149,40.80456],[-73.28094,40.80517],[-73.27466,40.80507],[-73.26994,40.80578],[-73.26939,40.80581],[-73.25807,40.80669],[-73.24886,40.80719],[-73.24113,40.80775],[-73.23781,40.80795],[-73.23539,40.80831],[-73.23585,40.80761],[-73.23457,40.80682],[-73.231,40.80406],[-73.23081,40.80396],[-73.23068,40.80352],[-73.22797,40.79924],[-73.22431,40.79363],[-73.22133,40.78838],[-73.2204,40.78808],[-73.22013,40.78626],[-73.21853,40.7832],[-73.2173,40.78086],[-73.21369,40.77388],[-73.21267,40.77188],[-73.2111,40.76886],[-73.21039,40.76394],[-73.21022,40.76271],[-73.20923,40.75565],[-73.21493,40.75599],[-73.22375,40.75502],[-73.2281,40.75476],[-73.23021,40.75656],[-73.2321,40.75733],[-73.23429,40.75822],[-73.2462,40.76316],[-73.24866,40.76422],[-73.25069,40.7649],[-73.25792,40.76726],[-73.25755,40.76876],[-73.25767,40.77674],[-73.25986,40.77642],[-73.25982,40.77715],[-73.26832,40.77526],[-73.27299,40.77421],[-73.27995,40.77266],[-73.29516,40.76921],[-73.29497,40.7843],[-73.29478,40.7949]]]}},{"type":"Feature","properties":{"name":"Circuit East Hampton","boundary_type":"places","source":"Census TIGER place","fidelity":"exact","updated":"2026-09","units":"East Hampton village","note":"East Hampton village (technically town) covering LIRR station, Main Street, and beach area; overlaps with Suffolk Transit On-Demand East Hampton zone but separate operator","confidence":0.8},"geometry":{"type":"Polygon","coordinates":[[[-72.23792,40.95138],[-72.23267,40.95327],[-72.22985,40.95358],[-72.21945,40.95161],[-72.21486,40.95251],[-72.21116,40.95442],[-72.20817,40.95498],[-72.20393,40.95453],[-72.20223,40.95981],[-72.20111,40.96365],[-72.20015,40.96383],[-72.19867,40.96607],[-72.20045,40.96658],[-72.19998,40.96819],[-72.19656,40.96818],[-72.19514,40.96989],[-72.19092,40.96871],[-72.19078,40.96541],[-72.18511,40.96648],[-72.18368,40.96985],[-72.1821,40.96946],[-72.18147,40.96762],[-72.1751,40.96952],[-72.17614,40.96802],[-72.17139,40.9687],[-72.16933,40.96562],[-72.16616,40.96693],[-72.1653,40.96727],[-72.16185,40.96427],[-72.1587,40.9622],[-72.15497,40.95722],[-72.18969,40.94449],[-72.19487,40.94259],[-72.22922,40.92999],[-72.22882,40.93149],[-72.22613,40.93213],[-72.2229,40.93471],[-72.22156,40.93424],[-72.21866,40.93832],[-72.21731,40.9422],[-72.21728,40.94452],[-72.21875,40.94244],[-72.22151,40.93685],[-72.22378,40.9348],[-72.22568,40.93589],[-72.22639,40.93816],[-72.22947,40.94389],[-72.22841,40.94682],[-72.23023,40.94627],[-72.23133,40.94799],[-72.23139,40.94799],[-72.23179,40.94772],[-72.23308,40.94669],[-72.2351,40.9464],[-72.23923,40.95036],[-72.24084,40.95198],[-72.23792,40.95138]]]}},{"type":"Feature","properties":{"name":"Circuit Montauk","boundary_type":"city","source":"Census TIGER place","fidelity":"approximate","updated":"2026-09","units":"Montauk CDP","note":"Circuit's own site (ridecircuit.com/montauk) and search of local coverage give no stated zone size, radius, or boundary streets - only destination landmarks (Bayfront Park, The Plaza, Jitney stop, beachside hotels), all in the small downtown core of the Montauk CDP. Full Montauk CDP (~51 km2, including Montauk Point park land) is used as the containing unit but is understood to substantially overstate the actual service area, which is limited to the built-up downtown/beachfront core.","confidence":0.55},"geometry":{"type":"Polygon","coordinates":[[[-72.05456,41.02184],[-72.04877,41.02259],[-72.04206,41.02067],[-72.03452,41.01961],[-72.0255,41.02052],[-72.01693,41.02352],[-72.01234,41.02944],[-71.99724,41.04089],[-71.99264,41.04715],[-71.98213,41.04783],[-71.97874,41.04296],[-71.97223,41.04084],[-71.96351,41.04253],[-71.95726,41.04828],[-71.95742,41.04961],[-71.9578,41.05271],[-71.95804,41.0547],[-71.96156,41.06402],[-71.95959,41.07124],[-71.9552,41.07307],[-71.94586,41.07371],[-71.93825,41.07741],[-71.91938,41.08052],[-71.90433,41.08599],[-71.90115,41.08477],[-71.89926,41.08084],[-71.8955,41.07738],[-71.88954,41.0757],[-71.87979,41.07675],[-71.86956,41.07505],[-71.86447,41.07692],[-71.85749,41.07356],[-71.85648,41.07104],[-71.86082,41.0657],[-71.86591,41.06254],[-71.86742,41.05939],[-71.87272,41.05633],[-71.87323,41.05524],[-71.87474,41.05203],[-71.88881,41.04745],[-71.90149,41.04258],[-71.90257,41.04113],[-71.90877,41.03958],[-71.91674,41.03965],[-71.93569,41.03418],[-71.95162,41.02905],[-71.95882,41.02673],[-72.01169,41.00662],[-72.02657,41.00097],[-72.02932,41.00313],[-72.03507,41.00763],[-72.03595,41.00632],[-72.04221,41.01064],[-72.05553,41.01697],[-72.05688,41.01813],[-72.05668,41.01819],[-72.05456,41.02184]]]}},{"type":"Feature","properties":{"name":"Circuit New Rochelle (CircuitNR)","boundary_type":"city","source":"Census TIGER place","fidelity":"exact","updated":"2026-09","units":"New Rochelle city","note":"Service includes downtown core plus expanded southern/eastern zones; exact zone boundaries not specified","confidence":0.75},"geometry":{"type":"MultiPolygon","coordinates":[[[[-73.77037,40.8878],[-73.76707,40.88603],[-73.76822,40.88262],[-73.76771,40.88104],[-73.7699,40.88002],[-73.77401,40.88264],[-73.77237,40.88479],[-73.77146,40.88745],[-73.77037,40.8878]]],[[[-73.80385,40.93965],[-73.80197,40.94383],[-73.80192,40.94414],[-73.79833,40.95035],[-73.79984,40.95302],[-73.79926,40.95519],[-73.79833,40.95704],[-73.80062,40.95772],[-73.80099,40.95815],[-73.80036,40.96024],[-73.79734,40.96411],[-73.7959,40.96646],[-73.79538,40.96678],[-73.79246,40.96949],[-73.79385,40.97282],[-73.79394,40.97337],[-73.79323,40.97492],[-73.79031,40.97723],[-73.7911,40.9799],[-73.78712,40.98534],[-73.7864,40.98745],[-73.77795,40.98834],[-73.77666,40.98394],[-73.77625,40.98114],[-73.77533,40.97638],[-73.77532,40.97599],[-73.77411,40.96931],[-73.77226,40.95871],[-73.77184,40.95586],[-73.7727,40.95508],[-73.77194,40.95168],[-73.7705,40.94521],[-73.76902,40.94191],[-73.76819,40.93754],[-73.76802,40.93681],[-73.76824,40.93672],[-73.76813,40.93489],[-73.76726,40.9312],[-73.7672,40.93068],[-73.76655,40.92806],[-73.76482,40.92045],[-73.75517,40.91897],[-73.75628,40.91602],[-73.75963,40.91203],[-73.76128,40.9097],[-73.76169,40.90644],[-73.76465,40.90273],[-73.76656,40.89731],[-73.77802,40.88811],[-73.78134,40.88545],[-73.78308,40.88198],[-73.78391,40.88168],[-73.78605,40.88237],[-73.78667,40.88361],[-73.78708,40.88397],[-73.79067,40.88752],[-73.79812,40.8952],[-73.79911,40.89859],[-73.7999,40.90261],[-73.80095,40.90824],[-73.80194,40.91181],[-73.80207,40.9132],[-73.80262,40.91487],[-73.80314,40.91751],[-73.80397,40.92099],[-73.80389,40.92152],[-73.80471,40.92517],[-73.80474,40.92527],[-73.80502,40.92613],[-73.80513,40.92666],[-73.8054,40.92684],[-73.80066,40.93013],[-73.80077,40.93275],[-73.80583,40.9339],[-73.80692,40.93498],[-73.807,40.93544],[-73.80556,40.93841],[-73.80385,40.93965]]]]}},{"type":"Feature","properties":{"name":"Circuit Rockaways (Rockaway Rides)","boundary_type":"zone_approx","source":"Manual approximation","fidelity":"approximate","updated":"2026-09","units":"buffer 3.5 km @ 40.6060,-73.7554; clipped to New York city","note":"Rockaway Peninsula microtransit zone; neighborhood-based service with no fixed administrative boundary. Service area spans Far Rockaway LIRR corridor and beach areas","confidence":0.6},"geometry":{"type":"MultiPolygon","coordinates":[[[[-73.79432,40.59525],[-73.7954,40.59786],[-73.79618,40.60054],[-73.79666,40.60326],[-73.79681,40.606],[-73.79666,40.60874],[-73.79618,40.61146],[-73.7954,40.61414],[-73.79432,40.61675],[-73.79293,40.61929],[-73.79126,40.62172],[-73.78932,40.62403],[-73.78712,40.62621],[-73.78468,40.62823],[-73.78202,40.63009],[-73.77915,40.63175],[-73.77611,40.63323],[-73.7729,40.6345],[-73.76956,40.63554],[-73.76612,40.63637],[-73.76259,40.63696],[-73.75901,40.63732],[-73.7554,40.63744],[-73.75179,40.63732],[-73.74821,40.63696],[-73.74488,40.6364],[-73.74602,40.63521],[-73.748,40.63463],[-73.76742,40.62661],[-73.76871,40.62439],[-73.76876,40.62435],[-73.76855,40.62315],[-73.76757,40.62148],[-73.76746,40.62051],[-73.76672,40.615],[-73.76524,40.61494],[-73.76345,40.61369],[-73.76002,40.61135],[-73.75891,40.61121],[-73.75723,40.61099],[-73.75473,40.6104],[-73.75346,40.61052],[-73.75009,40.61164],[-73.74912,40.61179],[-73.74749,40.61189],[-73.74694,40.61178],[-73.74549,40.6118],[-73.74445,40.61017],[-73.74355,40.60745],[-73.74057,40.60488],[-73.73836,40.60266],[-73.7384,40.59819],[-73.73846,40.59587],[-73.73798,40.59454],[-73.73742,40.59346],[-73.73718,40.59296],[-73.74324,40.59284],[-73.74338,40.59285],[-73.74447,40.5929],[-73.74775,40.5915],[-73.75103,40.58901],[-73.75031,40.59064],[-73.75162,40.59139],[-73.75235,40.59181],[-73.75257,40.59182],[-73.7528,40.59183],[-73.75415,40.5919],[-73.7575,40.59206],[-73.7579,40.59208],[-73.76383,40.59162],[-73.76971,40.59116],[-73.77493,40.59076],[-73.78576,40.58867],[-73.78844,40.58816],[-73.78849,40.58815],[-73.78934,40.58799],[-73.79126,40.59028],[-73.79293,40.59271],[-73.79432,40.59525]]],[[[-73.74168,40.63484],[-73.74258,40.63565],[-73.74243,40.63583],[-73.74124,40.63554],[-73.73996,40.63514],[-73.74168,40.63484]]]]}},{"type":"Feature","properties":{"name":"Circuit Southampton","boundary_type":"places","source":"Census TIGER place","fidelity":"exact","updated":"2026-09","units":"Southampton village","note":"Southampton village (technically town); overlaps geographically with Suffolk Transit On-Demand Southampton zone but separate operator and pricing model (free flag-down vs. paid app)","confidence":0.8},"geometry":{"type":"Polygon","coordinates":[[[-72.42922,40.8612],[-72.42678,40.86032],[-72.42613,40.86051],[-72.42252,40.86191],[-72.42051,40.87418],[-72.42066,40.87536],[-72.42123,40.87685],[-72.42232,40.87849],[-72.42312,40.88351],[-72.42309,40.88404],[-72.42386,40.88642],[-72.42415,40.88702],[-72.42405,40.88705],[-72.424,40.88707],[-72.42378,40.88715],[-72.42368,40.88719],[-72.41543,40.89022],[-72.41519,40.89198],[-72.41238,40.89209],[-72.41255,40.89128],[-72.41102,40.89184],[-72.40715,40.89324],[-72.40694,40.89332],[-72.39858,40.89638],[-72.3984,40.89647],[-72.39264,40.89868],[-72.3904,40.89908],[-72.38274,40.89863],[-72.37851,40.90049],[-72.37837,40.90044],[-72.37216,40.89793],[-72.37038,40.897],[-72.36531,40.89541],[-72.35949,40.89521],[-72.36013,40.89281],[-72.35917,40.88821],[-72.3581,40.88851],[-72.35176,40.8828],[-72.37714,40.87351],[-72.38759,40.86968],[-72.39585,40.86666],[-72.40903,40.86241],[-72.47,40.84274],[-72.47166,40.84197],[-72.47284,40.84576],[-72.47382,40.84876],[-72.42922,40.8612]]]}},{"type":"Feature","properties":{"name":"Franklin County Public Transportation (Southern Zone Demand-Response)","boundary_type":"places","source":"Census TIGER place","fidelity":"approximate","updated":"2026-09","units":"Saranac Lake village; Tupper Lake village","note":"Demand-response 'Southern Zone' service operates curb-to-curb within Saranac Lake and Tupper Lake (county site: 'bus service is provided within Saranac Lake, Tupper Lake and into Lake Placid'); no zone-size or full-county coverage stated, so encoded as the two named villages rather than the whole county. Source: http://www.franklincountyny.gov/departments/transportation/index.php","confidence":0.7},"geometry":{"type":"MultiPolygon","coordinates":[[[[-74.43524,44.22675],[-74.43487,44.22687],[-74.4259,44.22832],[-74.42352,44.2224],[-74.42883,44.22067],[-74.43022,44.22064],[-74.43266,44.21941],[-74.4322,44.2213],[-74.43998,44.22048],[-74.4402,44.2214],[-74.44335,44.2215],[-74.44388,44.22461],[-74.44335,44.22509],[-74.43517,44.22614],[-74.43524,44.22675]]],[[[-74.48014,44.24844],[-74.47432,44.24541],[-74.46852,44.24785],[-74.46885,44.24936],[-74.46386,44.24984],[-74.46368,44.24895],[-74.46037,44.23291],[-74.45979,44.22822],[-74.45797,44.2283],[-74.45975,44.22899],[-74.45542,44.22933],[-74.45489,44.22636],[-74.45258,44.22605],[-74.45164,44.22816],[-74.44452,44.22853],[-74.44407,44.22565],[-74.44388,44.22461],[-74.45686,44.22416],[-74.45615,44.22058],[-74.45552,44.21713],[-74.46262,44.21647],[-74.46275,44.21716],[-74.46461,44.21702],[-74.46503,44.21904],[-74.46871,44.22026],[-74.47184,44.21783],[-74.47317,44.21887],[-74.4697,44.22174],[-74.46863,44.22433],[-74.46562,44.22636],[-74.46586,44.22884],[-74.46526,44.23254],[-74.46825,44.23243],[-74.47189,44.2356],[-74.47657,44.23663],[-74.47723,44.23501],[-74.47921,44.23476],[-74.47892,44.23268],[-74.48079,44.23257],[-74.48276,44.23375],[-74.48043,44.24085],[-74.4887,44.2372],[-74.48931,44.2382],[-74.48584,44.24012],[-74.4881,44.24213],[-74.48672,44.24323],[-74.48976,44.24459],[-74.49394,44.24564],[-74.49352,44.24861],[-74.49253,44.24699],[-74.48457,44.24402],[-74.48014,44.24844]]],[[[-74.14929,44.32248],[-74.14801,44.32256],[-74.1469,44.32486],[-74.14884,44.33466],[-74.14407,44.33509],[-74.14199,44.3354],[-74.14431,44.34117],[-74.14444,44.3427],[-74.14014,44.34317],[-74.13916,44.33932],[-74.13752,44.33589],[-74.12889,44.33686],[-74.13084,44.3473],[-74.12585,44.34635],[-74.12434,44.34689],[-74.12371,44.34562],[-74.12093,44.34493],[-74.11764,44.34564],[-74.11713,44.34766],[-74.11345,44.34927],[-74.11422,44.34702],[-74.11694,44.34756],[-74.1174,44.34569],[-74.11904,44.34311],[-74.11938,44.34027],[-74.12115,44.3374],[-74.11958,44.33757],[-74.12199,44.33561],[-74.12304,44.33369],[-74.12461,44.33256],[-74.12793,44.33206],[-74.12756,44.33021],[-74.12599,44.33033],[-74.12242,44.33062],[-74.12271,44.32965],[-74.1169,44.33016],[-74.11642,44.32808],[-74.11503,44.32184],[-74.11404,44.31743],[-74.11041,44.31703],[-74.10948,44.31466],[-74.11352,44.31522],[-74.11295,44.31283],[-74.11182,44.30811],[-74.11323,44.30797],[-74.12228,44.30705],[-74.12343,44.30699],[-74.12428,44.31303],[-74.13033,44.31279],[-74.14435,44.31201],[-74.14555,44.31808],[-74.15216,44.31742],[-74.15613,44.31715],[-74.15684,44.31875],[-74.15168,44.31912],[-74.15244,44.32233],[-74.14929,44.32248]],[[-74.12037,44.341],[-74.12139,44.33845],[-74.12088,44.33815],[-74.1197,44.33984],[-74.1195,44.34096],[-74.12037,44.341]]]]}},{"type":"Feature","properties":{"name":"Move Sullivan","boundary_type":"county","source":"Census TIGER county","fidelity":"exact","updated":"2026-09","units":"Sullivan County","note":"County-wide service confirmed per operator page; Highland and Delaware routes specifically mentioned","confidence":0.9},"geometry":{"type":"Polygon","coordinates":[[[-75.02933,41.90397],[-75.02711,41.90497],[-75.00329,41.91565],[-74.99725,41.91848],[-74.98516,41.92401],[-74.91322,41.95678],[-74.90863,41.95875],[-74.90805,41.95901],[-74.85284,41.98345],[-74.85202,41.98391],[-74.84711,41.98584],[-74.84393,41.98734],[-74.80064,42.00713],[-74.78069,42.01637],[-74.7496,42.00294],[-74.74712,42.00208],[-74.74276,42.00009],[-74.67402,41.97167],[-74.67095,41.97038],[-74.65503,41.96368],[-74.60117,41.94068],[-74.57656,41.92971],[-74.45368,41.87559],[-74.45382,41.87509],[-74.48311,41.83982],[-74.48783,41.83436],[-74.49088,41.83132],[-74.52453,41.79796],[-74.52551,41.79682],[-74.53296,41.78937],[-74.54347,41.77893],[-74.56319,41.75749],[-74.57057,41.75009],[-74.57509,41.74526],[-74.56207,41.73777],[-74.5569,41.7348],[-74.53024,41.71945],[-74.5207,41.71394],[-74.49106,41.69718],[-74.46478,41.68252],[-74.45546,41.67733],[-74.42535,41.6606],[-74.42143,41.65851],[-74.4076,41.65135],[-74.39507,41.64488],[-74.39437,41.64256],[-74.3925,41.64124],[-74.39324,41.6405],[-74.39224,41.63929],[-74.39155,41.6371],[-74.39146,41.63345],[-74.3883,41.62929],[-74.38684,41.62824],[-74.38631,41.6261],[-74.38717,41.62266],[-74.3862,41.62018],[-74.38604,41.61824],[-74.38401,41.6152],[-74.38072,41.61413],[-74.38084,41.61175],[-74.37966,41.61074],[-74.37955,41.60732],[-74.37863,41.60554],[-74.37749,41.60565],[-74.37594,41.60457],[-74.37533,41.60293],[-74.37648,41.60177],[-74.37614,41.59819],[-74.37506,41.59689],[-74.37307,41.59626],[-74.37031,41.59651],[-74.36609,41.59562],[-74.36565,41.59509],[-74.36449,41.59378],[-74.36819,41.59135],[-74.36705,41.59098],[-74.36899,41.59026],[-74.37009,41.58859],[-74.37797,41.58638],[-74.37995,41.58742],[-74.38076,41.58616],[-74.38351,41.58388],[-74.38615,41.58313],[-74.38845,41.58364],[-74.38901,41.5853],[-74.39061,41.58622],[-74.39146,41.5837],[-74.3913,41.58206],[-74.39355,41.58196],[-74.39543,41.58069],[-74.39607,41.57914],[-74.39579,41.57711],[-74.39761,41.57509],[-74.39934,41.57549],[-74.40187,41.57533],[-74.40384,41.57425],[-74.40446,41.5731],[-74.40695,41.57232],[-74.40816,41.5738],[-74.40828,41.57518],[-74.4098,41.57329],[-74.40979,41.5718],[-74.41102,41.57123],[-74.41022,41.57047],[-74.40809,41.57039],[-74.40762,41.56889],[-74.40989,41.56822],[-74.41303,41.56874],[-74.41414,41.5678],[-74.41627,41.56876],[-74.41693,41.56982],[-74.4184,41.5694],[-74.41778,41.56791],[-74.41932,41.56563],[-74.41891,41.56359],[-74.41973,41.56243],[-74.42344,41.56264],[-74.42331,41.55988],[-74.42608,41.55927],[-74.42996,41.55799],[-74.42915,41.55701],[-74.42866,41.55686],[-74.42743,41.5566],[-74.4269,41.55664],[-74.42625,41.55649],[-74.42622,41.55609],[-74.42692,41.55593],[-74.42886,41.55608],[-74.43038,41.55592],[-74.43142,41.55466],[-74.43124,41.55432],[-74.43042,41.55417],[-74.43026,41.55407],[-74.43036,41.5538],[-74.43103,41.55372],[-74.43202,41.55383],[-74.43296,41.55374],[-74.43389,41.55373],[-74.43417,41.55354],[-74.43439,41.55298],[-74.43488,41.55217],[-74.43615,41.5507],[-74.43593,41.5497],[-74.43504,41.5485],[-74.43479,41.54669],[-74.43509,41.54618],[-74.43551,41.54612],[-74.43708,41.54673],[-74.43823,41.54744],[-74.43862,41.54733],[-74.43877,41.54505],[-74.43789,41.54346],[-74.43955,41.54302],[-74.44518,41.54409],[-74.44577,41.54087],[-74.44379,41.54092],[-74.44381,41.53862],[-74.4446,41.53723],[-74.44792,41.53538],[-74.44794,41.53435],[-74.45046,41.53296],[-74.45353,41.53263],[-74.45454,41.53337],[-74.45604,41.53188],[-74.45545,41.53011],[-74.45746,41.52936],[-74.45699,41.52778],[-74.45879,41.52696],[-74.46024,41.52466],[-74.46236,41.52356],[-74.46575,41.52286],[-74.46484,41.51937],[-74.46573,41.51833],[-74.46562,41.51688],[-74.46819,41.51589],[-74.46889,41.51404],[-74.47268,41.51244],[-74.47334,41.51137],[-74.4761,41.51024],[-74.47405,41.50873],[-74.47395,41.5069],[-74.47581,41.50562],[-74.47559,41.50433],[-74.47562,41.50395],[-74.48396,41.50426],[-74.48852,41.50378],[-74.49169,41.50349],[-74.4938,41.50445],[-74.49634,41.50367],[-74.50117,41.50346],[-74.50448,41.50346],[-74.51953,41.50278],[-74.52975,41.50239],[-74.55737,41.50125],[-74.56092,41.5006],[-74.5719,41.50009],[-74.57538,41.50009],[-74.62047,41.49842],[-74.74024,41.49414],[-74.7524,41.49374],[-74.75311,41.49239],[-74.75501,41.4914],[-74.76065,41.49079],[-74.76171,41.48976],[-74.76204,41.48806],[-74.75974,41.48504],[-74.75965,41.48186],[-74.75449,41.47885],[-74.75434,41.47629],[-74.75234,41.47264],[-74.75296,41.46809],[-74.75085,41.4657],[-74.75041,41.46433],[-74.75083,41.46371],[-74.75323,41.4624],[-74.7599,41.46069],[-74.75863,41.45429],[-74.76002,41.45226],[-74.7613,41.45001],[-74.76247,41.44953],[-74.76231,41.44435],[-74.75948,41.44259],[-74.7589,41.44074],[-74.75658,41.43683],[-74.75611,41.43395],[-74.75509,41.43318],[-74.75257,41.43324],[-74.75187,41.43248],[-74.75289,41.4303],[-74.75548,41.42948],[-74.75642,41.42801],[-74.75471,41.42499],[-74.75859,41.42329],[-74.7637,41.42361],[-74.77065,41.42623],[-74.77324,41.42635],[-74.77803,41.4251],[-74.78434,41.4224],[-74.79042,41.42166],[-74.79386,41.42267],[-74.7954,41.42398],[-74.79955,41.43129],[-74.80009,41.43266],[-74.80037,41.43606],[-74.80122,41.4381],[-74.80565,41.4421],[-74.80758,41.44285],[-74.81212,41.44298],[-74.81577,41.44144],[-74.81799,41.44051],[-74.81962,41.43927],[-74.82288,41.43679],[-74.82603,41.43174],[-74.82859,41.4307],[-74.83067,41.4305],[-74.83463,41.4308],[-74.83691,41.43162],[-74.84557,41.43758],[-74.8486,41.44018],[-74.8542,41.44317],[-74.85858,41.44443],[-74.86469,41.44399],[-74.87672,41.44034],[-74.88869,41.43826],[-74.89391,41.43893],[-74.89602,41.43999],[-74.8964,41.44218],[-74.89493,41.4461],[-74.88907,41.45124],[-74.88912,41.45253],[-74.89036,41.45532],[-74.89211,41.45696],[-74.89507,41.45819],[-74.90414,41.45979],[-74.9042,41.45981],[-74.90689,41.46113],[-74.9081,41.46464],[-74.90813,41.46812],[-74.90918,41.47244],[-74.90958,41.47282],[-74.91252,41.47561],[-74.91285,41.47571],[-74.91728,41.47704],[-74.92333,41.47713],[-74.92409,41.47714],[-74.92683,41.47833],[-74.93232,41.48214],[-74.93258,41.48232],[-74.9418,41.48354],[-74.94563,41.48321],[-74.94808,41.48063],[-74.95641,41.47673],[-74.95826,41.4764],[-74.96593,41.47708],[-74.96989,41.47744],[-74.98165,41.47994],[-74.98334,41.48089],[-74.98439,41.48267],[-74.985,41.4837],[-74.98559,41.48586],[-74.98547,41.48704],[-74.98525,41.48911],[-74.98246,41.49647],[-74.98217,41.49849],[-74.98238,41.50098],[-74.98394,41.50539],[-74.98437,41.50661],[-74.98565,41.50793],[-74.98764,41.50874],[-74.99389,41.50875],[-74.99961,41.5074],[-75.00133,41.50774],[-75.0015,41.50777],[-75.00315,41.5081],[-75.00369,41.5093],[-75.00371,41.51112],[-75.00369,41.51117],[-75.00259,41.51456],[-75.00093,41.51764],[-75.00091,41.51929],[-75.0013,41.52065],[-75.00385,41.52405],[-75.00955,41.52846],[-75.01492,41.5314],[-75.01662,41.53211],[-75.02302,41.53315],[-75.02421,41.53402],[-75.02476,41.5351],[-75.02479,41.53923],[-75.0248,41.5398],[-75.02283,41.54146],[-75.01763,41.54273],[-75.01614,41.54425],[-75.01633,41.5465],[-75.01852,41.5518],[-75.02734,41.56354],[-75.02921,41.56464],[-75.03316,41.56509],[-75.03699,41.56705],[-75.04049,41.56969],[-75.04388,41.57509],[-75.04676,41.58326],[-75.05286,41.58777],[-75.06001,41.59081],[-75.06107,41.59195],[-75.06368,41.59474],[-75.06695,41.59943],[-75.06971,41.60169],[-75.07461,41.60571],[-75.07463,41.60791],[-75.07167,41.6095],[-75.07097,41.60962],[-75.06779,41.61014],[-75.06272,41.60964],[-75.06185,41.60998],[-75.05972,41.6108],[-75.05996,41.61231],[-75.06167,41.61547],[-75.06156,41.61643],[-75.0601,41.61748],[-75.05385,41.61865],[-75.05186,41.61816],[-75.05157,41.61798],[-75.04838,41.61599],[-75.0473,41.61579],[-75.04551,41.6162],[-75.04422,41.61798],[-75.04356,41.62364],[-75.0482,41.63201],[-75.04866,41.63378],[-75.04928,41.64186],[-75.04895,41.64998],[-75.04868,41.65632],[-75.04992,41.66256],[-75.05399,41.66819],[-75.05725,41.66893],[-75.05843,41.66965],[-75.05844,41.66969],[-75.05933,41.67232],[-75.05876,41.67441],[-75.05265,41.67844],[-75.05128,41.67996],[-75.05123,41.68244],[-75.05274,41.68839],[-75.05674,41.6957],[-75.05983,41.69972],[-75.06674,41.70502],[-75.06728,41.70543],[-75.06883,41.70816],[-75.06864,41.71015],[-75.06663,41.71259],[-75.06117,41.71294],[-75.05223,41.7114],[-75.05069,41.71197],[-75.04986,41.71331],[-75.0497,41.71509],[-75.05353,41.72715],[-75.054,41.73008],[-75.05482,41.73517],[-75.05281,41.74473],[-75.05343,41.75254],[-75.05599,41.75676],[-75.06076,41.76464],[-75.0649,41.76669],[-75.06857,41.7673],[-75.07266,41.76881],[-75.07349,41.7697],[-75.07423,41.77052],[-75.07594,41.77152],[-75.07948,41.77121],[-75.09281,41.76836],[-75.09545,41.76837],[-75.10099,41.76912],[-75.10349,41.77124],[-75.10433,41.77269],[-75.10464,41.7742],[-75.104,41.77878],[-75.10355,41.78201],[-75.10233,41.7865],[-75.10146,41.78794],[-75.09288,41.79639],[-75.08833,41.79753],[-75.08141,41.79648],[-75.07827,41.79747],[-75.07689,41.79851],[-75.07441,41.80219],[-75.07388,41.80364],[-75.07217,41.80833],[-75.07175,41.8119],[-75.07217,41.81373],[-75.07441,41.81509],[-75.07733,41.81511],[-75.07806,41.81511],[-75.07982,41.81482],[-75.08579,41.81163],[-75.08948,41.81158],[-75.09072,41.81213],[-75.09354,41.81337],[-75.10002,41.81835],[-75.11333,41.82278],[-75.11484,41.82567],[-75.11515,41.82729],[-75.115,41.8303],[-75.11344,41.8363],[-75.11337,41.8407],[-75.1144,41.84358],[-75.1156,41.84464],[-75.11879,41.84582],[-75.12791,41.8449],[-75.13098,41.84515],[-75.14024,41.85208],[-75.14382,41.85174],[-75.14468,41.85146],[-75.14474,41.85168],[-75.02933,41.90397]]]}},{"type":"Feature","properties":{"name":"NICE Mini","boundary_type":"places","source":"Census TIGER place","fidelity":"exact","updated":"2026-09","units":"Merrick CDP; Lynbrook village; Syosset CDP; Plainview CDP; Woodbury village; Muttontown village; East Norwich CDP","note":"Two service zones: South Shore (Merrick-Lynbrook corridor) and Syosset cluster; additional zones planned","confidence":0.8},"geometry":{"type":"MultiPolygon","coordinates":[[[[-73.57241,40.63683],[-73.57516,40.63652],[-73.576,40.63514],[-73.57691,40.63857],[-73.57543,40.63862],[-73.57277,40.63872],[-73.57265,40.63811],[-73.57241,40.63683]]],[[[-73.5595,40.67669],[-73.55756,40.67681],[-73.55752,40.67672],[-73.55519,40.67671],[-73.55193,40.67522],[-73.54953,40.67431],[-73.54862,40.67432],[-73.54603,40.67462],[-73.54489,40.67429],[-73.54511,40.67359],[-73.54509,40.67283],[-73.54498,40.67213],[-73.54397,40.67067],[-73.54373,40.66833],[-73.54382,40.6681],[-73.54453,40.66524],[-73.54434,40.66503],[-73.54416,40.6649],[-73.54012,40.66213],[-73.53967,40.66111],[-73.53919,40.65913],[-73.53914,40.65843],[-73.53796,40.65705],[-73.53856,40.65501],[-73.53761,40.65282],[-73.53575,40.65041],[-73.5356,40.64863],[-73.53383,40.64769],[-73.53297,40.64414],[-73.53122,40.64423],[-73.52728,40.63952],[-73.52767,40.6318],[-73.53087,40.6316],[-73.53717,40.6334],[-73.5491,40.63691],[-73.55607,40.63389],[-73.55973,40.62889],[-73.56249,40.6298],[-73.56506,40.63093],[-73.57004,40.62853],[-73.57121,40.62544],[-73.57218,40.6253],[-73.56989,40.6293],[-73.56575,40.63188],[-73.56724,40.63312],[-73.56812,40.63519],[-73.56739,40.63868],[-73.56923,40.64286],[-73.56779,40.64352],[-73.56705,40.64527],[-73.5656,40.64631],[-73.56463,40.64769],[-73.56532,40.65359],[-73.56583,40.65386],[-73.56611,40.65386],[-73.56563,40.65411],[-73.56652,40.66038],[-73.56834,40.66198],[-73.56953,40.66378],[-73.56943,40.6653],[-73.56858,40.66523],[-73.56904,40.66852],[-73.56915,40.66885],[-73.57163,40.6754],[-73.57221,40.67925],[-73.57224,40.67997],[-73.57,40.67995],[-73.56994,40.67817],[-73.56659,40.67761],[-73.5595,40.67669]]],[[[-73.6899,40.65796],[-73.68904,40.66004],[-73.68832,40.66198],[-73.68793,40.66358],[-73.68919,40.66373],[-73.68775,40.66456],[-73.68368,40.66702],[-73.67603,40.6713],[-73.67557,40.6667],[-73.67569,40.66588],[-73.67117,40.66616],[-73.671,40.66562],[-73.66987,40.6666],[-73.66549,40.6667],[-73.66532,40.66643],[-73.66371,40.66687],[-73.66072,40.66729],[-73.65939,40.6675],[-73.65933,40.66571],[-73.65791,40.66358],[-73.65742,40.66294],[-73.65868,40.66242],[-73.65752,40.66072],[-73.66071,40.66037],[-73.66058,40.65843],[-73.65898,40.65851],[-73.65721,40.65912],[-73.65689,40.65914],[-73.65671,40.65776],[-73.6566,40.65696],[-73.65737,40.65697],[-73.6576,40.65599],[-73.65768,40.65573],[-73.65612,40.65544],[-73.65624,40.65469],[-73.65574,40.65305],[-73.65835,40.65337],[-73.66055,40.65194],[-73.66117,40.6516],[-73.66515,40.65166],[-73.66635,40.65099],[-73.6723,40.64799],[-73.67918,40.64445],[-73.67935,40.64316],[-73.68161,40.64414],[-73.68155,40.64417],[-73.67992,40.64582],[-73.67755,40.64791],[-73.68043,40.64975],[-73.68165,40.65081],[-73.68141,40.64916],[-73.68417,40.648],[-73.68552,40.64904],[-73.68703,40.64863],[-73.68779,40.64833],[-73.68986,40.64998],[-73.69056,40.65045],[-73.69078,40.65058],[-73.69026,40.65109],[-73.6876,40.65628],[-73.69014,40.65741],[-73.6899,40.65796]]],[[[-73.48714,40.79508],[-73.48438,40.7949],[-73.48255,40.79502],[-73.47994,40.79568],[-73.47882,40.79618],[-73.47726,40.79704],[-73.47528,40.79789],[-73.47323,40.79849],[-73.4716,40.79879],[-73.46902,40.79897],[-73.4681,40.79897],[-73.46703,40.79904],[-73.46521,40.79944],[-73.46481,40.79958],[-73.46281,40.80068],[-73.46017,40.80311],[-73.45809,40.80422],[-73.4528,40.80541],[-73.44876,40.805],[-73.44867,40.80442],[-73.44511,40.78556],[-73.44481,40.7839],[-73.4441,40.78161],[-73.44475,40.7812],[-73.44561,40.78141],[-73.4548,40.77885],[-73.45707,40.77796],[-73.457,40.77717],[-73.4581,40.77445],[-73.46074,40.77106],[-73.46497,40.7663],[-73.46673,40.76398],[-73.46875,40.7616],[-73.47405,40.76173],[-73.47631,40.76182],[-73.47698,40.76196],[-73.4784,40.7623],[-73.48028,40.76309],[-73.48037,40.76794],[-73.48144,40.76948],[-73.48471,40.76903],[-73.48561,40.76967],[-73.48699,40.76919],[-73.4888,40.76843],[-73.49069,40.76787],[-73.49633,40.76715],[-73.49696,40.76796],[-73.4987,40.76759],[-73.5009,40.76757],[-73.50121,40.7697],[-73.50186,40.77426],[-73.50224,40.77703],[-73.50261,40.77976],[-73.503,40.78276],[-73.50367,40.78786],[-73.50381,40.78895],[-73.50387,40.79006],[-73.50352,40.79305],[-73.50906,40.79165],[-73.51542,40.79141],[-73.51605,40.7913],[-73.51601,40.7916],[-73.51571,40.79331],[-73.51503,40.7974],[-73.51618,40.79804],[-73.51771,40.79863],[-73.52316,40.80062],[-73.52477,40.80118],[-73.52754,40.80217],[-73.52832,40.80281],[-73.5289,40.80253],[-73.53095,40.80081],[-73.53485,40.79689],[-73.53833,40.79498],[-73.53737,40.8014],[-73.53707,40.80384],[-73.54026,40.80582],[-73.54328,40.80908],[-73.54428,40.81203],[-73.54704,40.81736],[-73.55027,40.81927],[-73.55192,40.82055],[-73.55245,40.8216],[-73.55753,40.82485],[-73.57065,40.82814],[-73.57147,40.82988],[-73.56751,40.83265],[-73.56705,40.83633],[-73.56501,40.83858],[-73.56472,40.8386],[-73.56065,40.84089],[-73.55905,40.84341],[-73.55578,40.84445],[-73.55252,40.84665],[-73.54876,40.84842],[-73.54671,40.84847],[-73.54442,40.84673],[-73.54353,40.84716],[-73.53587,40.85003],[-73.53579,40.85108],[-73.53519,40.85297],[-73.53281,40.8498],[-73.52848,40.8509],[-73.52806,40.85193],[-73.52966,40.85732],[-73.5279,40.86291],[-73.52418,40.86223],[-73.52215,40.86112],[-73.51876,40.85803],[-73.51878,40.85551],[-73.52082,40.85531],[-73.52013,40.85176],[-73.5174,40.8457],[-73.51886,40.84551],[-73.52033,40.84519],[-73.52286,40.8443],[-73.52253,40.84338],[-73.51769,40.84095],[-73.51603,40.84108],[-73.51516,40.83979],[-73.51158,40.84101],[-73.50468,40.84148],[-73.50419,40.83911],[-73.50136,40.83944],[-73.49985,40.83897],[-73.49949,40.83652],[-73.49765,40.83649],[-73.49714,40.83492],[-73.49671,40.83403],[-73.48945,40.83653],[-73.48977,40.84214],[-73.49007,40.84336],[-73.489,40.84312],[-73.48939,40.84223],[-73.48364,40.83693],[-73.48094,40.82764],[-73.4805,40.82462],[-73.47977,40.8226],[-73.48578,40.82135],[-73.48811,40.82049],[-73.48977,40.82054],[-73.49055,40.8141],[-73.49163,40.81178],[-73.49171,40.80942],[-73.49003,40.80305],[-73.48885,40.79956],[-73.48878,40.79935],[-73.48796,40.79687],[-73.4889,40.79614],[-73.48987,40.79522],[-73.48737,40.79509],[-73.48714,40.79508]]],[[[-74.14798,41.3723],[-74.14149,41.37406],[-74.13842,41.37529],[-74.13633,41.37626],[-74.13293,41.37947],[-74.12813,41.3819],[-74.12708,41.38362],[-74.12247,41.38739],[-74.11127,41.39678],[-74.09956,41.39016],[-74.09726,41.38867],[-74.07232,41.37451],[-74.07164,41.37413],[-74.06041,41.36791],[-74.06529,41.35779],[-74.07418,41.34086],[-74.07476,41.33945],[-74.07126,41.33635],[-74.06068,41.32692],[-74.05944,41.32581],[-74.0266,41.29655],[-74.02505,41.29545],[-74.02402,41.29441],[-74.0699,41.26203],[-74.08585,41.27156],[-74.09592,41.27764],[-74.10406,41.28176],[-74.10853,41.28441],[-74.12407,41.29266],[-74.13126,41.28487],[-74.1368,41.28838],[-74.14578,41.28597],[-74.14542,41.30013],[-74.14563,41.30257],[-74.14651,41.30342],[-74.14528,41.30461],[-74.1429,41.30691],[-74.14217,41.30762],[-74.12945,41.30002],[-74.12472,41.30451],[-74.13889,41.31294],[-74.14522,41.3167],[-74.14786,41.31549],[-74.15069,41.32181],[-74.15331,41.32757],[-74.15367,41.32836],[-74.1544,41.32996],[-74.15463,41.33194],[-74.15607,41.34388],[-74.16244,41.34776],[-74.16669,41.35037],[-74.16841,41.35143],[-74.17471,41.35502],[-74.16969,41.36048],[-74.16616,41.36271],[-74.15553,41.36941],[-74.15365,41.37013],[-74.14798,41.3723]]]]}},{"type":"Feature","properties":{"name":"Putnam On-Demand","boundary_type":"county","source":"Census TIGER county","fidelity":"exact","updated":"2026-09","units":"Putnam County","note":"County-wide service as confirmed by operator page; replaced former PART Route 3","confidence":0.95},"geometry":{"type":"Polygon","coordinates":[[[-73.98075,41.32542],[-73.98002,41.32627],[-73.96509,41.34347],[-73.96126,41.34854],[-73.96014,41.35122],[-73.95973,41.35372],[-73.95938,41.36104],[-73.95825,41.36728],[-73.9561,41.3744],[-73.95503,41.37655],[-73.95239,41.38083],[-73.95099,41.38681],[-73.94752,41.39332],[-73.94735,41.39525],[-73.94864,41.39758],[-73.95141,41.39896],[-73.95914,41.40044],[-73.96235,41.4037],[-73.96306,41.41034],[-73.96516,41.41387],[-73.96751,41.41891],[-73.97279,41.42459],[-73.9745,41.42798],[-73.98149,41.4389],[-73.97859,41.44212],[-73.97792,41.44276],[-73.97585,41.44488],[-73.93377,41.48828],[-73.91876,41.48978],[-73.90753,41.49097],[-73.90189,41.49239],[-73.89775,41.49277],[-73.87458,41.49507],[-73.865,41.49554],[-73.86109,41.49595],[-73.8565,41.49647],[-73.83836,41.49841],[-73.82097,41.50002],[-73.81444,41.5006],[-73.81319,41.50071],[-73.79556,41.50227],[-73.77068,41.50441],[-73.75962,41.50587],[-73.74247,41.50755],[-73.71534,41.51005],[-73.68385,41.51331],[-73.6815,41.51362],[-73.67328,41.5147],[-73.65309,41.5174],[-73.64763,41.51829],[-73.64567,41.51858],[-73.64473,41.51872],[-73.63838,41.51955],[-73.6205,41.52199],[-73.60434,41.52387],[-73.58015,41.52638],[-73.5735,41.52646],[-73.56081,41.52664],[-73.53007,41.52719],[-73.53066,41.51997],[-73.53089,41.51722],[-73.53241,41.49871],[-73.53242,41.49858],[-73.53309,41.49041],[-73.53397,41.47969],[-73.53405,41.47897],[-73.53406,41.47888],[-73.53415,41.47806],[-73.53427,41.47691],[-73.53427,41.47639],[-73.53437,41.47589],[-73.53476,41.47066],[-73.53577,41.45716],[-73.53586,41.45571],[-73.53588,41.45524],[-73.53589,41.45503],[-73.53599,41.45306],[-73.53607,41.45133],[-73.53622,41.44964],[-73.53697,41.44109],[-73.5371,41.43971],[-73.53727,41.43791],[-73.53747,41.43589],[-73.53767,41.43391],[-73.54117,41.40599],[-73.54238,41.39023],[-73.54247,41.38906],[-73.54341,41.37675],[-73.54342,41.37662],[-73.54362,41.37509],[-73.54372,41.37428],[-73.54471,41.36654],[-73.56025,41.36494],[-73.57254,41.36368],[-73.58503,41.36241],[-73.58706,41.36207],[-73.594,41.36144],[-73.59994,41.3608],[-73.62849,41.35818],[-73.64125,41.35697],[-73.65903,41.35518],[-73.65987,41.3551],[-73.66062,41.35503],[-73.66162,41.35498],[-73.67169,41.35386],[-73.68949,41.35195],[-73.69472,41.35142],[-73.69994,41.35089],[-73.71867,41.34898],[-73.71978,41.34886],[-73.72519,41.3483],[-73.72749,41.34806],[-73.73577,41.34719],[-73.753,41.34541],[-73.75312,41.34534],[-73.7583,41.34488],[-73.7718,41.34351],[-73.77204,41.34349],[-73.78033,41.34265],[-73.78818,41.34185],[-73.79736,41.34092],[-73.81583,41.33908],[-73.82211,41.33846],[-73.82996,41.33767],[-73.84273,41.3364],[-73.86193,41.33438],[-73.87505,41.33302],[-73.88337,41.33223],[-73.88779,41.33174],[-73.89227,41.33125],[-73.89302,41.33118],[-73.89343,41.33115],[-73.91403,41.32897],[-73.91829,41.32853],[-73.92685,41.32764],[-73.98253,41.32182],[-73.98138,41.32469],[-73.98075,41.32542]]]}},{"type":"Feature","properties":{"name":"RTS On Demand","boundary_type":"counties","source":"Census TIGER county","fidelity":"exact","updated":"2026-09","units":"Genesee County; Livingston County; Ontario County; Orleans County; Seneca County; Wayne County; Wyoming County","note":"Seven-county Rochester region; 7 zones phased in starting early 2025, each zone connecting to RTS Connect bus stops","confidence":0.9},"geometry":{"type":"Polygon","coordinates":[[[-78.48723,42.81343],[-78.4868,42.83259],[-78.48646,42.84632],[-78.48625,42.85733],[-78.48625,42.86751],[-78.46438,42.86736],[-78.4642,42.87806],[-78.46385,42.89991],[-78.46389,42.9245],[-78.46405,42.93829],[-78.46423,42.95456],[-78.46431,42.96547],[-78.46385,42.98574],[-78.46338,43.00216],[-78.46323,43.00648],[-78.46305,43.01341],[-78.46348,43.03299],[-78.46384,43.04189],[-78.46424,43.06496],[-78.46445,43.0887],[-78.46431,43.09151],[-78.46496,43.11734],[-78.4655,43.12862],[-78.46578,43.13628],[-78.46557,43.14359],[-78.46298,43.18307],[-78.46042,43.21622],[-78.46124,43.2319],[-78.46186,43.24196],[-78.46399,43.27043],[-78.46406,43.2713],[-78.46643,43.30277],[-78.46602,43.3324],[-78.46577,43.3464],[-78.46562,43.35949],[-78.4655,43.37123],[-78.46134,43.37146],[-78.45188,43.37268],[-78.44757,43.37204],[-78.43529,43.37275],[-78.42899,43.37311],[-78.41412,43.375],[-78.40272,43.37481],[-78.38876,43.37554],[-78.37022,43.37651],[-78.36693,43.37579],[-78.36485,43.37413],[-78.35871,43.37399],[-78.34934,43.37372],[-78.34277,43.37353],[-78.33711,43.37262],[-78.31978,43.37293],[-78.31114,43.37366],[-78.30907,43.37334],[-78.30711,43.37305],[-78.3024,43.37151],[-78.28855,43.37182],[-78.2836,43.37194],[-78.28213,43.37189],[-78.27326,43.3716],[-78.2729,43.37159],[-78.2676,43.37264],[-78.26603,43.37257],[-78.25305,43.37199],[-78.25232,43.37165],[-78.25064,43.37087],[-78.24666,43.36926],[-78.24315,43.36921],[-78.23361,43.36907],[-78.23048,43.3693],[-78.22223,43.3699],[-78.20993,43.37164],[-78.20967,43.37168],[-78.20556,43.3715],[-78.20023,43.37069],[-78.19279,43.37134],[-78.18945,43.37163],[-78.18601,43.37038],[-78.17875,43.3707],[-78.17479,43.37156],[-78.17021,43.37255],[-78.15989,43.37478],[-78.15896,43.37483],[-78.1551,43.37502],[-78.14519,43.37551],[-78.11969,43.37558],[-78.11536,43.3756],[-78.10451,43.37563],[-78.09422,43.37448],[-78.08146,43.37305],[-78.07565,43.3724],[-78.07464,43.37229],[-78.07185,43.37134],[-78.05833,43.37],[-78.05805,43.36997],[-78.03925,43.37089],[-78.03283,43.36703],[-78.02361,43.36657],[-78.01505,43.36729],[-78.01153,43.36809],[-78.0048,43.36816],[-77.99979,43.36513],[-77.9956,43.36524],[-77.99523,43.32351],[-77.99566,43.28745],[-77.9957,43.28496],[-77.99621,43.26945],[-77.99628,43.26658],[-77.99663,43.25063],[-77.99687,43.22721],[-77.99694,43.22169],[-77.9969,43.21952],[-77.99691,43.21777],[-77.99698,43.20904],[-77.99707,43.19893],[-77.99705,43.19771],[-77.9971,43.15874],[-77.99685,43.14906],[-77.9971,43.14472],[-77.99725,43.13652],[-77.99729,43.13298],[-77.9888,43.13311],[-77.98731,43.13284],[-77.93936,43.13295],[-77.9218,43.13327],[-77.9098,43.13349],[-77.90593,43.13356],[-77.90812,43.12933],[-77.90927,43.12685],[-77.91509,43.11453],[-77.92382,43.0961],[-77.92851,43.08622],[-77.929,43.08521],[-77.93117,43.08042],[-77.94823,43.04516],[-77.95104,43.03954],[-77.92578,43.0382],[-77.90867,43.03727],[-77.90412,43.03706],[-77.90472,43.03247],[-77.9048,43.02517],[-77.90456,43.02349],[-77.90566,43.02349],[-77.90736,43.00645],[-77.90754,43.00286],[-77.90941,43.00252],[-77.90975,42.9905],[-77.90983,42.98776],[-77.90015,42.98786],[-77.87833,42.98786],[-77.86008,42.98796],[-77.85851,42.98788],[-77.85429,42.98792],[-77.81169,42.98814],[-77.80691,42.98816],[-77.73096,42.98837],[-77.73132,42.98788],[-77.73294,42.98191],[-77.73147,42.98075],[-77.72494,42.97942],[-77.72075,42.97919],[-77.71935,42.97727],[-77.71783,42.97337],[-77.71884,42.97144],[-77.71992,42.97122],[-77.72341,42.97221],[-77.72459,42.97129],[-77.72451,42.96989],[-77.7262,42.96597],[-77.72555,42.96359],[-77.72503,42.95922],[-77.72535,42.95822],[-77.72575,42.95731],[-77.72841,42.95303],[-77.72912,42.95318],[-77.7303,42.95509],[-77.73257,42.95593],[-77.73389,42.95561],[-77.73447,42.95477],[-77.7329,42.9507],[-77.73091,42.94842],[-77.73167,42.94608],[-77.73375,42.94528],[-77.73523,42.94678],[-77.73755,42.94787],[-77.73849,42.94774],[-77.74124,42.94523],[-77.74464,42.94481],[-77.74637,42.94407],[-77.75019,42.94436],[-77.75318,42.94565],[-77.75547,42.94442],[-77.75942,42.94449],[-77.76061,42.94257],[-77.75873,42.94046],[-77.7187,42.94029],[-77.69185,42.94023],[-77.69122,42.94026],[-77.67081,42.94017],[-77.67042,42.94017],[-77.63752,42.93996],[-77.63502,42.94446],[-77.60732,42.94406],[-77.5934,42.94409],[-77.58038,42.94396],[-77.57396,42.94399],[-77.56038,42.94389],[-77.548,42.94379],[-77.50705,42.94345],[-77.48252,42.94316],[-77.48311,42.95812],[-77.48352,42.9688],[-77.48381,42.9766],[-77.48445,42.99833],[-77.48484,43.01191],[-77.48503,43.01735],[-77.48542,43.03456],[-77.48425,43.03445],[-77.46193,43.03462],[-77.45754,43.03466],[-77.45704,43.03466],[-77.45436,43.03466],[-77.44492,43.03466],[-77.43174,43.03472],[-77.42092,43.03463],[-77.4181,43.03462],[-77.40266,43.0348],[-77.39983,43.03455],[-77.37148,43.0347],[-77.37136,43.03949],[-77.37158,43.05368],[-77.37173,43.06434],[-77.37198,43.0756],[-77.37257,43.09574],[-77.37269,43.09947],[-77.37287,43.10562],[-77.37293,43.10737],[-77.37295,43.1089],[-77.37327,43.12224],[-77.37324,43.1228],[-77.37331,43.12341],[-77.37358,43.13104],[-77.37395,43.13834],[-77.37417,43.14514],[-77.37457,43.16036],[-77.37453,43.16651],[-77.37471,43.17893],[-77.37471,43.18273],[-77.37469,43.18886],[-77.37505,43.19639],[-77.37508,43.20262],[-77.37514,43.20942],[-77.3753,43.22449],[-77.37541,43.23095],[-77.37562,43.24396],[-77.37605,43.2696],[-77.37605,43.27622],[-77.36895,43.27712],[-77.36607,43.27791],[-77.35964,43.27862],[-77.35508,43.27813],[-77.34947,43.27872],[-77.34109,43.28066],[-77.33775,43.27983],[-77.33525,43.27786],[-77.32885,43.27895],[-77.32205,43.28062],[-77.32146,43.28065],[-77.31462,43.28103],[-77.31353,43.28097],[-77.31182,43.28088],[-77.31052,43.27867],[-77.30398,43.27815],[-77.29602,43.27799],[-77.2927,43.27793],[-77.28659,43.27863],[-77.28104,43.27727],[-77.26418,43.27736],[-77.26281,43.27755],[-77.25572,43.2785],[-77.25242,43.27895],[-77.25006,43.27926],[-77.23614,43.28114],[-77.21911,43.28343],[-77.21406,43.28411],[-77.2079,43.28372],[-77.20523,43.283],[-77.19668,43.2826],[-77.19619,43.28258],[-77.19581,43.28276],[-77.19075,43.28518],[-77.18557,43.28411],[-77.18553,43.28407],[-77.18345,43.28187],[-77.18336,43.28178],[-77.18204,43.28175],[-77.17309,43.28151],[-77.15675,43.28592],[-77.15603,43.28611],[-77.14964,43.28923],[-77.14397,43.28944],[-77.14342,43.28756],[-77.1364,43.28555],[-77.1322,43.28556],[-77.12866,43.28557],[-77.12102,43.28728],[-77.11712,43.28614],[-77.113,43.28673],[-77.10707,43.28931],[-77.09823,43.28668],[-77.09605,43.28489],[-77.08412,43.28324],[-77.08179,43.28179],[-77.07546,43.28141],[-77.06988,43.28282],[-77.06608,43.27951],[-77.0603,43.27941],[-77.05543,43.27651],[-77.04869,43.27709],[-77.04688,43.27613],[-77.04301,43.2711],[-77.04256,43.27052],[-77.0321,43.27069],[-77.02725,43.27045],[-77.02411,43.27029],[-77.01578,43.27097],[-77.01317,43.2701],[-77.00869,43.27055],[-76.99969,43.27146],[-76.98844,43.2745],[-76.9827,43.27338],[-76.97515,43.27411],[-76.97442,43.27303],[-76.97426,43.27301],[-76.96782,43.27238],[-76.96543,43.27214],[-76.96454,43.27052],[-76.96419,43.27052],[-76.95919,43.27055],[-76.9587,43.27001],[-76.95096,43.27052],[-76.94454,43.27297],[-76.93953,43.27633],[-76.93198,43.27966],[-76.92439,43.28525],[-76.92046,43.28479],[-76.90684,43.29071],[-76.90429,43.29182],[-76.89621,43.29596],[-76.88691,43.29389],[-76.88201,43.29339],[-76.8774,43.29293],[-76.87305,43.29413],[-76.86652,43.29458],[-76.85741,43.29763],[-76.85498,43.29844],[-76.84519,43.30356],[-76.84167,43.3054],[-76.83489,43.30516],[-76.83227,43.30571],[-76.83105,43.30597],[-76.82618,43.30466],[-76.81894,43.30591],[-76.80913,43.30831],[-76.8043,43.30797],[-76.79394,43.30937],[-76.7841,43.31235],[-76.78111,43.31344],[-76.76965,43.31765],[-76.76191,43.32122],[-76.75534,43.32525],[-76.74638,43.33107],[-76.73733,43.33773],[-76.72818,43.34374],[-76.72566,43.34367],[-76.72249,43.34358],[-76.71931,43.30476],[-76.71738,43.28197],[-76.71698,43.27809],[-76.71572,43.27806],[-76.71449,43.26366],[-76.71392,43.25654],[-76.71357,43.25006],[-76.71336,43.24929],[-76.71282,43.24184],[-76.71152,43.22244],[-76.71122,43.221],[-76.71013,43.20518],[-76.70756,43.16174],[-76.70717,43.15507],[-76.70678,43.14842],[-76.70573,43.13143],[-76.7055,43.12774],[-76.7052,43.12309],[-76.70328,43.09343],[-76.70232,43.08039],[-76.70323,43.07908],[-76.70351,43.0771],[-76.70447,43.07562],[-76.70448,43.07424],[-76.70588,43.07078],[-76.71055,43.06934],[-76.71361,43.0671],[-76.71571,43.06451],[-76.71779,43.06263],[-76.71746,43.05856],[-76.71687,43.05632],[-76.71911,43.0403],[-76.71911,43.03714],[-76.71861,43.03312],[-76.7175,43.03026],[-76.71381,43.02403],[-76.71173,43.02045],[-76.7112,43.01804],[-76.71241,43.01577],[-76.7137,43.01464],[-76.7187,43.01134],[-76.72166,43.00786],[-76.72191,43.00679],[-76.72077,43.00174],[-76.72065,42.99543],[-76.72144,42.99367],[-76.72333,42.99182],[-76.72628,42.99034],[-76.72665,42.98926],[-76.72881,42.98776],[-76.72816,42.98571],[-76.72827,42.981],[-76.72762,42.97814],[-76.72866,42.97607],[-76.73354,42.97281],[-76.73674,42.97029],[-76.7371,42.96829],[-76.73589,42.96549],[-76.73667,42.96304],[-76.73797,42.96129],[-76.73811,42.95659],[-76.73936,42.95447],[-76.73814,42.95252],[-76.73721,42.95004],[-76.73687,42.94913],[-76.73433,42.94488],[-76.73474,42.94268],[-76.73796,42.92704],[-76.73836,42.92477],[-76.73918,42.91684],[-76.73883,42.91139],[-76.73746,42.90211],[-76.7365,42.89984],[-76.73552,42.89751],[-76.73347,42.89425],[-76.72771,42.88474],[-76.72474,42.87929],[-76.72372,42.87677],[-76.72174,42.87109],[-76.72125,42.86958],[-76.72083,42.86264],[-76.72102,42.85426],[-76.72038,42.85074],[-76.71885,42.84663],[-76.71794,42.84418],[-76.71718,42.83883],[-76.71757,42.83256],[-76.71951,42.82545],[-76.72327,42.81792],[-76.72741,42.81055],[-76.72907,42.80814],[-76.73045,42.80614],[-76.73831,42.79469],[-76.74006,42.78942],[-76.7402,42.78289],[-76.74,42.77645],[-76.73947,42.77011],[-76.73737,42.75419],[-76.73752,42.75391],[-76.73606,42.74557],[-76.73424,42.73324],[-76.73345,42.72789],[-76.73164,42.72074],[-76.72895,42.7129],[-76.7234,42.70412],[-76.71969,42.70042],[-76.71049,42.6934],[-76.70318,42.68863],[-76.69783,42.68456],[-76.69543,42.68273],[-76.69029,42.67731],[-76.6879,42.67478],[-76.68531,42.67028],[-76.67172,42.63569],[-76.66654,42.62346],[-76.66314,42.61635],[-76.66024,42.61083],[-76.65623,42.6048],[-76.64532,42.59171],[-76.63807,42.5844],[-76.62676,42.57387],[-76.62467,42.57225],[-76.61824,42.56665],[-76.61217,42.56287],[-76.60599,42.55941],[-76.58599,42.54991],[-76.61519,42.54898],[-76.61765,42.54907],[-76.64994,42.54801],[-76.66229,42.54762],[-76.67302,42.54735],[-76.68373,42.54712],[-76.69665,42.54679],[-76.7383,42.54569],[-76.74523,42.54549],[-76.76056,42.54512],[-76.77993,42.54462],[-76.78845,42.54439],[-76.79163,42.5443],[-76.79731,42.54417],[-76.80503,42.54394],[-76.81881,42.54358],[-76.8238,42.54344],[-76.82502,42.54342],[-76.83492,42.54315],[-76.84649,42.54283],[-76.84972,42.54259],[-76.85244,42.54269],[-76.8956,42.54154],[-76.89406,42.5788],[-76.89414,42.58503],[-76.89431,42.59858],[-76.89444,42.60733],[-76.89467,42.62322],[-76.89453,42.62915],[-76.89471,42.63688],[-76.89535,42.65626],[-76.89712,42.66365],[-76.89869,42.66664],[-76.90801,42.67907],[-76.93022,42.70826],[-76.93639,42.7173],[-76.9387,42.72153],[-76.94294,42.73192],[-76.94499,42.73729],[-76.94674,42.74974],[-76.94764,42.75918],[-76.94743,42.76443],[-76.97139,42.76422],[-77.00084,42.76408],[-77.00162,42.76407],[-77.01478,42.76386],[-77.01713,42.7638],[-77.01863,42.7638],[-77.0499,42.76384],[-77.06792,42.76377],[-77.07845,42.76365],[-77.12315,42.76334],[-77.12322,42.76172],[-77.14428,42.76162],[-77.22143,42.76149],[-77.2341,42.76138],[-77.23533,42.76139],[-77.27229,42.76145],[-77.27606,42.76148],[-77.29914,42.76159],[-77.31141,42.76144],[-77.313,42.76127],[-77.31446,42.75913],[-77.31618,42.75618],[-77.32135,42.75007],[-77.3251,42.74727],[-77.3335,42.73817],[-77.3367,42.73397],[-77.3376,42.73267],[-77.345,42.71947],[-77.34941,42.71027],[-77.35361,42.69997],[-77.35441,42.69717],[-77.35571,42.68987],[-77.35735,42.66916],[-77.3574,42.66797],[-77.36711,42.66787],[-77.36707,42.66374],[-77.36532,42.66343],[-77.36703,42.65827],[-77.36684,42.63582],[-77.36662,42.59799],[-77.3665,42.57637],[-77.42309,42.57664],[-77.44587,42.57679],[-77.4739,42.57709],[-77.48517,42.57721],[-77.49089,42.57729],[-77.53967,42.5784],[-77.57474,42.57919],[-77.5837,42.57944],[-77.58897,42.57957],[-77.62068,42.58015],[-77.62274,42.58014],[-77.65085,42.58037],[-77.65426,42.58039],[-77.65992,42.58041],[-77.66088,42.54907],[-77.66122,42.53813],[-77.66131,42.53507],[-77.66865,42.53507],[-77.69711,42.53507],[-77.70405,42.53532],[-77.704,42.53459],[-77.72062,42.53507],[-77.72267,42.47971],[-77.72296,42.47122],[-77.73028,42.47136],[-77.74972,42.47173],[-77.75122,42.47187],[-77.77728,42.47252],[-77.77977,42.47268],[-77.84023,42.47458],[-77.84067,42.49989],[-77.84069,42.51777],[-77.89619,42.51808],[-77.90161,42.51831],[-77.9052,42.5181],[-77.93649,42.51831],[-77.95496,42.51837],[-78.02191,42.51849],[-78.04342,42.51846],[-78.04284,42.51863],[-78.03826,42.52152],[-78.03946,42.52118],[-78.08891,42.52114],[-78.10699,42.52125],[-78.11821,42.52132],[-78.13345,42.52146],[-78.14547,42.52157],[-78.16303,42.52166],[-78.19009,42.52171],[-78.19034,42.52171],[-78.22078,42.52173],[-78.22469,42.52185],[-78.23513,42.52172],[-78.24876,42.52171],[-78.25189,42.5216],[-78.27615,42.5215],[-78.27874,42.52147],[-78.30884,42.52122],[-78.30907,42.52121],[-78.40444,42.51962],[-78.41478,42.51952],[-78.42472,42.51926],[-78.42708,42.51931],[-78.44703,42.51921],[-78.448,42.51921],[-78.46156,42.51919],[-78.46455,42.51923],[-78.4639,42.53635],[-78.46389,42.53661],[-78.46345,42.55147],[-78.46198,42.60654],[-78.46198,42.60659],[-78.4619,42.61328],[-78.46297,42.64828],[-78.46347,42.66645],[-78.46373,42.67838],[-78.464,42.69391],[-78.464,42.69402],[-78.46394,42.69907],[-78.46367,42.72268],[-78.46365,42.7246],[-78.46364,42.72559],[-78.4636,42.72941],[-78.46356,42.7339],[-78.46341,42.75388],[-78.46332,42.78046],[-78.4835,42.78045],[-78.48796,42.78047],[-78.48792,42.78157],[-78.48782,42.7887],[-78.48759,42.7992],[-78.48723,42.81343]]]}},{"type":"Feature","properties":{"name":"Suffolk Transit On-Demand","boundary_type":"cousubs","source":"Census TIGER county subdivision","fidelity":"approximate","updated":"2026-09","units":"Southampton town; East Hampton town","note":"Two zones each covering multiple hamlets across a full NY town, not just incorporated villages: Southampton zone spans Southampton, North Sea, North Haven and Sag Harbor (Town of Southampton); East Hampton zone spans Montauk, East Hampton, Springs and Amagansett (Town of East Hampton), per sctbus.org/On-Demand zone descriptions. Encoded as the two containing towns (approximate) since actual coverage is a multi-hamlet subset of each town, not the whole town.","confidence":0.7},"geometry":{"type":"MultiPolygon","coordinates":[[[[-72.72622,40.83202],[-72.72631,40.8324],[-72.72665,40.83382],[-72.72358,40.84375],[-72.72339,40.84435],[-72.71506,40.87049],[-72.71395,40.87396],[-72.70575,40.89963],[-72.70333,40.9072],[-72.70115,40.91403],[-72.70083,40.91453],[-72.69752,40.91609],[-72.6933,40.91578],[-72.6877,40.9138],[-72.6852,40.91387],[-72.68036,40.91678],[-72.67608,40.91755],[-72.67347,40.91678],[-72.67238,40.91767],[-72.66923,40.9176],[-72.66374,40.91559],[-72.66089,40.91562],[-72.65485,40.91696],[-72.65359,40.91758],[-72.64968,40.91678],[-72.64729,40.91678],[-72.64263,40.91795],[-72.63903,40.91764],[-72.63894,40.91765],[-72.63396,40.91828],[-72.63121,40.91724],[-72.62841,40.91915],[-72.62017,40.92101],[-72.61621,40.92238],[-72.61345,40.92241],[-72.59816,40.92256],[-72.58547,40.92268],[-72.5734,40.92374],[-72.54086,40.92658],[-72.5355,40.92792],[-72.49794,40.93791],[-72.48322,40.94183],[-72.44795,40.95121],[-72.44044,40.95865],[-72.42318,40.97578],[-72.41022,40.98864],[-72.37819,41.02037],[-72.36979,41.02322],[-72.34243,41.03249],[-72.33384,41.03539],[-72.32559,41.03819],[-72.31583,41.0415],[-72.31023,41.04339],[-72.2833,41.01619],[-72.28189,41.01477],[-72.2802,41.01577],[-72.26952,41.02304],[-72.26652,41.02564],[-72.26583,41.03657],[-72.26239,41.04013],[-72.26051,41.04206],[-72.24125,41.04477],[-72.22936,41.04436],[-72.21748,41.04061],[-72.20921,41.03446],[-72.20186,41.03227],[-72.19056,41.03258],[-72.1876,41.03381],[-72.1876,41.03382],[-72.18327,41.03562],[-72.17953,41.03841],[-72.17949,41.03843],[-72.17488,41.04615],[-72.1629,41.05319],[-72.16037,41.05383],[-72.15386,41.05186],[-72.15299,41.05115],[-72.14577,41.04524],[-72.1373,41.03968],[-72.13514,41.03128],[-72.13741,41.02391],[-72.12674,41.01563],[-72.12167,41.00789],[-72.11637,40.9998],[-72.10901,40.99408],[-72.10216,40.99151],[-72.09546,40.99135],[-72.0922,40.99269],[-72.08304,40.99645],[-72.07995,41.00343],[-72.08006,41.00606],[-72.07749,41.00822],[-72.06291,41.01132],[-72.06125,41.01691],[-72.05688,41.01813],[-72.05668,41.01819],[-72.05456,41.02184],[-72.04877,41.02259],[-72.04206,41.02067],[-72.03452,41.01961],[-72.0255,41.02052],[-72.01693,41.02352],[-72.01234,41.02944],[-71.99724,41.04089],[-71.99264,41.04715],[-71.98213,41.04783],[-71.97874,41.04296],[-71.97223,41.04084],[-71.96351,41.04253],[-71.95726,41.04828],[-71.95742,41.04961],[-71.9578,41.05271],[-71.95804,41.0547],[-71.96156,41.06402],[-71.95959,41.07124],[-71.9552,41.07307],[-71.94586,41.07371],[-71.93825,41.07741],[-71.91938,41.08052],[-71.90433,41.08599],[-71.90115,41.08477],[-71.89926,41.08084],[-71.8955,41.07738],[-71.88954,41.0757],[-71.87979,41.07675],[-71.86956,41.07505],[-71.86447,41.07692],[-71.85749,41.07356],[-71.85648,41.07104],[-71.86082,41.0657],[-71.86591,41.06254],[-71.86742,41.05939],[-71.87272,41.05633],[-71.87323,41.05524],[-71.87474,41.05203],[-71.88881,41.04745],[-71.90149,41.04258],[-71.90257,41.04113],[-71.90877,41.03958],[-71.91674,41.03965],[-71.93569,41.03418],[-71.95162,41.02905],[-71.95882,41.02673],[-72.01169,41.00662],[-72.02657,41.00097],[-72.02936,40.99991],[-72.10282,40.97589],[-72.11445,40.97208],[-72.1489,40.95945],[-72.15497,40.95722],[-72.18969,40.94449],[-72.19487,40.94259],[-72.22922,40.92999],[-72.2293,40.92996],[-72.23604,40.92748],[-72.24541,40.92359],[-72.2587,40.91806],[-72.2842,40.90835],[-72.28989,40.90618],[-72.3165,40.89605],[-72.32806,40.89165],[-72.32807,40.89164],[-72.32877,40.89138],[-72.34003,40.88709],[-72.35176,40.8828],[-72.37714,40.87351],[-72.38759,40.86968],[-72.39585,40.86666],[-72.40903,40.86241],[-72.47,40.84274],[-72.47166,40.84197],[-72.4741,40.84084],[-72.47603,40.84043],[-72.48433,40.83869],[-72.54059,40.82263],[-72.56626,40.8153],[-72.57344,40.81325],[-72.59632,40.80695],[-72.61423,40.80201],[-72.61767,40.80106],[-72.6252,40.79899],[-72.6309,40.79742],[-72.66244,40.78873],[-72.66308,40.78855],[-72.6782,40.7846],[-72.68023,40.78407],[-72.68036,40.78404],[-72.6954,40.78011],[-72.69545,40.78009],[-72.72815,40.77155],[-72.72703,40.77545],[-72.72725,40.7762],[-72.72878,40.77865],[-72.72874,40.78078],[-72.72841,40.79986],[-72.72821,40.81184],[-72.72812,40.81431],[-72.72808,40.81482],[-72.72948,40.81586],[-72.72802,40.82498],[-72.72622,40.83202]],[[-72.44011,40.86758],[-72.43906,40.86542],[-72.43588,40.86278],[-72.43228,40.86131],[-72.43281,40.86246],[-72.43133,40.86304],[-72.42899,40.86246],[-72.42785,40.86099],[-72.42622,40.86055],[-72.42343,40.86563],[-72.42445,40.86896],[-72.42147,40.8717],[-72.421,40.87567],[-72.42232,40.87849],[-72.42312,40.88351],[-72.42309,40.88404],[-72.42498,40.88455],[-72.43395,40.88548],[-72.4374,40.88397],[-72.43865,40.88245],[-72.43823,40.87974],[-72.4387,40.87954],[-72.4407,40.87749],[-72.44035,40.87511],[-72.44033,40.87277],[-72.44011,40.86758]]],[[[-72.12835,41.10813],[-72.1267,41.11514],[-72.12789,41.12044],[-72.12597,41.12118],[-72.1211,41.11514],[-72.11447,41.11049],[-72.09289,41.104],[-72.08734,41.10094],[-72.08212,41.1014],[-72.07793,41.09987],[-72.07711,41.09671],[-72.08586,41.0904],[-72.08686,41.08571],[-72.08548,41.07845],[-72.08257,41.07316],[-72.08294,41.07095],[-72.08643,41.06881],[-72.087,41.05903],[-72.09512,41.05421],[-72.0972,41.05488],[-72.09714,41.07584],[-72.10315,41.08648],[-72.1064,41.08888],[-72.12056,41.09317],[-72.13774,41.09298],[-72.14192,41.09437],[-72.14293,41.09781],[-72.13996,41.10161],[-72.13327,41.10368],[-72.12835,41.10813]]]]}}]}