{"type":"FeatureCollection","features":[{"type":"Feature","properties":{"name":"BGo Curb to Curb","boundary_type":"county","source":"Census TIGER county","fidelity":"approximate","updated":"2026-09","units":"Butler County","note":"Service area includes Oxford and Middletown in Butler County; using county as proxy for multi-zone coverage.","confidence":0.8},"geometry":{"type":"Polygon","coordinates":[[[-84.81857,39.34864],[-84.81765,39.39182],[-84.81674,39.43301],[-84.81576,39.47736],[-84.81574,39.47836],[-84.81573,39.47945],[-84.81555,39.50842],[-84.81554,39.51142],[-84.81537,39.52195],[-84.81535,39.52314],[-84.81515,39.54869],[-84.81515,39.55985],[-84.81498,39.56472],[-84.81497,39.56515],[-84.81488,39.56755],[-84.81494,39.56771],[-84.80818,39.56771],[-84.78597,39.56766],[-84.77,39.56762],[-84.76309,39.5666],[-84.75785,39.56681],[-84.74636,39.56695],[-84.73983,39.56724],[-84.72164,39.56757],[-84.71406,39.56745],[-84.70304,39.56747],[-84.69661,39.56749],[-84.65037,39.56737],[-84.646,39.56736],[-84.64336,39.56736],[-84.63206,39.56735],[-84.59153,39.56753],[-84.55374,39.56778],[-84.52485,39.56807],[-84.51528,39.56812],[-84.51022,39.5682],[-84.49802,39.56828],[-84.47893,39.56879],[-84.47908,39.57384],[-84.47921,39.59102],[-84.47425,39.59016],[-84.46315,39.58996],[-84.43544,39.59006],[-84.41286,39.58986],[-84.36524,39.58985],[-84.36523,39.58949],[-84.36453,39.56232],[-84.36449,39.55946],[-84.3643,39.54381],[-84.36269,39.54256],[-84.36155,39.54217],[-84.35837,39.54276],[-84.35411,39.54439],[-84.3472,39.54541],[-84.33301,39.54874],[-84.33168,39.54921],[-84.33183,39.54852],[-84.33196,39.54786],[-84.33209,39.54718],[-84.33258,39.5418],[-84.33338,39.53252],[-84.33412,39.52513],[-84.33415,39.52486],[-84.33421,39.52433],[-84.33487,39.5174],[-84.33521,39.51357],[-84.33543,39.51135],[-84.33553,39.51023],[-84.33669,39.4966],[-84.33734,39.48875],[-84.33736,39.48858],[-84.3379,39.48237],[-84.338,39.48118],[-84.33827,39.47854],[-84.33869,39.47335],[-84.33879,39.47201],[-84.34021,39.4567],[-84.33672,39.45599],[-84.33845,39.44017],[-84.33846,39.44005],[-84.33984,39.42746],[-84.33987,39.42722],[-84.3414,39.41242],[-84.34305,39.39781],[-84.34385,39.39027],[-84.34467,39.38271],[-84.34596,39.37189],[-84.34633,39.36845],[-84.34652,39.36649],[-84.34777,39.35333],[-84.34792,39.35182],[-84.34808,39.34987],[-84.3482,39.34851],[-84.34834,39.34689],[-84.3489,39.34081],[-84.34926,39.3371],[-84.3493,39.33666],[-84.3496,39.33266],[-84.34986,39.33022],[-84.35089,39.31865],[-84.35101,39.31751],[-84.35197,39.3069],[-84.35239,39.30243],[-84.35258,39.29935],[-84.35321,39.29229],[-84.36201,39.29333],[-84.36992,39.2943],[-84.37075,39.2944],[-84.37893,39.29568],[-84.37913,39.29571],[-84.39108,39.29758],[-84.39187,39.29753],[-84.39513,39.29765],[-84.40118,39.29787],[-84.40933,39.29786],[-84.41025,39.29824],[-84.42913,39.29876],[-84.4395,39.29996],[-84.44696,39.30081],[-84.45267,39.30148],[-84.46545,39.30292],[-84.48457,39.30161],[-84.48515,39.30155],[-84.49405,39.30341],[-84.50273,39.3055],[-84.50464,39.30596],[-84.51277,39.30483],[-84.51825,39.30403],[-84.52334,39.30329],[-84.52368,39.30328],[-84.52411,39.30334],[-84.53128,39.30449],[-84.54239,39.30626],[-84.55456,39.30736],[-84.56235,39.30808],[-84.57133,39.30805],[-84.57965,39.30806],[-84.59875,39.30856],[-84.60875,39.31016],[-84.60934,39.31026],[-84.60965,39.3103],[-84.61634,39.31123],[-84.63005,39.31206],[-84.63079,39.31198],[-84.63099,39.31194],[-84.63729,39.31025],[-84.63859,39.30975],[-84.63982,39.30883],[-84.64181,39.30504],[-84.65435,39.30476],[-84.65923,39.30485],[-84.68844,39.30475],[-84.70225,39.30465],[-84.70328,39.30475],[-84.70605,39.30465],[-84.7272,39.30475],[-84.74485,39.30475],[-84.74971,39.30493],[-84.76281,39.30495],[-84.76328,39.30492],[-84.76652,39.30487],[-84.77267,39.30515],[-84.79574,39.30565],[-84.81945,39.30515],[-84.81924,39.31704],[-84.81857,39.34864]]]}},{"type":"Feature","properties":{"name":"COTA Plus","boundary_type":"county","source":"Census TIGER county","fidelity":"approximate","updated":"2026-09","units":"Franklin County","note":"Service covers 8 zones across Columbus/Franklin County; exact zone boundaries not specified, using county as proxy.","confidence":0.8},"geometry":{"type":"Polygon","coordinates":[[[-83.25855,40.00482],[-83.25409,40.00505],[-83.25168,40.00838],[-83.25273,40.01105],[-83.25327,40.01432],[-83.25303,40.01692],[-83.25176,40.01963],[-83.25174,40.02329],[-83.25275,40.02845],[-83.25551,40.02879],[-83.25622,40.03055],[-83.25611,40.03278],[-83.25429,40.03614],[-83.25248,40.04059],[-83.25489,40.04268],[-83.25565,40.04552],[-83.25505,40.04861],[-83.25383,40.04922],[-83.22084,40.04788],[-83.2122,40.04807],[-83.21101,40.05945],[-83.21059,40.06528],[-83.21025,40.06927],[-83.21003,40.07105],[-83.20952,40.07514],[-83.20788,40.09282],[-83.20681,40.10576],[-83.20627,40.10773],[-83.19161,40.10744],[-83.19121,40.10743],[-83.18153,40.10721],[-83.17858,40.10715],[-83.1762,40.10714],[-83.17021,40.10707],[-83.16996,40.12631],[-83.1699,40.13102],[-83.16987,40.14308],[-83.16147,40.14231],[-83.15307,40.14211],[-83.14905,40.14156],[-83.14133,40.14134],[-83.12708,40.14057],[-83.11994,40.14018],[-83.0999,40.13955],[-83.08978,40.13921],[-83.0894,40.1392],[-83.08054,40.13888],[-83.07205,40.13856],[-83.06397,40.13829],[-83.06381,40.13828],[-83.06023,40.13815],[-83.0574,40.13805],[-83.04118,40.13756],[-83.03759,40.13743],[-83.03169,40.1373],[-83.0309,40.13728],[-83.01701,40.13675],[-83.01402,40.13664],[-83.01132,40.13655],[-83.0052,40.13634],[-83.00446,40.1363],[-83.00267,40.13623],[-82.99569,40.13592],[-82.9943,40.13587],[-82.99181,40.13577],[-82.98787,40.13561],[-82.97794,40.1352],[-82.97133,40.13493],[-82.97131,40.13493],[-82.97087,40.13492],[-82.9704,40.1349],[-82.97001,40.13488],[-82.95901,40.13439],[-82.95854,40.13428],[-82.95085,40.1341],[-82.94752,40.13398],[-82.94688,40.13395],[-82.9325,40.13338],[-82.9211,40.1329],[-82.91528,40.13267],[-82.90284,40.13215],[-82.89536,40.13179],[-82.885,40.13129],[-82.8841,40.13125],[-82.88395,40.13124],[-82.85822,40.13],[-82.85135,40.1297],[-82.84355,40.12937],[-82.79105,40.12715],[-82.77134,40.12636],[-82.76183,40.12586],[-82.7622,40.12077],[-82.76288,40.11113],[-82.76352,40.10132],[-82.76375,40.0977],[-82.7639,40.09578],[-82.76454,40.08842],[-82.76521,40.07964],[-82.76748,40.05103],[-82.76946,40.02753],[-82.77023,40.01825],[-82.77024,40.01795],[-82.77142,40.0045],[-82.77188,39.99845],[-82.77182,39.99834],[-82.77266,39.98739],[-82.77267,39.98729],[-82.77268,39.98711],[-82.77382,39.97613],[-82.77946,39.97629],[-82.77974,39.97302],[-82.78011,39.96864],[-82.78047,39.96438],[-82.78126,39.9557],[-82.78181,39.94698],[-82.78249,39.93966],[-82.7916,39.94016],[-82.79816,39.94055],[-82.8108,39.94116],[-82.81148,39.93212],[-82.81149,39.93186],[-82.81152,39.93159],[-82.81196,39.92649],[-82.81257,39.91817],[-82.81299,39.91354],[-82.8131,39.91166],[-82.8112,39.91163],[-82.80985,39.91156],[-82.80968,39.91155],[-82.79905,39.91102],[-82.79438,39.91078],[-82.7952,39.90464],[-82.79549,39.90298],[-82.79589,39.8967],[-82.7975,39.88454],[-82.79771,39.88003],[-82.79764,39.87553],[-82.79774,39.87439],[-82.7984,39.86715],[-82.79921,39.85968],[-82.79966,39.85497],[-82.80035,39.84951],[-82.8004,39.84786],[-82.80094,39.84501],[-82.80129,39.83938],[-82.8013,39.83904],[-82.80219,39.8304],[-82.80225,39.82948],[-82.80241,39.82405],[-82.80242,39.82398],[-82.80248,39.82295],[-82.80298,39.82298],[-82.81411,39.82367],[-82.8215,39.82427],[-82.82168,39.82229],[-82.82174,39.82171],[-82.82184,39.82076],[-82.82185,39.82066],[-82.82231,39.81563],[-82.82258,39.8129],[-82.82287,39.80979],[-82.8229,39.80954],[-82.8229,39.80947],[-82.82307,39.80773],[-82.82316,39.80684],[-82.82336,39.80441],[-82.82356,39.80221],[-82.82406,39.79707],[-82.8242,39.79559],[-82.82425,39.795],[-82.82978,39.79527],[-82.85262,39.7965],[-82.89468,39.79866],[-82.89984,39.79893],[-82.902,39.79912],[-82.93772,39.80101],[-82.95691,39.80188],[-82.98053,39.80293],[-82.9809,39.80295],[-82.99213,39.80348],[-82.99274,39.80352],[-83.01307,39.80439],[-83.01395,39.80442],[-83.01713,39.80457],[-83.03019,39.80519],[-83.03763,39.80557],[-83.04446,39.80528],[-83.06047,39.80568],[-83.06146,39.80581],[-83.07469,39.80614],[-83.10135,39.80712],[-83.12035,39.80782],[-83.14788,39.80841],[-83.15173,39.80853],[-83.15326,39.80846],[-83.16794,39.80873],[-83.16889,39.80878],[-83.17228,39.80891],[-83.17273,39.80895],[-83.17294,39.80897],[-83.18096,39.80923],[-83.18513,39.80934],[-83.19362,39.81027],[-83.20094,39.81066],[-83.2437,39.8125],[-83.24401,39.82233],[-83.24501,39.82896],[-83.2473,39.86078],[-83.25075,39.9035],[-83.25203,39.91736],[-83.24652,39.92004],[-83.23062,39.92855],[-83.22564,39.93226],[-83.22733,39.93636],[-83.22858,39.9393],[-83.22851,39.94022],[-83.23094,39.9416],[-83.23186,39.94486],[-83.23584,39.94736],[-83.23624,39.94773],[-83.2374,39.94999],[-83.24063,39.95146],[-83.2417,39.95255],[-83.24168,39.95714],[-83.24017,39.96012],[-83.24543,39.96329],[-83.2455,39.9671],[-83.24694,39.97114],[-83.25023,39.97033],[-83.25053,39.97258],[-83.24944,39.9734],[-83.25004,39.97585],[-83.25009,39.97766],[-83.2492,39.97994],[-83.2494,39.9805],[-83.24943,39.98076],[-83.25028,39.98135],[-83.25012,39.98315],[-83.24854,39.98394],[-83.24615,39.98641],[-83.24611,39.98732],[-83.2511,39.99134],[-83.25413,39.99545],[-83.25571,39.99667],[-83.25609,39.99872],[-83.25986,40.00109],[-83.26088,40.00281],[-83.25855,40.00482]]]}},{"type":"Feature","properties":{"name":"Dayton RTA Connect On-Demand","boundary_type":"county","source":"Census TIGER county","fidelity":"approximate","updated":"2026-09","units":"Montgomery County","note":"Service covers 4 zones in Montgomery County (Miami Valley); using county as proxy.","confidence":0.85},"geometry":{"type":"Polygon","coordinates":[[[-84.44959,39.91921],[-84.44653,39.91926],[-84.42747,39.9196],[-84.4259,39.91962],[-84.3833,39.9203],[-84.36927,39.9205],[-84.3623,39.92058],[-84.34742,39.92078],[-84.34141,39.92088],[-84.3172,39.92126],[-84.31524,39.92137],[-84.31338,39.92123],[-84.30194,39.92135],[-84.28606,39.92155],[-84.27808,39.92155],[-84.27482,39.92176],[-84.24201,39.92221],[-84.2321,39.92235],[-84.2272,39.92234],[-84.1987,39.92271],[-84.18867,39.9228],[-84.1746,39.92291],[-84.1691,39.92293],[-84.16699,39.92276],[-84.15767,39.92297],[-84.16289,39.91759],[-84.16403,39.91568],[-84.16706,39.9122],[-84.16719,39.91137],[-84.16602,39.90493],[-84.16465,39.89911],[-84.16446,39.89718],[-84.16349,39.89485],[-84.16129,39.89267],[-84.15906,39.88946],[-84.15759,39.88813],[-84.15722,39.88599],[-84.15183,39.8857],[-84.1456,39.88534],[-84.13924,39.88495],[-84.13611,39.88475],[-84.12138,39.8839],[-84.09845,39.88253],[-84.09818,39.88253],[-84.05101,39.87981],[-84.05371,39.85071],[-84.05477,39.84059],[-84.05497,39.83911],[-84.05505,39.83621],[-84.058,39.83633],[-84.05818,39.83634],[-84.06022,39.83647],[-84.09294,39.83834],[-84.09434,39.82377],[-84.09493,39.81794],[-84.09513,39.81451],[-84.09574,39.80917],[-84.09675,39.79764],[-84.09687,39.7964],[-84.09693,39.7958],[-84.09694,39.79371],[-84.09694,39.79367],[-84.09694,39.7935],[-84.09694,39.79315],[-84.09784,39.78016],[-84.09893,39.77087],[-84.09894,39.77006],[-84.09952,39.7654],[-84.10022,39.75811],[-84.10024,39.75646],[-84.10086,39.75107],[-84.10181,39.74202],[-84.10194,39.74041],[-84.10211,39.73933],[-84.10244,39.73616],[-84.10321,39.72869],[-84.10339,39.72821],[-84.10452,39.71705],[-84.10538,39.70716],[-84.10546,39.7064],[-84.10598,39.69721],[-84.10645,39.69215],[-84.10661,39.68989],[-84.10668,39.68891],[-84.10713,39.68246],[-84.10774,39.67497],[-84.10804,39.67346],[-84.10824,39.67176],[-84.10824,39.67161],[-84.10824,39.67103],[-84.10868,39.66783],[-84.1087,39.66757],[-84.1093,39.6602],[-84.10964,39.65625],[-84.11004,39.65156],[-84.1109,39.64164],[-84.11045,39.64017],[-84.11126,39.63802],[-84.11143,39.63274],[-84.11177,39.62854],[-84.11174,39.628],[-84.11193,39.62636],[-84.10963,39.62596],[-84.11049,39.61949],[-84.11057,39.61844],[-84.11113,39.61137],[-84.11333,39.58874],[-84.11375,39.5845],[-84.11417,39.57823],[-84.13386,39.57948],[-84.1426,39.58006],[-84.15353,39.58078],[-84.16299,39.58144],[-84.18733,39.58308],[-84.19757,39.58371],[-84.20141,39.58395],[-84.21093,39.58461],[-84.21156,39.58465],[-84.22206,39.58535],[-84.22317,39.58542],[-84.22341,39.58544],[-84.23005,39.58588],[-84.2302,39.58589],[-84.23767,39.58644],[-84.24237,39.58672],[-84.24282,39.58675],[-84.24843,39.58708],[-84.28432,39.58946],[-84.28505,39.58951],[-84.28569,39.58955],[-84.28632,39.58958],[-84.2867,39.58958],[-84.29616,39.58954],[-84.29626,39.58953],[-84.3069,39.58953],[-84.30794,39.58953],[-84.32368,39.58952],[-84.3238,39.58952],[-84.32456,39.58952],[-84.3251,39.58951],[-84.32679,39.58951],[-84.335,39.5895],[-84.33744,39.58949],[-84.34561,39.58948],[-84.36523,39.58949],[-84.36524,39.58985],[-84.41286,39.58986],[-84.43544,39.59006],[-84.46315,39.58996],[-84.47425,39.59016],[-84.47921,39.59102],[-84.47942,39.60409],[-84.47957,39.61219],[-84.47971,39.62097],[-84.47973,39.62192],[-84.48015,39.65705],[-84.47996,39.66148],[-84.48009,39.66228],[-84.4803,39.66356],[-84.48046,39.67096],[-84.48057,39.67734],[-84.48141,39.72281],[-84.48188,39.7448],[-84.4827,39.78828],[-84.48314,39.80934],[-84.48331,39.81766],[-84.48359,39.8304],[-84.48376,39.83928],[-84.48421,39.85991],[-84.48516,39.89772],[-84.48537,39.9053],[-84.4853,39.91079],[-84.48565,39.91813],[-84.48537,39.91849],[-84.44959,39.91921]]]}},{"type":"Feature","properties":{"name":"Fairfield County LINK Direct","boundary_type":"county","source":"Census TIGER county","fidelity":"approximate","updated":"2026-09","units":"Fairfield County","note":"Primary service area is Fairfield County (Lancaster area); also offers out-of-county trips up to 50 miles statewide but core service is county-based.","confidence":0.85},"geometry":{"type":"Polygon","coordinates":[[[-82.84098,39.58214],[-82.83935,39.59882],[-82.8384,39.60818],[-82.83646,39.62786],[-82.8361,39.63174],[-82.83438,39.64944],[-82.83762,39.64961],[-82.83528,39.67617],[-82.83447,39.68492],[-82.82969,39.73645],[-82.82967,39.7367],[-82.82827,39.75151],[-82.8269,39.76645],[-82.82425,39.795],[-82.8242,39.79559],[-82.82406,39.79707],[-82.82356,39.80221],[-82.82336,39.80441],[-82.82316,39.80684],[-82.82307,39.80773],[-82.8229,39.80947],[-82.8229,39.80954],[-82.82287,39.80979],[-82.82258,39.8129],[-82.82231,39.81563],[-82.82185,39.82066],[-82.82184,39.82076],[-82.82174,39.82171],[-82.82168,39.82229],[-82.8215,39.82427],[-82.81411,39.82367],[-82.80298,39.82298],[-82.80248,39.82295],[-82.80242,39.82398],[-82.80241,39.82405],[-82.80225,39.82948],[-82.80219,39.8304],[-82.8013,39.83904],[-82.80129,39.83938],[-82.80094,39.84501],[-82.8004,39.84786],[-82.80035,39.84951],[-82.79966,39.85497],[-82.79921,39.85968],[-82.7984,39.86715],[-82.79774,39.87439],[-82.79764,39.87553],[-82.79771,39.88003],[-82.7975,39.88454],[-82.79589,39.8967],[-82.79549,39.90298],[-82.7952,39.90464],[-82.79438,39.91078],[-82.79905,39.91102],[-82.80968,39.91155],[-82.80985,39.91156],[-82.8112,39.91163],[-82.8131,39.91166],[-82.81299,39.91354],[-82.81257,39.91817],[-82.81196,39.92649],[-82.81152,39.93159],[-82.81149,39.93186],[-82.81148,39.93212],[-82.8108,39.94116],[-82.79816,39.94055],[-82.7916,39.94016],[-82.78249,39.93966],[-82.77287,39.93933],[-82.7688,39.93908],[-82.74446,39.93783],[-82.73071,39.93707],[-82.72891,39.93696],[-82.69718,39.93527],[-82.68118,39.93446],[-82.61043,39.93115],[-82.59142,39.93045],[-82.58181,39.93016],[-82.55848,39.92912],[-82.54395,39.92849],[-82.5186,39.9273],[-82.50564,39.9267],[-82.50553,39.9267],[-82.49767,39.9263],[-82.49343,39.92606],[-82.48214,39.9255],[-82.47342,39.92506],[-82.46918,39.92723],[-82.46281,39.93038],[-82.46463,39.91255],[-82.46482,39.91048],[-82.46638,39.89469],[-82.46742,39.88472],[-82.46943,39.86594],[-82.47009,39.85991],[-82.47168,39.84858],[-82.47222,39.84188],[-82.4724,39.83722],[-82.42481,39.83448],[-82.39659,39.83306],[-82.3973,39.82096],[-82.39724,39.8185],[-82.4033,39.75223],[-82.40399,39.74507],[-82.40425,39.7446],[-82.36605,39.74252],[-82.3681,39.72144],[-82.37159,39.68557],[-82.37168,39.68463],[-82.37274,39.67402],[-82.37317,39.6691],[-82.37453,39.65496],[-82.37697,39.65509],[-82.44887,39.65908],[-82.4772,39.66091],[-82.47859,39.661],[-82.49033,39.6617],[-82.49183,39.647],[-82.49432,39.62101],[-82.49512,39.61254],[-82.49612,39.60285],[-82.54891,39.60561],[-82.57425,39.60676],[-82.59015,39.60747],[-82.61755,39.6086],[-82.61788,39.60421],[-82.61833,39.59571],[-82.62009,39.56399],[-82.64985,39.56521],[-82.73027,39.56907],[-82.73152,39.55445],[-82.77142,39.55697],[-82.77569,39.55727],[-82.77576,39.55726],[-82.77826,39.55738],[-82.77853,39.55739],[-82.78698,39.55797],[-82.82427,39.56044],[-82.84295,39.56148],[-82.84154,39.57612],[-82.84098,39.58214]]]}},{"type":"Feature","properties":{"name":"Knox County Transit","boundary_type":"county","source":"Census TIGER county","fidelity":"approximate","updated":"2026-09","units":"Knox County","note":"Primary service area is Knox County (Mount Vernon area); also offers out-of-county trips throughout Ohio but core service is county-based.","confidence":0.85},"geometry":{"type":"Polygon","coordinates":[[[-82.74493,40.3496],[-82.6897,40.34711],[-82.68846,40.34695],[-82.6465,40.34508],[-82.64577,40.35549],[-82.64561,40.35623],[-82.64422,40.37441],[-82.64081,40.41762],[-82.638,40.46337],[-82.63812,40.46343],[-82.63571,40.49214],[-82.63318,40.52307],[-82.64284,40.52211],[-82.6431,40.52446],[-82.64303,40.54268],[-82.64283,40.5435],[-82.6428,40.55001],[-82.62467,40.54983],[-82.62361,40.54988],[-82.62157,40.54988],[-82.59737,40.54995],[-82.5665,40.55001],[-82.54739,40.55011],[-82.52428,40.55036],[-82.50911,40.55054],[-82.45163,40.55076],[-82.45035,40.55079],[-82.37834,40.55086],[-82.3749,40.55087],[-82.35961,40.55249],[-82.33696,40.555],[-82.33476,40.55525],[-82.2749,40.56189],[-82.27262,40.56215],[-82.23462,40.56647],[-82.22027,40.56819],[-82.17854,40.5731],[-82.18081,40.52976],[-82.18163,40.51251],[-82.18164,40.5123],[-82.18364,40.47108],[-82.1837,40.46904],[-82.1838,40.46718],[-82.18374,40.46652],[-82.18428,40.45638],[-82.18472,40.45491],[-82.18447,40.45426],[-82.18691,40.40606],[-82.18736,40.3978],[-82.18818,40.38336],[-82.18863,40.37538],[-82.18883,40.37323],[-82.1904,40.34735],[-82.19016,40.34664],[-82.19081,40.33576],[-82.19183,40.31678],[-82.19211,40.31119],[-82.19325,40.29029],[-82.19591,40.23907],[-82.23987,40.23993],[-82.28089,40.24017],[-82.28094,40.23925],[-82.28443,40.23929],[-82.30275,40.23943],[-82.30984,40.23953],[-82.31413,40.2396],[-82.3175,40.23963],[-82.36434,40.24096],[-82.37487,40.24128],[-82.3803,40.24167],[-82.38129,40.24162],[-82.41203,40.24292],[-82.41707,40.24331],[-82.41814,40.24328],[-82.43451,40.2438],[-82.43667,40.2439],[-82.44103,40.2441],[-82.45211,40.2446],[-82.45261,40.24463],[-82.46276,40.24515],[-82.47727,40.24581],[-82.47611,40.2647],[-82.49118,40.2654],[-82.51678,40.26658],[-82.5552,40.26845],[-82.58038,40.26978],[-82.58397,40.26982],[-82.59397,40.27036],[-82.60371,40.27076],[-82.61097,40.27112],[-82.62682,40.27185],[-82.63886,40.2724],[-82.64421,40.27266],[-82.64552,40.27269],[-82.65238,40.27297],[-82.67143,40.27379],[-82.68918,40.27449],[-82.75075,40.277],[-82.75023,40.28409],[-82.74493,40.3496]]]}},{"type":"Feature","properties":{"name":"Laketran Rides on Demand","boundary_type":"county","source":"Census TIGER county","fidelity":"exact","updated":"2026-09","units":"Lake County","note":"County-wide service.","confidence":0.95},"geometry":{"type":"Polygon","coordinates":[[[-81.48864,41.63135],[-81.4862,41.63283],[-81.48131,41.63679],[-81.48127,41.6368],[-81.4798,41.63722],[-81.47712,41.63996],[-81.46838,41.6478],[-81.46718,41.64804],[-81.46255,41.65266],[-81.46231,41.6529],[-81.46049,41.65471],[-81.45983,41.65537],[-81.45859,41.65666],[-81.45855,41.6567],[-81.45513,41.66022],[-81.4503,41.6652],[-81.44782,41.66776],[-81.44776,41.66782],[-81.44457,41.67099],[-81.44338,41.67208],[-81.44266,41.67274],[-81.44222,41.67314],[-81.43912,41.67551],[-81.43657,41.67655],[-81.43612,41.67673],[-81.4342,41.679],[-81.43206,41.68017],[-81.43063,41.68041],[-81.42757,41.68181],[-81.42528,41.68286],[-81.41926,41.68696],[-81.41379,41.69057],[-81.4097,41.69423],[-81.40884,41.69442],[-81.40682,41.69487],[-81.39687,41.70195],[-81.3958,41.70195],[-81.38863,41.70717],[-81.38846,41.7073],[-81.38717,41.70754],[-81.38389,41.70952],[-81.38311,41.70937],[-81.37756,41.71265],[-81.37419,41.71464],[-81.3655,41.71978],[-81.36432,41.72023],[-81.35794,41.72265],[-81.35359,41.72672],[-81.34956,41.7277],[-81.34703,41.72832],[-81.34264,41.73037],[-81.33797,41.73383],[-81.33519,41.7346],[-81.32845,41.7388],[-81.32564,41.74069],[-81.31635,41.74428],[-81.30139,41.75006],[-81.29483,41.7545],[-81.29391,41.75458],[-81.29078,41.75668],[-81.28635,41.75966],[-81.28382,41.76205],[-81.28143,41.76125],[-81.28143,41.75904],[-81.28032,41.75896],[-81.27931,41.75889],[-81.26778,41.75802],[-81.26674,41.75804],[-81.26373,41.75811],[-81.26266,41.75814],[-81.24854,41.76065],[-81.24661,41.7611],[-81.24113,41.76239],[-81.23134,41.76738],[-81.22986,41.76712],[-81.22854,41.76689],[-81.22512,41.76851],[-81.22322,41.76827],[-81.22042,41.76973],[-81.21002,41.77514],[-81.20185,41.77939],[-81.19971,41.77925],[-81.19107,41.78337],[-81.18403,41.78672],[-81.1809,41.78722],[-81.16964,41.79228],[-81.16313,41.79635],[-81.16066,41.79653],[-81.15069,41.80096],[-81.14784,41.80312],[-81.14699,41.80336],[-81.13962,41.80546],[-81.13321,41.80804],[-81.12846,41.81108],[-81.11773,41.81427],[-81.11203,41.8171],[-81.10883,41.81747],[-81.10837,41.81753],[-81.10561,41.81785],[-81.10514,41.81807],[-81.10186,41.81961],[-81.0993,41.82082],[-81.0954,41.82184],[-81.09445,41.82209],[-81.08937,41.82291],[-81.07432,41.82897],[-81.06951,41.83091],[-81.06366,41.83192],[-81.05887,41.83275],[-81.05231,41.83646],[-81.04866,41.83798],[-81.04665,41.83882],[-81.0428,41.83877],[-81.03412,41.84229],[-81.03213,41.84248],[-81.02815,41.84286],[-81.01865,41.84542],[-81.01339,41.84765],[-81.0126,41.84799],[-81.01027,41.84898],[-81.00801,41.85023],[-81.00333,41.85283],[-81.00219,41.85305],[-81.00227,41.85244],[-81.00228,41.82638],[-81.00247,41.79937],[-81.00256,41.78898],[-81.00282,41.76357],[-81.00293,41.71489],[-81.00363,41.71514],[-81.01104,41.7147],[-81.0227,41.71461],[-81.04021,41.71449],[-81.05093,41.71449],[-81.10226,41.71431],[-81.10206,41.68718],[-81.10142,41.64146],[-81.11263,41.64141],[-81.17491,41.64135],[-81.17888,41.64127],[-81.19124,41.64133],[-81.19818,41.64126],[-81.21745,41.64114],[-81.24153,41.64111],[-81.26953,41.64101],[-81.29467,41.64089],[-81.29469,41.64004],[-81.29497,41.6189],[-81.29501,41.61549],[-81.29509,41.60889],[-81.29524,41.59618],[-81.29539,41.58856],[-81.29588,41.56995],[-81.30491,41.57014],[-81.31053,41.57004],[-81.34884,41.57014],[-81.391,41.56972],[-81.40899,41.56985],[-81.41763,41.56967],[-81.41994,41.56995],[-81.43353,41.56995],[-81.43782,41.56974],[-81.43931,41.56987],[-81.4465,41.5701],[-81.44728,41.56996],[-81.44735,41.56996],[-81.45769,41.56995],[-81.47816,41.57005],[-81.48784,41.57005],[-81.48804,41.58223],[-81.48794,41.58625],[-81.48804,41.58825],[-81.48824,41.59454],[-81.48807,41.59628],[-81.48834,41.60328],[-81.48854,41.60585],[-81.48831,41.609],[-81.48858,41.61094],[-81.48864,41.61744],[-81.48864,41.6181],[-81.48874,41.62405],[-81.48892,41.62676],[-81.48864,41.63135]]]}},{"type":"Feature","properties":{"name":"MCFlex (Medina County)","boundary_type":"places","source":"Census TIGER place","fidelity":"approximate","updated":"2026-09","units":"Wadsworth city; Medina city","note":"Serves Wadsworth and Medina City; Brunswick planned for expansion.","confidence":0.85},"geometry":{"type":"MultiPolygon","coordinates":[[[[-81.77607,41.04093],[-81.77279,41.04105],[-81.77177,41.03998],[-81.76907,41.04012],[-81.76578,41.03755],[-81.76578,41.03623],[-81.76449,41.03653],[-81.76164,41.03328],[-81.75774,41.03465],[-81.75691,41.03488],[-81.74745,41.03576],[-81.74505,41.03574],[-81.74482,41.03639],[-81.74237,41.03784],[-81.74064,41.03983],[-81.74331,41.03975],[-81.74323,41.04125],[-81.74957,41.04118],[-81.74955,41.04387],[-81.73921,41.04383],[-81.73919,41.04504],[-81.74955,41.04499],[-81.74953,41.04754],[-81.74649,41.04758],[-81.7459,41.04984],[-81.74755,41.04989],[-81.74752,41.051],[-81.74753,41.05287],[-81.74461,41.05285],[-81.74461,41.05537],[-81.74737,41.05537],[-81.74768,41.06122],[-81.73591,41.06117],[-81.73593,41.05685],[-81.73397,41.05688],[-81.73394,41.06195],[-81.73209,41.06195],[-81.73474,41.06233],[-81.72917,41.06362],[-81.72917,41.06303],[-81.72859,41.06303],[-81.72718,41.0692],[-81.72501,41.06975],[-81.71834,41.06977],[-81.71836,41.06698],[-81.71651,41.06698],[-81.71651,41.06196],[-81.71854,41.06195],[-81.71858,41.04857],[-81.72121,41.04857],[-81.72232,41.04807],[-81.72232,41.04671],[-81.72583,41.04663],[-81.72741,41.04565],[-81.7278,41.04448],[-81.72224,41.04447],[-81.72226,41.03796],[-81.72053,41.03852],[-81.71972,41.03878],[-81.71788,41.03926],[-81.71872,41.04167],[-81.71862,41.04662],[-81.71294,41.04677],[-81.71179,41.04514],[-81.70844,41.04545],[-81.70843,41.04686],[-81.70394,41.04736],[-81.69976,41.04726],[-81.69576,41.0464],[-81.69231,41.04451],[-81.6918,41.04472],[-81.69207,41.04866],[-81.68769,41.04809],[-81.68771,41.04388],[-81.68888,41.04388],[-81.68885,41.03924],[-81.68774,41.03927],[-81.68774,41.0389],[-81.69284,41.03892],[-81.69286,41.03476],[-81.69819,41.03487],[-81.698,41.04287],[-81.69826,41.04401],[-81.70176,41.04334],[-81.70193,41.04219],[-81.70606,41.04146],[-81.70602,41.04018],[-81.70465,41.04053],[-81.70478,41.03817],[-81.7083,41.03787],[-81.7083,41.03779],[-81.71153,41.03751],[-81.71177,41.03912],[-81.70829,41.0395],[-81.70848,41.04106],[-81.71284,41.04022],[-81.71211,41.03776],[-81.71241,41.03479],[-81.70832,41.03516],[-81.70648,41.03165],[-81.70261,41.03164],[-81.7026,41.0291],[-81.70002,41.02979],[-81.70004,41.02822],[-81.69681,41.0282],[-81.69677,41.02565],[-81.69699,41.02194],[-81.69465,41.02194],[-81.69461,41.01647],[-81.70244,41.01585],[-81.70228,41.01123],[-81.70392,41.01063],[-81.70395,41.00639],[-81.70996,41.00645],[-81.71081,41.00686],[-81.71077,41.00503],[-81.71151,41.00503],[-81.71156,41.0009],[-81.71113,41.00001],[-81.71613,41.00004],[-81.71615,41.006],[-81.71553,41.00722],[-81.7148,41.00723],[-81.71443,41.01128],[-81.71926,41.01324],[-81.71948,41.00718],[-81.71949,41.00476],[-81.72153,41.00479],[-81.72162,41.00717],[-81.72371,41.00716],[-81.72423,41.00301],[-81.72867,41.00298],[-81.7297,41.00513],[-81.7297,41.00278],[-81.73626,41.00279],[-81.73627,41.00212],[-81.7297,41.00212],[-81.7297,40.99951],[-81.73909,40.9995],[-81.7391,40.99792],[-81.74187,40.99793],[-81.74186,40.99577],[-81.74606,40.99576],[-81.74684,40.9969],[-81.74684,40.99576],[-81.74846,40.9958],[-81.74508,41.00225],[-81.74338,41.00394],[-81.73789,41.00685],[-81.73682,41.00799],[-81.73611,41.01031],[-81.74147,41.01029],[-81.74094,41.00792],[-81.74119,41.00552],[-81.7453,41.0029],[-81.74528,41.00453],[-81.74847,41.00492],[-81.75224,41.00485],[-81.75279,41.0015],[-81.74846,41.00151],[-81.74846,41.0005],[-81.75303,41.00047],[-81.75365,40.99875],[-81.74846,40.99879],[-81.749,40.99574],[-81.75069,40.99527],[-81.75068,40.99574],[-81.75782,40.9957],[-81.75777,40.99938],[-81.75983,40.99937],[-81.75982,41.00068],[-81.76212,41.00067],[-81.76214,41.00171],[-81.76399,41.00167],[-81.76403,41.00266],[-81.76649,41.00261],[-81.76724,41.0059],[-81.76726,41.01012],[-81.77031,41.01038],[-81.7704,41.01736],[-81.76453,41.0173],[-81.76466,41.02156],[-81.76242,41.02158],[-81.76243,41.02533],[-81.75944,41.02533],[-81.75761,41.01886],[-81.75653,41.01738],[-81.7576,41.02339],[-81.75685,41.02534],[-81.75771,41.02534],[-81.75978,41.03177],[-81.76002,41.03194],[-81.75891,41.0329],[-81.76248,41.03298],[-81.76718,41.03153],[-81.7719,41.03138],[-81.77196,41.03223],[-81.77573,41.03226],[-81.77579,41.03566],[-81.77726,41.03561],[-81.77808,41.03691],[-81.77838,41.03832],[-81.77591,41.03833],[-81.77607,41.04093]],[[-81.74847,41.00549],[-81.74847,41.0061],[-81.75035,41.0061],[-81.75035,41.00516],[-81.74847,41.00515],[-81.74847,41.00549]],[[-81.74405,41.01029],[-81.74574,41.01028],[-81.74667,41.00899],[-81.74848,41.00899],[-81.74847,41.00672],[-81.74433,41.00679],[-81.74405,41.01029]],[[-81.71681,41.03845],[-81.71618,41.03857],[-81.7165,41.03954],[-81.71787,41.03923],[-81.71762,41.03775],[-81.71659,41.03778],[-81.71681,41.03845]]],[[[-81.91344,41.14237],[-81.91217,41.1415],[-81.90982,41.14149],[-81.90984,41.14876],[-81.90861,41.14877],[-81.9086,41.15479],[-81.90526,41.15483],[-81.90519,41.14893],[-81.90315,41.14894],[-81.9025,41.14894],[-81.90249,41.15062],[-81.90012,41.15179],[-81.90414,41.15483],[-81.90603,41.15625],[-81.90591,41.16146],[-81.90391,41.16097],[-81.8989,41.15764],[-81.89882,41.15526],[-81.89605,41.15582],[-81.8917,41.1533],[-81.89169,41.15512],[-81.88519,41.15452],[-81.8783,41.15454],[-81.8783,41.15321],[-81.88013,41.15324],[-81.88018,41.15209],[-81.88013,41.15173],[-81.87831,41.15172],[-81.87832,41.14936],[-81.87332,41.14935],[-81.87337,41.15618],[-81.87829,41.15617],[-81.87829,41.15639],[-81.87829,41.15679],[-81.87276,41.15674],[-81.87287,41.16329],[-81.86809,41.16334],[-81.86786,41.16046],[-81.86238,41.16048],[-81.86242,41.15863],[-81.84866,41.1582],[-81.84866,41.15652],[-81.84317,41.15649],[-81.84274,41.15649],[-81.84286,41.16349],[-81.83867,41.16345],[-81.83857,41.16081],[-81.82903,41.16084],[-81.82903,41.16068],[-81.83011,41.16061],[-81.83009,41.15939],[-81.83048,41.15938],[-81.83048,41.15893],[-81.82903,41.15894],[-81.82902,41.15878],[-81.83042,41.15877],[-81.83039,41.15699],[-81.82902,41.15694],[-81.82902,41.15535],[-81.83312,41.15291],[-81.83209,41.15101],[-81.82428,41.15105],[-81.82431,41.14948],[-81.82313,41.14893],[-81.82425,41.14718],[-81.8227,41.14595],[-81.82008,41.14541],[-81.81862,41.14306],[-81.81613,41.1433],[-81.81997,41.14221],[-81.82181,41.13926],[-81.82197,41.13706],[-81.82277,41.13715],[-81.82255,41.13845],[-81.82581,41.14258],[-81.82897,41.14261],[-81.82892,41.14784],[-81.83312,41.15064],[-81.8332,41.15225],[-81.83526,41.15236],[-81.83721,41.15153],[-81.83899,41.15349],[-81.83883,41.15141],[-81.83848,41.15064],[-81.83869,41.15049],[-81.83977,41.15172],[-81.84081,41.15101],[-81.83963,41.14982],[-81.84037,41.1493],[-81.84087,41.14895],[-81.83884,41.14895],[-81.83894,41.14236],[-81.83799,41.14233],[-81.83797,41.14462],[-81.83338,41.14455],[-81.83456,41.14134],[-81.83158,41.14091],[-81.8341,41.14048],[-81.83432,41.13876],[-81.83606,41.13878],[-81.83586,41.13621],[-81.83683,41.13628],[-81.83792,41.13084],[-81.8399,41.12897],[-81.84168,41.13],[-81.84183,41.12979],[-81.84111,41.12925],[-81.84134,41.12894],[-81.84071,41.12849],[-81.84055,41.12876],[-81.83951,41.12773],[-81.83921,41.12799],[-81.83775,41.12672],[-81.83375,41.12148],[-81.83324,41.12104],[-81.83274,41.12066],[-81.83023,41.11937],[-81.82811,41.11929],[-81.82695,41.11432],[-81.82954,41.11425],[-81.82958,41.11161],[-81.84117,41.11134],[-81.84632,41.11696],[-81.85491,41.11708],[-81.85494,41.11804],[-81.86411,41.11818],[-81.86409,41.11508],[-81.86471,41.1151],[-81.86464,41.11441],[-81.86409,41.11438],[-81.86409,41.11361],[-81.8641,41.11097],[-81.86658,41.11024],[-81.8766,41.11017],[-81.87938,41.11023],[-81.88262,41.1103],[-81.88257,41.11214],[-81.88263,41.11764],[-81.88392,41.11765],[-81.88392,41.11777],[-81.88263,41.1178],[-81.88264,41.11861],[-81.88036,41.11877],[-81.88037,41.1194],[-81.88393,41.11942],[-81.88393,41.1204],[-81.88393,41.12091],[-81.88186,41.12395],[-81.88253,41.12398],[-81.88393,41.12185],[-81.88393,41.12443],[-81.88657,41.12434],[-81.88668,41.11953],[-81.88912,41.11944],[-81.88905,41.11309],[-81.89159,41.10902],[-81.89354,41.10916],[-81.89177,41.11155],[-81.89473,41.11151],[-81.8947,41.10995],[-81.90108,41.10994],[-81.90558,41.11052],[-81.90539,41.12159],[-81.9054,41.12707],[-81.90537,41.12927],[-81.90814,41.12927],[-81.91111,41.12929],[-81.91112,41.13075],[-81.90862,41.13168],[-81.90533,41.13305],[-81.9047,41.13602],[-81.90667,41.136],[-81.90666,41.13793],[-81.90938,41.13599],[-81.91666,41.13595],[-81.9167,41.14109],[-81.91342,41.14124],[-81.91344,41.14237]],[[-81.90624,41.14394],[-81.90798,41.14391],[-81.90803,41.14242],[-81.90621,41.14244],[-81.90624,41.14394]],[[-81.89473,41.12718],[-81.89823,41.12728],[-81.89833,41.12707],[-81.89915,41.12709],[-81.89801,41.12513],[-81.90004,41.12508],[-81.9,41.12352],[-81.901,41.12349],[-81.90044,41.12199],[-81.89473,41.12397],[-81.89473,41.12718]],[[-81.89474,41.12912],[-81.89716,41.1291],[-81.89767,41.1291],[-81.8977,41.12829],[-81.89474,41.12827],[-81.89474,41.12912]],[[-81.89475,41.13059],[-81.89716,41.13065],[-81.89714,41.12969],[-81.89474,41.12964],[-81.89475,41.13059]],[[-81.88494,41.14899],[-81.89085,41.15274],[-81.89171,41.15273],[-81.89173,41.14943],[-81.89144,41.14894],[-81.88494,41.14899]]]]}},{"type":"Feature","properties":{"name":"METRO NEXT","boundary_type":"county","source":"Census TIGER county","fidelity":"approximate","updated":"2026-09","units":"Summit County","note":"Service covers Northern, Southern, Eastern, Western zones in Summit County outside Akron METRO fixed-route service; using county as proxy.","confidence":0.8},"geometry":{"type":"Polygon","coordinates":[[[-81.68813,41.00577],[-81.6878,41.02566],[-81.68774,41.0389],[-81.68774,41.03927],[-81.68771,41.04388],[-81.68769,41.04809],[-81.68762,41.06215],[-81.68744,41.08908],[-81.68741,41.0931],[-81.68729,41.11055],[-81.68723,41.11591],[-81.68705,41.12796],[-81.68699,41.13596],[-81.68639,41.16856],[-81.68565,41.20213],[-81.68532,41.23959],[-81.68495,41.27715],[-81.68462,41.27713],[-81.6702,41.27726],[-81.63785,41.27748],[-81.63612,41.27749],[-81.62735,41.27754],[-81.62568,41.27755],[-81.61852,41.27756],[-81.61007,41.2775],[-81.59054,41.27755],[-81.58742,41.2776],[-81.56889,41.27786],[-81.56514,41.27776],[-81.56568,41.27808],[-81.56445,41.27906],[-81.56315,41.27858],[-81.56218,41.27932],[-81.56242,41.28039],[-81.56439,41.28194],[-81.56478,41.28421],[-81.56676,41.28438],[-81.56806,41.28602],[-81.56689,41.28797],[-81.56514,41.28785],[-81.56534,41.28918],[-81.56649,41.29002],[-81.56861,41.28993],[-81.5709,41.29081],[-81.57112,41.29177],[-81.56988,41.29342],[-81.57205,41.2939],[-81.57107,41.29587],[-81.57251,41.2965],[-81.57322,41.2991],[-81.57286,41.30075],[-81.57573,41.30091],[-81.57552,41.30266],[-81.573,41.30265],[-81.57333,41.30329],[-81.57551,41.30368],[-81.57595,41.30443],[-81.57855,41.30582],[-81.58163,41.30579],[-81.58429,41.30698],[-81.58544,41.30886],[-81.58426,41.30966],[-81.58362,41.31152],[-81.58406,41.3133],[-81.58364,41.31568],[-81.58592,41.31739],[-81.58766,41.31977],[-81.58733,41.32131],[-81.58734,41.32371],[-81.59031,41.32613],[-81.59154,41.32788],[-81.59123,41.33127],[-81.5879,41.33631],[-81.5881,41.34265],[-81.58974,41.34375],[-81.59473,41.34354],[-81.59603,41.34492],[-81.59681,41.34721],[-81.59357,41.34768],[-81.59332,41.34963],[-81.59546,41.35028],[-81.59724,41.34931],[-81.59805,41.35116],[-81.58525,41.35109],[-81.56161,41.35084],[-81.54604,41.35066],[-81.53608,41.35061],[-81.52662,41.35048],[-81.51885,41.35016],[-81.51766,41.35015],[-81.50831,41.35005],[-81.48899,41.34975],[-81.46881,41.34961],[-81.46125,41.34934],[-81.45033,41.34915],[-81.44005,41.34905],[-81.41901,41.34875],[-81.4118,41.34869],[-81.40516,41.34865],[-81.39958,41.34857],[-81.39762,41.34832],[-81.39169,41.34827],[-81.39171,41.34063],[-81.39172,41.33666],[-81.39174,41.31174],[-81.39175,41.30696],[-81.39176,41.28405],[-81.39183,41.27665],[-81.39183,41.27649],[-81.39193,41.25419],[-81.39213,41.23974],[-81.39193,41.20285],[-81.39223,41.19854],[-81.39224,41.1807],[-81.39224,41.17591],[-81.39227,41.17363],[-81.39227,41.17136],[-81.39234,41.16624],[-81.39241,41.15327],[-81.39245,41.13977],[-81.39236,41.13695],[-81.39211,41.13572],[-81.3922,41.13549],[-81.39253,41.12096],[-81.39234,41.11791],[-81.39244,41.11065],[-81.39246,41.10904],[-81.39253,41.10043],[-81.39263,41.09271],[-81.39263,41.09208],[-81.39273,41.08597],[-81.39274,41.08567],[-81.39283,41.08322],[-81.39295,41.06627],[-81.39293,41.0662],[-81.39278,41.06371],[-81.39306,41.06067],[-81.39314,41.0484],[-81.39322,41.04064],[-81.39322,41.039],[-81.39323,41.03763],[-81.39327,41.02903],[-81.39328,41.01994],[-81.39327,41.01748],[-81.39325,40.98853],[-81.39419,40.98853],[-81.41633,40.98846],[-81.41683,40.97612],[-81.41708,40.96963],[-81.41784,40.95061],[-81.4187,40.936],[-81.41924,40.9285],[-81.41978,40.91758],[-81.41979,40.91752],[-81.42036,40.9065],[-81.42547,40.90666],[-81.42569,40.90667],[-81.42869,40.90676],[-81.43064,40.90681],[-81.45884,40.90776],[-81.46415,40.90765],[-81.466,40.90787],[-81.49714,40.9089],[-81.53644,40.91031],[-81.5653,40.91146],[-81.59473,40.91243],[-81.61383,40.91314],[-81.63386,40.91375],[-81.63746,40.91383],[-81.63937,40.91386],[-81.64773,40.91402],[-81.64785,40.9252],[-81.64777,40.9288],[-81.64773,40.9434],[-81.64772,40.94815],[-81.64764,40.96048],[-81.64767,40.97032],[-81.64766,40.98726],[-81.64766,40.98732],[-81.64769,40.98856],[-81.64948,40.98856],[-81.6697,40.98857],[-81.68849,40.98859],[-81.68815,41.00414],[-81.68813,41.00577]]]}},{"type":"Feature","properties":{"name":"MetroNow! (Cincinnati Metro)","boundary_type":"county","source":"Census TIGER county","fidelity":"approximate","updated":"2026-09","units":"Hamilton County","note":"Service covers 6+ zones in Hamilton County: Springdale, Sharonville, Northgate, Mt. Healthy, Forest Park, Pleasant Run, Blue Ash, Montgomery, Deer Park, Silverton, Kenwood, Madeira. Using county as proxy for multi-zone suburban service.","confidence":0.75},"geometry":{"type":"Polygon","coordinates":[[[-84.82014,39.1185],[-84.82014,39.11998],[-84.82012,39.13267],[-84.82011,39.14584],[-84.8201,39.14798],[-84.81983,39.15795],[-84.81981,39.15851],[-84.81983,39.16147],[-84.82008,39.21603],[-84.82009,39.2184],[-84.82009,39.21871],[-84.82015,39.23049],[-84.82014,39.23078],[-84.81983,39.24373],[-84.81991,39.24854],[-84.81991,39.2487],[-84.81995,39.25114],[-84.81995,39.25142],[-84.82,39.25464],[-84.81999,39.25518],[-84.81982,39.26313],[-84.81979,39.26451],[-84.8197,39.26738],[-84.81962,39.27009],[-84.81962,39.27013],[-84.81955,39.27651],[-84.81935,39.29282],[-84.81945,39.30515],[-84.79574,39.30565],[-84.77267,39.30515],[-84.76652,39.30487],[-84.76328,39.30492],[-84.76281,39.30495],[-84.74971,39.30493],[-84.74485,39.30475],[-84.7272,39.30475],[-84.70605,39.30465],[-84.70328,39.30475],[-84.70225,39.30465],[-84.68844,39.30475],[-84.65923,39.30485],[-84.65435,39.30476],[-84.64181,39.30504],[-84.63982,39.30883],[-84.63859,39.30975],[-84.63729,39.31025],[-84.63099,39.31194],[-84.63079,39.31198],[-84.63005,39.31206],[-84.61634,39.31123],[-84.60965,39.3103],[-84.60934,39.31026],[-84.60875,39.31016],[-84.59875,39.30856],[-84.57965,39.30806],[-84.57133,39.30805],[-84.56235,39.30808],[-84.55456,39.30736],[-84.54239,39.30626],[-84.53128,39.30449],[-84.52411,39.30334],[-84.52368,39.30328],[-84.52334,39.30329],[-84.51825,39.30403],[-84.51277,39.30483],[-84.50464,39.30596],[-84.50273,39.3055],[-84.49405,39.30341],[-84.48515,39.30155],[-84.48457,39.30161],[-84.46545,39.30292],[-84.45267,39.30148],[-84.44696,39.30081],[-84.4395,39.29996],[-84.42913,39.29876],[-84.41025,39.29824],[-84.40933,39.29786],[-84.40118,39.29787],[-84.39513,39.29765],[-84.39187,39.29753],[-84.39108,39.29758],[-84.37913,39.29571],[-84.37893,39.29568],[-84.37075,39.2944],[-84.36992,39.2943],[-84.36201,39.29333],[-84.35321,39.29229],[-84.34714,39.29262],[-84.34465,39.29274],[-84.33916,39.29304],[-84.3341,39.29329],[-84.32644,39.29309],[-84.31745,39.29271],[-84.3157,39.29269],[-84.30522,39.29218],[-84.29768,39.29179],[-84.29715,39.29176],[-84.2875,39.29062],[-84.28242,39.28999],[-84.27741,39.28937],[-84.26812,39.28872],[-84.26275,39.28835],[-84.26217,39.28834],[-84.2639,39.28594],[-84.26524,39.28222],[-84.26466,39.28066],[-84.25764,39.27797],[-84.25637,39.27683],[-84.25669,39.27491],[-84.25841,39.27415],[-84.25873,39.27373],[-84.25884,39.27347],[-84.25943,39.27086],[-84.26042,39.26866],[-84.26141,39.26469],[-84.26299,39.26407],[-84.26497,39.26396],[-84.26788,39.26205],[-84.26823,39.26176],[-84.27133,39.25844],[-84.27905,39.25429],[-84.28222,39.25226],[-84.28282,39.25194],[-84.29326,39.24887],[-84.29511,39.24669],[-84.29607,39.2452],[-84.29641,39.23931],[-84.297,39.23825],[-84.29944,39.23516],[-84.30008,39.2347],[-84.3004,39.23451],[-84.30259,39.23398],[-84.30386,39.23448],[-84.30711,39.23441],[-84.30899,39.23154],[-84.3167,39.22694],[-84.3187,39.22501],[-84.32003,39.22343],[-84.31974,39.22222],[-84.31608,39.22051],[-84.31355,39.21305],[-84.31241,39.2111],[-84.31115,39.20963],[-84.30936,39.20877],[-84.29946,39.20906],[-84.2961,39.20971],[-84.29526,39.20995],[-84.29327,39.21076],[-84.29267,39.21104],[-84.28962,39.21293],[-84.28605,39.2136],[-84.28404,39.21313],[-84.28234,39.21179],[-84.28186,39.21059],[-84.27638,39.20387],[-84.27635,39.20078],[-84.278,39.19692],[-84.27985,39.19572],[-84.28176,39.19445],[-84.28276,39.19227],[-84.28704,39.18872],[-84.28783,39.18747],[-84.28838,39.18625],[-84.28846,39.18234],[-84.28893,39.1815],[-84.29289,39.17999],[-84.2946,39.17858],[-84.29823,39.17572],[-84.29945,39.17388],[-84.29782,39.17018],[-84.29519,39.16696],[-84.29743,39.16585],[-84.29902,39.16527],[-84.30012,39.16443],[-84.30174,39.15943],[-84.30183,39.15257],[-84.30189,39.15215],[-84.30272,39.14261],[-84.30422,39.13243],[-84.30689,39.1145],[-84.30714,39.11284],[-84.30925,39.09868],[-84.31102,39.08663],[-84.31102,39.08661],[-84.31229,39.07807],[-84.31321,39.07182],[-84.31481,39.061],[-84.31481,39.06034],[-84.31524,39.05734],[-84.31675,39.04619],[-84.31959,39.02562],[-84.31994,39.02208],[-84.32654,39.02746],[-84.33509,39.03218],[-84.33634,39.03286],[-84.33638,39.03288],[-84.34604,39.03696],[-84.36044,39.04136],[-84.36136,39.04149],[-84.37121,39.04291],[-84.38684,39.04516],[-84.38942,39.0452],[-84.39414,39.04526],[-84.39669,39.04567],[-84.40094,39.04636],[-84.40254,39.04566],[-84.40694,39.04566],[-84.42147,39.05094],[-84.42148,39.05094],[-84.42161,39.05101],[-84.42394,39.05217],[-84.42457,39.05248],[-84.42573,39.05306],[-84.42791,39.05496],[-84.42874,39.05638],[-84.42945,39.05759],[-84.42984,39.05826],[-84.43234,39.06756],[-84.43313,39.0729],[-84.43314,39.07296],[-84.43267,39.07792],[-84.43264,39.07826],[-84.43294,39.08396],[-84.43464,39.08686],[-84.43463,39.08693],[-84.43394,39.09246],[-84.43284,39.09426],[-84.43554,39.10226],[-84.43586,39.10272],[-84.44024,39.10908],[-84.44064,39.10966],[-84.44075,39.10977],[-84.44524,39.11446],[-84.44567,39.11477],[-84.44979,39.11775],[-84.45534,39.12036],[-84.46204,39.12176],[-84.4631,39.12172],[-84.47054,39.12146],[-84.47614,39.1192],[-84.47624,39.11916],[-84.48094,39.11676],[-84.48481,39.11335],[-84.48774,39.11076],[-84.49243,39.10428],[-84.49355,39.10272],[-84.49374,39.10246],[-84.49583,39.10082],[-84.49654,39.10026],[-84.4986,39.09891],[-84.502,39.09668],[-84.50206,39.09664],[-84.50608,39.09508],[-84.50974,39.09366],[-84.51954,39.09206],[-84.52257,39.09212],[-84.52258,39.09212],[-84.52464,39.09216],[-84.53724,39.09744],[-84.54134,39.09916],[-84.54155,39.09921],[-84.54354,39.09966],[-84.55084,39.09936],[-84.55102,39.09928],[-84.55316,39.09827],[-84.55444,39.09766],[-84.55754,39.09486],[-84.56296,39.08852],[-84.56393,39.08738],[-84.56394,39.08736],[-84.56527,39.0865],[-84.57184,39.08226],[-84.57214,39.08206],[-84.59241,39.07809],[-84.60168,39.07411],[-84.60438,39.07374],[-84.60793,39.07324],[-84.62011,39.07346],[-84.62348,39.07436],[-84.63245,39.07676],[-84.63577,39.07953],[-84.65035,39.09166],[-84.65725,39.09546],[-84.66615,39.09796],[-84.67725,39.09826],[-84.68485,39.10046],[-84.68975,39.10416],[-84.69248,39.10748],[-84.697,39.11296],[-84.70195,39.11896],[-84.71223,39.13061],[-84.71405,39.13266],[-84.71855,39.13706],[-84.7233,39.14012],[-84.72615,39.14196],[-84.72642,39.14207],[-84.73205,39.14446],[-84.74415,39.14746],[-84.75075,39.14736],[-84.75445,39.14666],[-84.75894,39.1437],[-84.76675,39.13856],[-84.78399,39.11806],[-84.78768,39.1153],[-84.79382,39.11294],[-84.81075,39.10914],[-84.81224,39.1071],[-84.81377,39.10649],[-84.82016,39.10548],[-84.82015,39.11201],[-84.82014,39.1185]]]}},{"type":"Feature","properties":{"name":"TARTA Flex","boundary_type":"county","source":"Census TIGER county","fidelity":"approximate","updated":"2026-09","units":"Lucas County","note":"Service covers NW, SW, East zones in Lucas County and Rossford area; using county as proxy for multi-zone coverage.","confidence":0.85},"geometry":{"type":"MultiPolygon","coordinates":[[[[-83.88292,41.48396],[-83.88294,41.48754],[-83.88293,41.49759],[-83.88288,41.51591],[-83.88278,41.53061],[-83.8827,41.5453],[-83.88267,41.55629],[-83.88262,41.56719],[-83.88259,41.57106],[-83.88259,41.57164],[-83.88259,41.57205],[-83.88258,41.57251],[-83.88257,41.57499],[-83.88253,41.58108],[-83.88247,41.58865],[-83.88246,41.58905],[-83.88247,41.58994],[-83.8825,41.59705],[-83.88249,41.5998],[-83.88245,41.60323],[-83.88244,41.61419],[-83.88244,41.61752],[-83.87737,41.61755],[-83.87786,41.63622],[-83.87795,41.63984],[-83.87804,41.64372],[-83.87842,41.65777],[-83.87933,41.68628],[-83.88039,41.72009],[-83.88038,41.72009],[-83.85954,41.72125],[-83.85275,41.72141],[-83.83999,41.72172],[-83.81111,41.7224],[-83.80614,41.72252],[-83.78145,41.72311],[-83.76315,41.72355],[-83.76304,41.72355],[-83.75876,41.72368],[-83.74679,41.72403],[-83.74435,41.7241],[-83.72964,41.72454],[-83.72062,41.7248],[-83.70958,41.72513],[-83.70926,41.72514],[-83.70894,41.72515],[-83.70152,41.72556],[-83.68904,41.72625],[-83.68541,41.72644],[-83.68534,41.72645],[-83.66617,41.72694],[-83.66594,41.72695],[-83.65581,41.72726],[-83.64956,41.72745],[-83.6459,41.72756],[-83.64574,41.72756],[-83.63999,41.72774],[-83.63964,41.72775],[-83.63664,41.72785],[-83.63135,41.72801],[-83.62454,41.72823],[-83.61483,41.72853],[-83.61204,41.72862],[-83.60541,41.72883],[-83.59557,41.72914],[-83.59523,41.72915],[-83.59383,41.72915],[-83.58936,41.72925],[-83.58554,41.72934],[-83.58523,41.72935],[-83.56687,41.72985],[-83.55631,41.73013],[-83.54768,41.73037],[-83.53452,41.73073],[-83.52843,41.73089],[-83.5216,41.73108],[-83.50433,41.73155],[-83.50343,41.73155],[-83.49973,41.73165],[-83.49773,41.73185],[-83.49239,41.73197],[-83.49238,41.73197],[-83.48898,41.73205],[-83.48202,41.73222],[-83.46734,41.73256],[-83.46442,41.73263],[-83.46401,41.73264],[-83.4554,41.73284],[-83.45597,41.72761],[-83.46082,41.72736],[-83.46207,41.72576],[-83.46442,41.72483],[-83.46768,41.72257],[-83.46826,41.72162],[-83.46848,41.72127],[-83.46902,41.72039],[-83.46993,41.71891],[-83.47034,41.71685],[-83.47118,41.71612],[-83.47167,41.7157],[-83.47273,41.7129],[-83.47351,41.71085],[-83.4733,41.70947],[-83.47393,41.70793],[-83.47472,41.70781],[-83.4754,41.7066],[-83.47467,41.70456],[-83.47463,41.70445],[-83.47736,41.70399],[-83.47793,41.7039],[-83.47803,41.70378],[-83.47883,41.7028],[-83.47861,41.70183],[-83.47802,41.69932],[-83.47782,41.69846],[-83.47374,41.69792],[-83.47348,41.69781],[-83.47068,41.69655],[-83.46997,41.69623],[-83.47141,41.69447],[-83.47234,41.69333],[-83.47837,41.69028],[-83.47762,41.68904],[-83.48414,41.68478],[-83.48269,41.68378],[-83.48021,41.68208],[-83.47222,41.68721],[-83.4711,41.68658],[-83.4674,41.68798],[-83.46524,41.68909],[-83.46498,41.68923],[-83.46267,41.6905],[-83.46019,41.69185],[-83.4593,41.69543],[-83.45894,41.69623],[-83.45864,41.69687],[-83.45569,41.69807],[-83.45248,41.69697],[-83.44729,41.69564],[-83.44546,41.69563],[-83.44419,41.69563],[-83.4428,41.69563],[-83.44172,41.69462],[-83.43959,41.69262],[-83.43187,41.69054],[-83.4298,41.69074],[-83.42844,41.69087],[-83.42321,41.68945],[-83.41764,41.68982],[-83.41592,41.68993],[-83.41583,41.68982],[-83.41527,41.68908],[-83.41171,41.68903],[-83.40964,41.68998],[-83.40955,41.69122],[-83.40936,41.69122],[-83.40349,41.69104],[-83.40217,41.69154],[-83.40002,41.6909],[-83.39987,41.68965],[-83.39811,41.68965],[-83.39801,41.69106],[-83.39526,41.69139],[-83.39495,41.69196],[-83.39322,41.69189],[-83.39248,41.69127],[-83.39103,41.69132],[-83.39025,41.69007],[-83.38899,41.6891],[-83.37971,41.68561],[-83.37586,41.68539],[-83.37223,41.68517],[-83.37149,41.68628],[-83.36688,41.68651],[-83.36524,41.68573],[-83.35968,41.68596],[-83.35816,41.6867],[-83.35181,41.68695],[-83.35173,41.68695],[-83.3496,41.68972],[-83.34573,41.69136],[-83.34301,41.69196],[-83.33798,41.69868],[-83.33819,41.70346],[-83.33587,41.70549],[-83.32953,41.70272],[-83.32393,41.69746],[-83.32257,41.69739],[-83.32185,41.69699],[-83.32072,41.69589],[-83.3192,41.69561],[-83.31778,41.6951],[-83.31444,41.69254],[-83.30575,41.68774],[-83.30569,41.68721],[-83.3094,41.68388],[-83.30996,41.68291],[-83.30903,41.67917],[-83.30625,41.67663],[-83.30492,41.67617],[-83.30019,41.67557],[-83.29601,41.67589],[-83.28856,41.67575],[-83.28628,41.67349],[-83.28346,41.67557],[-83.28328,41.67571],[-83.27885,41.67257],[-83.27276,41.66912],[-83.26454,41.66481],[-83.26343,41.66464],[-83.2539,41.65947],[-83.24849,41.65605],[-83.24846,41.65605],[-83.24747,41.656],[-83.23832,41.65113],[-83.23797,41.65095],[-83.2378,41.65085],[-83.23674,41.64901],[-83.22524,41.6436],[-83.21476,41.63835],[-83.20819,41.63524],[-83.20493,41.63407],[-83.20132,41.63385],[-83.19738,41.63214],[-83.18739,41.62834],[-83.17485,41.62473],[-83.16955,41.62328],[-83.1742,41.62331],[-83.18237,41.62315],[-83.29945,41.62175],[-83.33806,41.62095],[-83.34782,41.62084],[-83.37032,41.62045],[-83.37519,41.62015],[-83.41594,41.61911],[-83.42768,41.61907],[-83.46653,41.6185],[-83.47691,41.61834],[-83.47709,41.61834],[-83.48586,41.61827],[-83.49324,41.61834],[-83.49599,41.61819],[-83.50551,41.61805],[-83.5126,41.61791],[-83.51887,41.61793],[-83.52473,41.61796],[-83.52813,41.6179],[-83.54288,41.6179],[-83.54852,41.61784],[-83.55972,41.61773],[-83.56445,41.61768],[-83.56563,41.61757],[-83.56993,41.61715],[-83.57833,41.61095],[-83.58203,41.60505],[-83.58453,41.60435],[-83.58803,41.60095],[-83.59093,41.59455],[-83.59313,41.59315],[-83.59443,41.58905],[-83.60073,41.58625],[-83.60333,41.58305],[-83.60641,41.58027],[-83.60707,41.57951],[-83.60843,41.57795],[-83.60953,41.57325],[-83.61273,41.57075],[-83.61873,41.56975],[-83.62163,41.56995],[-83.62563,41.57005],[-83.63133,41.56275],[-83.63613,41.56025],[-83.64343,41.56115],[-83.64493,41.56075],[-83.64834,41.55885],[-83.65027,41.55699],[-83.65203,41.55565],[-83.65413,41.55517],[-83.65983,41.55345],[-83.66563,41.54925],[-83.67454,41.54761],[-83.68008,41.54686],[-83.68204,41.54575],[-83.68253,41.54545],[-83.68284,41.54528],[-83.68454,41.54435],[-83.69414,41.53855],[-83.69974,41.53395],[-83.70325,41.52906],[-83.70918,41.52312],[-83.70964,41.52185],[-83.71097,41.51092],[-83.71123,41.50629],[-83.7134,41.50223],[-83.71363,41.50019],[-83.71153,41.49555],[-83.71165,41.49447],[-83.71284,41.49249],[-83.71742,41.4886],[-83.7203,41.48722],[-83.72223,41.48664],[-83.72854,41.48595],[-83.73265,41.48468],[-83.73642,41.482],[-83.74026,41.47758],[-83.74577,41.46791],[-83.74814,41.46585],[-83.75174,41.46445],[-83.75453,41.46282],[-83.75862,41.46204],[-83.7632,41.46258],[-83.76494,41.46225],[-83.76979,41.46322],[-83.77328,41.46362],[-83.77669,41.463],[-83.77848,41.46198],[-83.77994,41.4596],[-83.77995,41.45725],[-83.77916,41.45276],[-83.78075,41.45006],[-83.78285,41.44866],[-83.78429,41.44834],[-83.79101,41.44554],[-83.797,41.44185],[-83.80648,41.43651],[-83.8093,41.43652],[-83.81311,41.43495],[-83.81511,41.43324],[-83.81755,41.4323],[-83.82086,41.4322],[-83.82218,41.43144],[-83.82592,41.43025],[-83.82871,41.43016],[-83.83393,41.42783],[-83.84562,41.42503],[-83.84842,41.42336],[-83.84976,41.42226],[-83.85085,41.42011],[-83.85156,41.41689],[-83.85232,41.41565],[-83.85434,41.41444],[-83.86078,41.41424],[-83.86736,41.41475],[-83.8729,41.41637],[-83.87379,41.41623],[-83.87864,41.41474],[-83.88323,41.4145],[-83.8829,41.43863],[-83.88292,41.45849],[-83.8829,41.47884],[-83.88292,41.48396]]],[[[-83.42128,41.70338],[-83.4301,41.69918],[-83.43445,41.69711],[-83.43842,41.69432],[-83.4451,41.70095],[-83.44337,41.70445],[-83.43038,41.71046],[-83.42761,41.71174],[-83.42128,41.70338]]],[[[-83.44934,41.7105],[-83.44687,41.70699],[-83.46079,41.70126],[-83.46118,41.70571],[-83.45505,41.7083],[-83.45309,41.70905],[-83.44934,41.7105]]],[[[-83.10209,41.7418],[-83.10187,41.74061],[-83.10334,41.73837],[-83.10557,41.73739],[-83.10608,41.73686],[-83.10702,41.73669],[-83.1099,41.73674],[-83.11083,41.73719],[-83.11063,41.73789],[-83.10734,41.7415],[-83.10557,41.74251],[-83.10209,41.7418]]]]}},{"type":"Feature","properties":{"name":"ViaLC (Lorain County)","boundary_type":"places","source":"Census TIGER place","fidelity":"exact","updated":"2026-09","units":"Lorain city; Elyria city","note":"Serves both Lorain and Elyria cities in Lorain County.","confidence":0.95},"geometry":{"type":"MultiPolygon","coordinates":[[[[-82.16519,41.37361],[-82.16436,41.3739],[-82.16179,41.36797],[-82.16032,41.36839],[-82.15945,41.36557],[-82.15877,41.36557],[-82.15882,41.36979],[-82.16075,41.36978],[-82.16227,41.37462],[-82.15998,41.37527],[-82.15866,41.37406],[-82.15569,41.37444],[-82.15568,41.37533],[-82.15237,41.37551],[-82.15231,41.37814],[-82.15013,41.37749],[-82.1409,41.3756],[-82.13748,41.3752],[-82.13854,41.3756],[-82.13974,41.3755],[-82.15012,41.3782],[-82.15011,41.37907],[-82.14791,41.37916],[-82.14782,41.38204],[-82.14859,41.38249],[-82.14514,41.38258],[-82.14515,41.38365],[-82.14126,41.38511],[-82.13699,41.38519],[-82.13682,41.38835],[-82.12974,41.3884],[-82.13017,41.3906],[-82.12519,41.39071],[-82.12554,41.39172],[-82.12561,41.39193],[-82.13039,41.39216],[-82.1307,41.39434],[-82.12647,41.39444],[-82.1285,41.40033],[-82.12287,41.40039],[-82.12277,41.3994],[-82.12085,41.39941],[-82.12084,41.4015],[-82.12112,41.4004],[-82.12394,41.40042],[-82.12869,41.40088],[-82.12964,41.40374],[-82.13267,41.41256],[-82.12212,41.4132],[-82.12217,41.41202],[-82.1183,41.41219],[-82.11874,41.4178],[-82.11374,41.41819],[-82.10412,41.418],[-82.08711,41.41846],[-82.08645,41.41844],[-82.07714,41.41835],[-82.06777,41.41834],[-82.06801,41.40498],[-82.06817,41.4044],[-82.06838,41.39657],[-82.06867,41.38191],[-82.06865,41.38001],[-82.06838,41.37741],[-82.06857,41.37563],[-82.06886,41.37163],[-82.06866,41.36965],[-82.06897,41.35166],[-82.06284,41.35185],[-82.0567,41.35154],[-82.04312,41.35165],[-82.04401,41.34904],[-82.04425,41.35],[-82.05165,41.34935],[-82.0516,41.34728],[-82.05691,41.34553],[-82.0569,41.34711],[-82.05921,41.34716],[-82.05907,41.34482],[-82.06385,41.34406],[-82.06383,41.34182],[-82.06262,41.34193],[-82.0626,41.34027],[-82.06418,41.34018],[-82.06365,41.33875],[-82.06718,41.33856],[-82.0673,41.3395],[-82.06561,41.33949],[-82.06582,41.34013],[-82.0665,41.34012],[-82.06646,41.34367],[-82.06781,41.34346],[-82.068,41.34503],[-82.06828,41.34502],[-82.06913,41.34554],[-82.07008,41.34482],[-82.07021,41.34309],[-82.06912,41.34326],[-82.06918,41.34099],[-82.06768,41.34031],[-82.06921,41.34011],[-82.07262,41.34022],[-82.07263,41.33758],[-82.07149,41.33699],[-82.07212,41.33488],[-82.07354,41.33585],[-82.07348,41.33761],[-82.07488,41.33761],[-82.07491,41.33639],[-82.07784,41.33638],[-82.07786,41.33774],[-82.0799,41.33772],[-82.0799,41.33647],[-82.08191,41.33683],[-82.08191,41.33996],[-82.0842,41.33898],[-82.08711,41.34135],[-82.08493,41.3426],[-82.08287,41.34283],[-82.083,41.34361],[-82.08415,41.34342],[-82.08633,41.3426],[-82.08834,41.34477],[-82.08859,41.35099],[-82.08859,41.35164],[-82.09992,41.3519],[-82.10115,41.35193],[-82.10231,41.352],[-82.10187,41.35108],[-82.1024,41.35077],[-82.10142,41.35063],[-82.10006,41.34913],[-82.09919,41.3479],[-82.09841,41.34797],[-82.09877,41.34745],[-82.09779,41.34628],[-82.09715,41.34475],[-82.09855,41.34363],[-82.10002,41.34244],[-82.10042,41.34244],[-82.1004,41.33923],[-82.09414,41.33837],[-82.09577,41.33755],[-82.09024,41.33673],[-82.09032,41.33287],[-82.08683,41.33306],[-82.08687,41.33225],[-82.08357,41.33222],[-82.08362,41.33342],[-82.082,41.33278],[-82.08061,41.33038],[-82.07986,41.32793],[-82.08074,41.32766],[-82.08178,41.32946],[-82.08193,41.3273],[-82.08834,41.32729],[-82.08834,41.32885],[-82.09041,41.3287],[-82.09032,41.3327],[-82.10644,41.33308],[-82.10652,41.33466],[-82.10777,41.33466],[-82.10777,41.33517],[-82.10776,41.33626],[-82.11126,41.33624],[-82.11306,41.33965],[-82.11127,41.33975],[-82.11124,41.34249],[-82.11123,41.34482],[-82.11553,41.3443],[-82.11661,41.3465],[-82.11694,41.34789],[-82.11704,41.34833],[-82.12066,41.34834],[-82.12154,41.34833],[-82.12266,41.34775],[-82.12308,41.34499],[-82.126,41.34459],[-82.13331,41.34467],[-82.14616,41.34462],[-82.14616,41.34656],[-82.14423,41.34848],[-82.1405,41.34849],[-82.14041,41.34947],[-82.13646,41.34957],[-82.13551,41.34844],[-82.13574,41.35005],[-82.12814,41.34992],[-82.12475,41.35209],[-82.13045,41.35197],[-82.13057,41.35365],[-82.13997,41.35368],[-82.14164,41.35212],[-82.14556,41.35215],[-82.14875,41.35218],[-82.15499,41.35223],[-82.15604,41.35265],[-82.15658,41.35578],[-82.15648,41.35578],[-82.15678,41.35712],[-82.15903,41.36423],[-82.16106,41.36423],[-82.1611,41.36075],[-82.16552,41.36071],[-82.16562,41.35614],[-82.17147,41.35605],[-82.17148,41.36072],[-82.16856,41.36074],[-82.16847,41.36455],[-82.16626,41.36486],[-82.16613,41.37248],[-82.16551,41.3735],[-82.1698,41.37203],[-82.17098,41.37259],[-82.17097,41.37722],[-82.17587,41.37731],[-82.17606,41.38081],[-82.17946,41.3808],[-82.17925,41.38529],[-82.1651,41.3817],[-82.16519,41.37361]],[[-82.14796,41.36071],[-82.14608,41.36067],[-82.14615,41.35869],[-82.14346,41.35897],[-82.1431,41.35831],[-82.14362,41.35818],[-82.14587,41.35816],[-82.14452,41.35645],[-82.14309,41.3562],[-82.14267,41.35577],[-82.14165,41.35613],[-82.1414,41.35576],[-82.137,41.35585],[-82.13419,41.35845],[-82.13058,41.35844],[-82.13056,41.36071],[-82.14394,41.36066],[-82.14536,41.36584],[-82.15231,41.36565],[-82.15238,41.36405],[-82.14792,41.36405],[-82.14796,41.36071]],[[-82.12041,41.40399],[-82.11725,41.40268],[-82.11665,41.40038],[-82.11642,41.40044],[-82.11691,41.40451],[-82.11714,41.40449],[-82.11743,41.40631],[-82.12186,41.40462],[-82.12668,41.40422],[-82.12592,41.40397],[-82.12572,41.40399],[-82.12041,41.40399]],[[-82.11827,41.40784],[-82.11913,41.41067],[-82.12533,41.41052],[-82.12529,41.40776],[-82.12627,41.40673],[-82.12356,41.40772],[-82.11827,41.40784]],[[-82.10366,41.35156],[-82.10267,41.352],[-82.10514,41.35202],[-82.10514,41.35142],[-82.10515,41.35043],[-82.10433,41.35043],[-82.10366,41.35156]],[[-82.07556,41.34868],[-82.07822,41.34869],[-82.0782,41.34824],[-82.07553,41.34824],[-82.07556,41.34868]],[[-82.06421,41.34401],[-82.06492,41.3439],[-82.06492,41.34308],[-82.0642,41.34319],[-82.06421,41.34401]]],[[[-82.28705,41.41838],[-82.28339,41.41852],[-82.28347,41.42762],[-82.28349,41.42928],[-82.27918,41.42973],[-82.2698,41.43071],[-82.26848,41.43084],[-82.25465,41.43431],[-82.25232,41.43552],[-82.25194,41.43589],[-82.25118,41.43663],[-82.25078,41.43702],[-82.24441,41.43883],[-82.24267,41.43963],[-82.24216,41.43987],[-82.23684,41.44234],[-82.23349,41.44403],[-82.22644,41.44756],[-82.22559,41.44799],[-82.22557,41.448],[-82.22549,41.44804],[-82.21676,41.45312],[-82.21645,41.4543],[-82.21297,41.45515],[-82.19979,41.46147],[-82.19025,41.46604],[-82.18967,41.46632],[-82.18939,41.46823],[-82.18915,41.46989],[-82.18899,41.47],[-82.18732,41.47111],[-82.18607,41.4702],[-82.18082,41.47264],[-82.17781,41.47152],[-82.17691,41.47174],[-82.17521,41.47214],[-82.17499,41.47244],[-82.17373,41.4741],[-82.17145,41.47304],[-82.16882,41.47372],[-82.16331,41.47514],[-82.15319,41.47776],[-82.15212,41.47804],[-82.1338,41.48434],[-82.13304,41.48456],[-82.1307,41.48525],[-82.13108,41.47861],[-82.13037,41.47863],[-82.13065,41.47758],[-82.13119,41.46448],[-82.13162,41.45744],[-82.129,41.45812],[-82.12799,41.46005],[-82.12651,41.46106],[-82.12316,41.46098],[-82.12001,41.45861],[-82.11821,41.45807],[-82.11571,41.45852],[-82.11362,41.45789],[-82.11293,41.45383],[-82.11164,41.45204],[-82.10861,41.44914],[-82.10772,41.44378],[-82.10709,41.44322],[-82.1032,41.44261],[-82.10266,41.44072],[-82.10576,41.43801],[-82.10508,41.43754],[-82.10784,41.43667],[-82.10468,41.4359],[-82.10223,41.43398],[-82.102,41.43222],[-82.10545,41.42939],[-82.10563,41.427],[-82.10405,41.42454],[-82.10992,41.4246],[-82.11701,41.42448],[-82.11945,41.42455],[-82.11941,41.42314],[-82.12082,41.42454],[-82.13064,41.42424],[-82.13033,41.41819],[-82.13432,41.41818],[-82.1346,41.41818],[-82.13647,41.42299],[-82.14925,41.43751],[-82.14954,41.4375],[-82.15412,41.43743],[-82.15425,41.43394],[-82.15522,41.43212],[-82.15752,41.43219],[-82.15742,41.43403],[-82.16138,41.43414],[-82.16139,41.43408],[-82.1631,41.43415],[-82.16341,41.43088],[-82.16787,41.42985],[-82.16745,41.42481],[-82.16407,41.425],[-82.16423,41.41817],[-82.16286,41.41817],[-82.16071,41.41817],[-82.16017,41.4168],[-82.15716,41.41607],[-82.16166,41.41606],[-82.16314,41.41486],[-82.16433,41.41353],[-82.16657,41.41132],[-82.17918,41.41119],[-82.17987,41.41676],[-82.17997,41.41823],[-82.1846,41.41824],[-82.18575,41.41824],[-82.18576,41.4175],[-82.18702,41.4167],[-82.1872,41.41824],[-82.19332,41.41825],[-82.19696,41.41825],[-82.20892,41.41831],[-82.21886,41.41834],[-82.21887,41.42372],[-82.21837,41.42479],[-82.21987,41.42629],[-82.22836,41.42625],[-82.22856,41.41862],[-82.23136,41.41831],[-82.23315,41.41548],[-82.23546,41.41526],[-82.23585,41.41174],[-82.23594,41.41113],[-82.23753,41.4116],[-82.23811,41.41171],[-82.23894,41.41171],[-82.23893,41.41233],[-82.23891,41.41334],[-82.24843,41.41336],[-82.24847,41.41181],[-82.24976,41.41175],[-82.25133,41.41126],[-82.25238,41.41584],[-82.25236,41.41824],[-82.26428,41.41824],[-82.26428,41.40835],[-82.26437,41.40504],[-82.26525,41.40472],[-82.28295,41.40809],[-82.29214,41.40984],[-82.29158,41.4113],[-82.28668,41.41142],[-82.28705,41.41838]]]]}}]}