{"type":"FeatureCollection","features":[{"type":"Feature","properties":{"name":"Basin Connect North","boundary_type":"places","source":"Census TIGER place","fidelity":"approximate","updated":"2026-09","units":"Beaver Marsh CDP; Chemult CDP; Crescent CDP; Gilchrist CDP; La Pine city; Bend city","note":"Operator's own site does not list towns, but Herald and News coverage (heraldandnews.com, 'Basin Transit Services announces new Basin Connect North program') and Transit App's published route (transitapp.com Basin Connect North) confirm stops at Beaver Marsh, Chemult, Crescent, Gilchrist, La Pine, and Bend, spanning North Klamath County into Deschutes County.","confidence":0.65},"geometry":{"type":"MultiPolygon","coordinates":[[[[-121.79969,43.14297],[-121.79971,43.14201],[-121.79979,43.13142],[-121.8041,43.13142],[-121.80971,43.13148],[-121.80974,43.1388],[-121.80475,43.1388],[-121.80463,43.14289],[-121.79969,43.14297]]],[[[-121.78986,43.2112],[-121.78982,43.21849],[-121.78493,43.21843],[-121.78444,43.2225],[-121.77868,43.21122],[-121.78986,43.2112]]],[[[-121.69673,43.46569],[-121.69631,43.46554],[-121.69441,43.46638],[-121.69242,43.46894],[-121.69247,43.47223],[-121.69584,43.47223],[-121.69764,43.47605],[-121.69818,43.47919],[-121.699,43.48315],[-121.69514,43.48043],[-121.69156,43.47977],[-121.69019,43.47705],[-121.68804,43.47703],[-121.68571,43.48299],[-121.68171,43.4824],[-121.68186,43.47691],[-121.68432,43.47429],[-121.6852,43.47223],[-121.68636,43.46913],[-121.68579,43.46638],[-121.68772,43.46097],[-121.69218,43.46052],[-121.69427,43.4572],[-121.70224,43.4431],[-121.71891,43.44325],[-121.71863,43.45064],[-121.71054,43.45065],[-121.69699,43.46267],[-121.69805,43.46332],[-121.69673,43.46569]]],[[[-121.50805,43.68266],[-121.50555,43.68266],[-121.50565,43.6853],[-121.50014,43.68532],[-121.49793,43.68806],[-121.49536,43.69578],[-121.49603,43.6999],[-121.50276,43.69989],[-121.5067,43.69995],[-121.50671,43.70358],[-121.49895,43.70362],[-121.49762,43.70359],[-121.49758,43.70709],[-121.49392,43.70711],[-121.49092,43.71167],[-121.48781,43.71559],[-121.48673,43.719],[-121.47239,43.71919],[-121.46753,43.71928],[-121.46763,43.70353],[-121.46699,43.68916],[-121.45677,43.68896],[-121.45663,43.67837],[-121.45168,43.67837],[-121.45171,43.6746],[-121.45785,43.67453],[-121.46177,43.67478],[-121.48018,43.67435],[-121.4803,43.66682],[-121.48094,43.66562],[-121.48098,43.65968],[-121.48807,43.65998],[-121.51061,43.66008],[-121.51048,43.6621],[-121.51057,43.66722],[-121.5154,43.66753],[-121.51532,43.67914],[-121.51048,43.67907],[-121.51052,43.68177],[-121.50802,43.68177],[-121.50805,43.68266]]],[[[-121.37524,44.0839],[-121.37507,44.08539],[-121.3743,44.08592],[-121.37354,44.08767],[-121.37355,44.08345],[-121.37355,44.08044],[-121.37004,44.08047],[-121.35842,44.08042],[-121.3584,44.08769],[-121.35032,44.09352],[-121.34934,44.09351],[-121.34619,44.09132],[-121.34461,44.09097],[-121.34166,44.09164],[-121.33817,44.09379],[-121.33565,44.09412],[-121.3311,44.09367],[-121.3305,44.09507],[-121.33022,44.0949],[-121.33015,44.09454],[-121.33014,44.09295],[-121.32973,44.09243],[-121.32884,44.09245],[-121.32795,44.09272],[-121.3271,44.09315],[-121.32673,44.09347],[-121.32611,44.09438],[-121.32425,44.09698],[-121.31914,44.09687],[-121.31881,44.09837],[-121.31624,44.09837],[-121.3163,44.10188],[-121.3118,44.10197],[-121.31653,44.1088],[-121.31378,44.10919],[-121.31358,44.10475],[-121.31163,44.10213],[-121.30569,44.10197],[-121.31036,44.10922],[-121.2987,44.10924],[-121.29874,44.11282],[-121.2955,44.11287],[-121.29298,44.1167],[-121.28976,44.11776],[-121.29058,44.11648],[-121.28904,44.11644],[-121.28374,44.12062],[-121.28374,44.12369],[-121.2719,44.12375],[-121.27216,44.12297],[-121.26949,44.1208],[-121.26885,44.11932],[-121.26407,44.11536],[-121.26719,44.11183],[-121.26698,44.10927],[-121.27875,44.10922],[-121.27875,44.10309],[-121.27875,44.10195],[-121.27447,44.10199],[-121.27666,44.10096],[-121.27764,44.09949],[-121.27749,44.09499],[-121.27075,44.09481],[-121.27167,44.09348],[-121.27103,44.09153],[-121.27364,44.0915],[-121.27373,44.08745],[-121.26599,44.08829],[-121.26332,44.08833],[-121.26286,44.09208],[-121.25865,44.09208],[-121.25865,44.09483],[-121.2435,44.09485],[-121.2435,44.09474],[-121.24352,44.09337],[-121.24706,44.09337],[-121.24706,44.09112],[-121.24768,44.09112],[-121.24768,44.0875],[-121.25158,44.08748],[-121.25101,44.08665],[-121.25108,44.08609],[-121.25093,44.08568],[-121.25366,44.08568],[-121.25367,44.07936],[-121.25371,44.0755],[-121.25369,44.07357],[-121.25372,44.06576],[-121.25318,44.06576],[-121.25021,44.06573],[-121.24967,44.06576],[-121.24866,44.06396],[-121.25118,44.06396],[-121.25116,44.06215],[-121.25312,44.06215],[-121.25326,44.06216],[-121.25356,44.05723],[-121.25353,44.05487],[-121.25351,44.05336],[-121.25348,44.05138],[-121.25573,44.05151],[-121.25848,44.05144],[-121.25865,44.03669],[-121.25779,44.03697],[-121.24853,44.03689],[-121.25658,44.01933],[-121.26159,44.01935],[-121.26369,44.02255],[-121.26904,44.02253],[-121.2691,44.01892],[-121.27397,44.01889],[-121.27421,44.00978],[-121.2791,44.00978],[-121.27911,44.00797],[-121.28409,44.00797],[-121.28915,44.008],[-121.29288,44.00699],[-121.29255,44.00659],[-121.29406,44.0051],[-121.29413,44.00065],[-121.30355,44.00046],[-121.3069,43.99971],[-121.31145,43.99964],[-121.31251,43.99919],[-121.31389,44.00051],[-121.31536,44.00183],[-121.31986,44.00481],[-121.32293,44.00729],[-121.32399,44.00778],[-121.32385,44.00798],[-121.32456,44.00797],[-121.3442,44.0079],[-121.36383,44.00787],[-121.36421,44.00975],[-121.36396,44.02207],[-121.36365,44.02215],[-121.35495,44.02436],[-121.35386,44.02476],[-121.35383,44.02934],[-121.34876,44.02976],[-121.34865,44.03698],[-121.34972,44.03678],[-121.34924,44.03707],[-121.34999,44.03783],[-121.35286,44.0374],[-121.35578,44.03759],[-121.35628,44.03922],[-121.35933,44.04121],[-121.35793,44.04362],[-121.36102,44.04157],[-121.3644,44.04579],[-121.36142,44.04545],[-121.36309,44.04657],[-121.35785,44.04791],[-121.35767,44.0492],[-121.35474,44.05002],[-121.3546,44.05154],[-121.36354,44.05157],[-121.36358,44.05285],[-121.37396,44.05239],[-121.37811,44.05167],[-121.3782,44.05246],[-121.37787,44.05297],[-121.3777,44.05333],[-121.37767,44.05352],[-121.37843,44.0534],[-121.38173,44.05369],[-121.38014,44.05769],[-121.37515,44.05972],[-121.3702,44.06029],[-121.36868,44.06238],[-121.36637,44.06598],[-121.36753,44.06598],[-121.36811,44.06799],[-121.36554,44.06872],[-121.36554,44.06959],[-121.36852,44.06959],[-121.3685,44.07232],[-121.37249,44.0723],[-121.37253,44.07683],[-121.37356,44.07683],[-121.37355,44.07323],[-121.37854,44.07326],[-121.37865,44.06964],[-121.38242,44.06965],[-121.37891,44.07486],[-121.37667,44.08045],[-121.37716,44.08173],[-121.37617,44.08295],[-121.37524,44.0839]],[[-121.30477,44.09987],[-121.30556,44.10108],[-121.30868,44.10061],[-121.30862,44.09834],[-121.30611,44.09834],[-121.30409,44.09858],[-121.30612,44.09915],[-121.30477,44.09987]]]]}},{"type":"Feature","properties":{"name":"CET Rural Dial-A-Ride","boundary_type":"places","source":"Census TIGER place","fidelity":"exact","updated":"2026-09","units":"Prineville city; La Pine city; Madras city; Redmond city; Sisters city; Warm Springs CDP; Deschutes River Woods CDP","note":"Seven towns/places across Central Oregon; Deschutes River Woods pilot zone added May 2026","confidence":0.8},"geometry":{"type":"MultiPolygon","coordinates":[[[[-121.50805,43.68266],[-121.50555,43.68266],[-121.50565,43.6853],[-121.50014,43.68532],[-121.49793,43.68806],[-121.49536,43.69578],[-121.49603,43.6999],[-121.50276,43.69989],[-121.5067,43.69995],[-121.50671,43.70358],[-121.49895,43.70362],[-121.49762,43.70359],[-121.49758,43.70709],[-121.49392,43.70711],[-121.49092,43.71167],[-121.48781,43.71559],[-121.48673,43.719],[-121.47239,43.71919],[-121.46753,43.71928],[-121.46763,43.70353],[-121.46699,43.68916],[-121.45677,43.68896],[-121.45663,43.67837],[-121.45168,43.67837],[-121.45171,43.6746],[-121.45785,43.67453],[-121.46177,43.67478],[-121.48018,43.67435],[-121.4803,43.66682],[-121.48094,43.66562],[-121.48098,43.65968],[-121.48807,43.65998],[-121.51061,43.66008],[-121.51048,43.6621],[-121.51057,43.66722],[-121.5154,43.66753],[-121.51532,43.67914],[-121.51048,43.67907],[-121.51052,43.68177],[-121.50802,43.68177],[-121.50805,43.68266]]],[[[-121.38433,43.99779],[-121.38083,43.99919],[-121.37876,44.00108],[-121.37529,44.00123],[-121.37322,44.00247],[-121.3721,44.00381],[-121.36848,44.00435],[-121.36731,44.00505],[-121.36549,44.00834],[-121.36421,44.00975],[-121.36383,44.00787],[-121.3442,44.0079],[-121.32456,44.00797],[-121.32385,44.00798],[-121.32399,44.00778],[-121.32836,44.00165],[-121.33243,43.99981],[-121.33551,43.99569],[-121.34632,43.98045],[-121.34733,43.97887],[-121.34764,43.97734],[-121.34763,43.97032],[-121.34816,43.96821],[-121.35013,43.965],[-121.35221,43.96307],[-121.35591,43.96103],[-121.36424,43.965],[-121.36424,43.96506],[-121.39529,43.98676],[-121.39573,43.98758],[-121.39585,43.98716],[-121.39603,43.98708],[-121.39568,43.9893],[-121.39158,43.99098],[-121.38679,43.99407],[-121.38433,43.99779]]],[[[-121.22609,44.25683],[-121.22196,44.25673],[-121.22033,44.25606],[-121.22016,44.25663],[-121.2203,44.25833],[-121.21949,44.25832],[-121.21956,44.26199],[-121.21453,44.26198],[-121.2145,44.26559],[-121.20936,44.26557],[-121.20933,44.26919],[-121.20941,44.27641],[-121.20925,44.28377],[-121.20922,44.28649],[-121.20674,44.2865],[-121.20674,44.28737],[-121.20423,44.28736],[-121.20425,44.28374],[-121.20312,44.28374],[-121.20229,44.28472],[-121.20422,44.29096],[-121.20418,44.2946],[-121.19912,44.29458],[-121.19899,44.29169],[-121.19752,44.29093],[-121.19415,44.29091],[-121.19403,44.2982],[-121.19906,44.29821],[-121.19894,44.30451],[-121.19734,44.30549],[-121.18886,44.30547],[-121.18714,44.30893],[-121.18155,44.30976],[-121.17877,44.3109],[-121.17877,44.30924],[-121.17418,44.31085],[-121.1748,44.30911],[-121.17224,44.30906],[-121.17303,44.30549],[-121.1648,44.30552],[-121.16523,44.30188],[-121.15867,44.30188],[-121.15884,44.28742],[-121.15379,44.28739],[-121.15381,44.29103],[-121.14877,44.29101],[-121.14874,44.2838],[-121.14345,44.28382],[-121.14348,44.26931],[-121.13361,44.26929],[-121.13358,44.26205],[-121.13355,44.24893],[-121.13355,44.24753],[-121.1348,44.24753],[-121.1348,44.24571],[-121.13605,44.24571],[-121.13607,44.24033],[-121.13607,44.24027],[-121.1361,44.24027],[-121.13642,44.24027],[-121.16887,44.24039],[-121.16906,44.2186],[-121.20952,44.21856],[-121.20951,44.21875],[-121.20939,44.22218],[-121.20771,44.22218],[-121.20428,44.22538],[-121.20426,44.2294],[-121.20082,44.22942],[-121.19766,44.23305],[-121.20635,44.233],[-121.20879,44.23606],[-121.21171,44.23305],[-121.21448,44.233],[-121.21442,44.23575],[-121.21736,44.233],[-121.21946,44.23301],[-121.22448,44.23304],[-121.22447,44.24026],[-121.22345,44.24027],[-121.22447,44.24205],[-121.22447,44.2412],[-121.22948,44.2412],[-121.22945,44.24303],[-121.22481,44.243],[-121.22553,44.24464],[-121.22711,44.24586],[-121.22939,44.24702],[-121.22938,44.24825],[-121.23052,44.24816],[-121.23197,44.25014],[-121.23209,44.25149],[-121.23475,44.25478],[-121.22939,44.25478],[-121.22938,44.25841],[-121.22609,44.25841],[-121.22609,44.25683]],[[-121.20051,44.28562],[-121.20039,44.28484],[-121.20103,44.28373],[-121.19922,44.28373],[-121.19917,44.28829],[-121.19986,44.28829],[-121.20051,44.28562]]],[[[-121.55383,44.3013],[-121.5488,44.3022],[-121.54376,44.30177],[-121.54375,44.30125],[-121.53488,44.30842],[-121.53989,44.30327],[-121.53977,44.30058],[-121.54146,44.30004],[-121.54374,44.29984],[-121.54371,44.29489],[-121.53305,44.29496],[-121.53336,44.28777],[-121.5333,44.28409],[-121.54346,44.2841],[-121.54346,44.28287],[-121.54163,44.28288],[-121.54163,44.28196],[-121.54345,44.28196],[-121.54345,44.2806],[-121.53359,44.28053],[-121.53352,44.27676],[-121.53885,44.27683],[-121.53886,44.28041],[-121.54366,44.28045],[-121.54392,44.28409],[-121.55156,44.28413],[-121.55881,44.28411],[-121.55878,44.29078],[-121.56884,44.29077],[-121.56884,44.29131],[-121.57338,44.29131],[-121.5741,44.2914],[-121.57476,44.29166],[-121.57694,44.29343],[-121.57776,44.29377],[-121.58416,44.29562],[-121.58411,44.2985],[-121.56636,44.29859],[-121.55383,44.29858],[-121.55383,44.29944],[-121.55383,44.3013]]],[[[-120.82408,44.29342],[-120.82695,44.29361],[-120.82696,44.29432],[-120.822,44.29406],[-120.82205,44.2927],[-120.82373,44.29342],[-120.82408,44.29342]]],[[[-120.9171,44.29454],[-120.92207,44.29457],[-120.92204,44.29827],[-120.91198,44.29821],[-120.91203,44.29455],[-120.90193,44.29451],[-120.90191,44.29815],[-120.89744,44.29811],[-120.89739,44.30347],[-120.88684,44.30345],[-120.88685,44.30169],[-120.87675,44.30164],[-120.87674,44.30915],[-120.87819,44.30842],[-120.88176,44.30852],[-120.88172,44.3159],[-120.87831,44.3159],[-120.87671,44.31395],[-120.87212,44.31246],[-120.87081,44.3107],[-120.86836,44.31271],[-120.869,44.31282],[-120.87021,44.31247],[-120.87457,44.31583],[-120.87342,44.31792],[-120.87451,44.3195],[-120.87563,44.31967],[-120.8761,44.31704],[-120.87922,44.31948],[-120.87835,44.31966],[-120.87756,44.32224],[-120.87832,44.32382],[-120.87666,44.32342],[-120.87664,44.32523],[-120.86724,44.31991],[-120.86702,44.32008],[-120.86556,44.32207],[-120.8666,44.32612],[-120.86249,44.32674],[-120.86278,44.32521],[-120.86135,44.31968],[-120.86242,44.31746],[-120.86253,44.31752],[-120.86668,44.31721],[-120.86668,44.31663],[-120.86149,44.31535],[-120.8631,44.31447],[-120.85895,44.31445],[-120.86003,44.31609],[-120.85589,44.31341],[-120.85454,44.31239],[-120.847,44.31242],[-120.84703,44.31678],[-120.85043,44.31723],[-120.85677,44.31687],[-120.85719,44.31689],[-120.85757,44.3195],[-120.84701,44.31954],[-120.84693,44.32513],[-120.84559,44.32512],[-120.84561,44.32316],[-120.83976,44.32315],[-120.84024,44.32673],[-120.83688,44.32676],[-120.83688,44.32792],[-120.8348,44.32878],[-120.83676,44.32913],[-120.83581,44.33036],[-120.83578,44.33274],[-120.83356,44.33293],[-120.83372,44.33415],[-120.83271,44.33421],[-120.82674,44.33395],[-120.82684,44.32574],[-120.8235,44.32574],[-120.82185,44.32574],[-120.82184,44.32675],[-120.81181,44.32675],[-120.81184,44.32314],[-120.80678,44.32314],[-120.8068,44.31952],[-120.81188,44.31954],[-120.81192,44.31231],[-120.80186,44.31231],[-120.80192,44.30866],[-120.80688,44.30868],[-120.80692,44.30379],[-120.80698,44.29772],[-120.80844,44.29887],[-120.81197,44.29819],[-120.81278,44.30139],[-120.81699,44.3014],[-120.81889,44.30094],[-120.81843,44.30212],[-120.81999,44.30223],[-120.82,44.30098],[-120.82199,44.30084],[-120.82201,44.29737],[-120.82199,44.29711],[-120.822,44.29599],[-120.82696,44.29641],[-120.82696,44.2975],[-120.82875,44.29715],[-120.82773,44.2964],[-120.82884,44.29638],[-120.82896,44.29714],[-120.83121,44.29713],[-120.83118,44.29434],[-120.83054,44.29433],[-120.83006,44.29163],[-120.83134,44.29109],[-120.83245,44.29023],[-120.8328,44.28955],[-120.83283,44.28801],[-120.83221,44.28571],[-120.83272,44.28474],[-120.83276,44.28417],[-120.83241,44.28331],[-120.832,44.28294],[-120.83196,44.28191],[-120.83638,44.27816],[-120.83679,44.277],[-120.84072,44.2774],[-120.84248,44.27696],[-120.84122,44.27859],[-120.84104,44.28089],[-120.84331,44.28162],[-120.84603,44.28105],[-120.85613,44.28112],[-120.85287,44.285],[-120.8496,44.28709],[-120.85464,44.28711],[-120.85464,44.28347],[-120.85716,44.28346],[-120.85715,44.27985],[-120.86211,44.27982],[-120.86214,44.2762],[-120.8669,44.27618],[-120.86674,44.28344],[-120.87179,44.28348],[-120.8719,44.27623],[-120.88469,44.27635],[-120.88479,44.26913],[-120.89192,44.26917],[-120.892,44.26187],[-120.90211,44.26195],[-120.90216,44.27634],[-120.90481,44.27634],[-120.91218,44.27638],[-120.91214,44.28001],[-120.92218,44.28009],[-120.92212,44.28734],[-120.91206,44.28728],[-120.91201,44.29093],[-120.91711,44.29097],[-120.9171,44.29454]],[[-120.87585,44.32296],[-120.87587,44.32187],[-120.87297,44.32117],[-120.87297,44.323],[-120.87388,44.32221],[-120.87585,44.32296]],[[-120.85976,44.30521],[-120.85756,44.30522],[-120.85755,44.30636],[-120.85934,44.30648],[-120.85976,44.30521]]],[[[-121.13663,44.63596],[-121.13464,44.63776],[-121.13465,44.63959],[-121.13058,44.63957],[-121.13142,44.64149],[-121.12953,44.64092],[-121.1295,44.64289],[-121.13461,44.64284],[-121.13461,44.64687],[-121.12977,44.64681],[-121.12999,44.64879],[-121.13292,44.65004],[-121.13272,44.65003],[-121.12899,44.65004],[-121.12454,44.65006],[-121.12238,44.64884],[-121.12394,44.64726],[-121.12241,44.64676],[-121.11759,44.64676],[-121.11456,44.64576],[-121.11425,44.64403],[-121.10918,44.64363],[-121.10628,44.64482],[-121.10707,44.64673],[-121.10533,44.64672],[-121.10532,44.64464],[-121.10022,44.64204],[-121.10021,44.64026],[-121.10387,44.64005],[-121.10583,44.64444],[-121.10706,44.64411],[-121.10647,44.64289],[-121.10918,44.6426],[-121.10918,44.63947],[-121.10735,44.63945],[-121.1072,44.63821],[-121.10425,44.63752],[-121.10278,44.63583],[-121.10151,44.63582],[-121.10374,44.63954],[-121.0948,44.63932],[-121.09454,44.63922],[-121.09013,44.63918],[-121.0901,44.63571],[-121.09061,44.63576],[-121.09428,44.63577],[-121.09428,44.6329],[-121.09788,44.63294],[-121.09786,44.63546],[-121.10119,44.63548],[-121.10143,44.63495],[-121.09388,44.63027],[-121.09274,44.629],[-121.09295,44.62693],[-121.09003,44.62486],[-121.09334,44.62484],[-121.09523,44.62685],[-121.09581,44.62855],[-121.09858,44.6318],[-121.10016,44.63222],[-121.10005,44.62886],[-121.09801,44.62769],[-121.09758,44.62578],[-121.09859,44.62496],[-121.10903,44.62502],[-121.1092,44.62141],[-121.11622,44.62145],[-121.11943,44.62143],[-121.11941,44.61783],[-121.12959,44.61786],[-121.1306,44.61682],[-121.13216,44.61602],[-121.13445,44.61247],[-121.13473,44.6107],[-121.13772,44.60948],[-121.13473,44.60962],[-121.13475,44.60705],[-121.13906,44.60706],[-121.14033,44.60706],[-121.14175,44.61066],[-121.13751,44.61066],[-121.13694,44.61179],[-121.13977,44.6118],[-121.13976,44.61433],[-121.1427,44.61437],[-121.14312,44.61685],[-121.14116,44.61684],[-121.14077,44.61789],[-121.14479,44.61781],[-121.1448,44.62496],[-121.14637,44.62366],[-121.14989,44.6235],[-121.14988,44.62513],[-121.14484,44.62512],[-121.14482,44.63236],[-121.13665,44.63234],[-121.13663,44.63596]]],[[[-121.149,44.68285],[-121.14628,44.67908],[-121.13578,44.66458],[-121.13503,44.66462],[-121.12842,44.66459],[-121.12315,44.66458],[-121.12301,44.66264],[-121.12572,44.66351],[-121.12794,44.66306],[-121.1273,44.66019],[-121.12806,44.65599],[-121.12627,44.65599],[-121.12637,44.65236],[-121.12865,44.65216],[-121.12864,44.65223],[-121.12948,44.652],[-121.13292,44.65004],[-121.13358,44.65004],[-121.16365,44.65001],[-121.16383,44.65376],[-121.16877,44.6537],[-121.16889,44.65715],[-121.17389,44.65721],[-121.17394,44.66103],[-121.1838,44.66108],[-121.18391,44.67153],[-121.17391,44.67164],[-121.17407,44.67899],[-121.15858,44.67903],[-121.15821,44.68274],[-121.149,44.68285]]],[[[-121.40326,44.73703],[-121.40071,44.73783],[-121.39654,44.7365],[-121.39099,44.73562],[-121.38891,44.73578],[-121.38165,44.73854],[-121.37706,44.74125],[-121.37464,44.74145],[-121.37055,44.74243],[-121.36423,44.74143],[-121.3602,44.73992],[-121.35625,44.73976],[-121.35115,44.74163],[-121.34908,44.74304],[-121.34664,44.74337],[-121.34785,44.74596],[-121.35294,44.75007],[-121.3603,44.74914],[-121.36384,44.75067],[-121.36538,44.75286],[-121.36535,44.75348],[-121.36207,44.75313],[-121.36111,44.75261],[-121.35665,44.75216],[-121.35195,44.75288],[-121.35045,44.75357],[-121.34691,44.75386],[-121.34328,44.7548],[-121.34056,44.75469],[-121.33724,44.75231],[-121.33406,44.75173],[-121.32717,44.75096],[-121.32379,44.75095],[-121.31652,44.75203],[-121.31405,44.7529],[-121.31155,44.75276],[-121.31025,44.75301],[-121.3053,44.75565],[-121.29218,44.76171],[-121.29097,44.76295],[-121.28527,44.7664],[-121.28717,44.76736],[-121.29136,44.76821],[-121.2931,44.76821],[-121.29519,44.76946],[-121.29627,44.76874],[-121.29862,44.76891],[-121.2991,44.77049],[-121.30039,44.77034],[-121.30443,44.77094],[-121.30593,44.77211],[-121.30514,44.77294],[-121.30015,44.7725],[-121.29706,44.77277],[-121.29549,44.77212],[-121.29771,44.7744],[-121.29976,44.77519],[-121.29933,44.77696],[-121.29612,44.77805],[-121.29637,44.77914],[-121.30093,44.77953],[-121.30464,44.78123],[-121.31021,44.78186],[-121.31393,44.78433],[-121.31586,44.78498],[-121.32064,44.78569],[-121.32151,44.78626],[-121.324,44.78982],[-121.32626,44.79217],[-121.33203,44.79664],[-121.33149,44.79729],[-121.33084,44.8043],[-121.35341,44.82005],[-121.3533,44.82304],[-121.35197,44.8247],[-121.21084,44.82507],[-121.21539,44.82128],[-121.21727,44.82119],[-121.21939,44.82199],[-121.22503,44.82097],[-121.22636,44.82129],[-121.22881,44.8233],[-121.23139,44.8238],[-121.23602,44.82182],[-121.23656,44.81826],[-121.23611,44.81637],[-121.23097,44.80898],[-121.22903,44.80687],[-121.22822,44.80492],[-121.22937,44.79944],[-121.2301,44.79783],[-121.22509,44.79716],[-121.223,44.79516],[-121.21795,44.79266],[-121.21459,44.79203],[-121.20981,44.79062],[-121.20863,44.78964],[-121.20303,44.78737],[-121.20199,44.78648],[-121.19817,44.78572],[-121.19849,44.78473],[-121.19697,44.7838],[-121.2007,44.7802],[-121.20591,44.77789],[-121.20763,44.77643],[-121.20867,44.77437],[-121.20916,44.77129],[-121.20915,44.76728],[-121.2114,44.76495],[-121.21506,44.76374],[-121.21711,44.76375],[-121.22034,44.76526],[-121.22334,44.76574],[-121.22501,44.7655],[-121.22746,44.76418],[-121.22857,44.76099],[-121.22745,44.75728],[-121.22516,44.75316],[-121.22506,44.75147],[-121.22661,44.7479],[-121.22931,44.74519],[-121.22969,44.74351],[-121.23094,44.74187],[-121.23438,44.74049],[-121.23991,44.73909],[-121.24405,44.73857],[-121.24594,44.73794],[-121.24321,44.73407],[-121.24297,44.7327],[-121.24514,44.72884],[-121.24747,44.72587],[-121.2476,44.72409],[-121.2501,44.72274],[-121.25091,44.72045],[-121.25248,44.72066],[-121.25542,44.71837],[-121.25446,44.71665],[-121.25481,44.71574],[-121.25851,44.71346],[-121.26121,44.71221],[-121.26194,44.70953],[-121.26334,44.709],[-121.2656,44.70961],[-121.26841,44.71126],[-121.27037,44.71119],[-121.27112,44.70954],[-121.27111,44.70742],[-121.27413,44.70636],[-121.27712,44.70404],[-121.27579,44.7022],[-121.27981,44.70058],[-121.28042,44.70179],[-121.28228,44.70223],[-121.28731,44.70123],[-121.28714,44.70338],[-121.28852,44.70454],[-121.29241,44.70487],[-121.29233,44.70832],[-121.29266,44.71292],[-121.29174,44.71428],[-121.28921,44.71473],[-121.28635,44.71622],[-121.28323,44.72494],[-121.28403,44.72635],[-121.28273,44.72721],[-121.28294,44.72862],[-121.2855,44.72921],[-121.28642,44.72822],[-121.28932,44.72738],[-121.29565,44.72396],[-121.30037,44.72314],[-121.306,44.7237],[-121.31032,44.72297],[-121.31754,44.72294],[-121.32656,44.72499],[-121.33288,44.72447],[-121.34258,44.7218],[-121.34463,44.72022],[-121.34639,44.71978],[-121.34816,44.71853],[-121.3541,44.71577],[-121.35636,44.71313],[-121.35954,44.7114],[-121.36072,44.70942],[-121.36523,44.71073],[-121.36886,44.71289],[-121.3714,44.71331],[-121.37896,44.71317],[-121.38566,44.71476],[-121.39409,44.71623],[-121.3968,44.71704],[-121.40084,44.7192],[-121.40278,44.72087],[-121.40663,44.72348],[-121.40926,44.72657],[-121.40935,44.72852],[-121.41097,44.73064],[-121.4167,44.73129],[-121.41788,44.73184],[-121.42013,44.73171],[-121.42206,44.73364],[-121.41866,44.73537],[-121.41384,44.7357],[-121.41001,44.73569],[-121.40748,44.73513],[-121.40326,44.73703]]]]}},{"type":"Feature","properties":{"name":"CoosGO","boundary_type":"zone_approx","source":"Manual approximation","fidelity":"approximate","updated":"2026-09","units":"buffer 3.39 km @ 43.1200,-124.4100; clipped to Bandon city","note":"14-sq-mi service zone centered on Bandon (Bullards Beach State Park to Beach Loop Road); riders outside zone connected to fixed routes","confidence":0.75},"geometry":{"type":"Polygon","coordinates":[[[-124.42427,43.09138],[-124.42763,43.0924],[-124.43086,43.09363],[-124.43295,43.0946],[-124.43224,43.09738],[-124.43516,43.10468],[-124.43336,43.10856],[-124.43364,43.1114],[-124.43453,43.11195],[-124.43785,43.11402],[-124.43737,43.11429],[-124.43445,43.11599],[-124.43442,43.11602],[-124.42925,43.12145],[-124.4276,43.1232],[-124.42502,43.1259],[-124.41013,43.12584],[-124.40985,43.12611],[-124.41111,43.12828],[-124.41143,43.12884],[-124.41198,43.13035],[-124.41227,43.13309],[-124.39805,43.13289],[-124.39523,43.13285],[-124.39523,43.13062],[-124.39527,43.11897],[-124.39531,43.11741],[-124.39416,43.11543],[-124.39534,43.11543],[-124.3954,43.11139],[-124.40492,43.11146],[-124.40489,43.11144],[-124.40476,43.10793],[-124.40911,43.10794],[-124.40911,43.10852],[-124.40709,43.1085],[-124.40707,43.10918],[-124.40809,43.10923],[-124.40807,43.11008],[-124.40698,43.11008],[-124.40696,43.11149],[-124.40906,43.11162],[-124.41208,43.1116],[-124.41313,43.10828],[-124.41502,43.10784],[-124.41501,43.10901],[-124.41632,43.10906],[-124.4163,43.11155],[-124.42412,43.11082],[-124.42674,43.11153],[-124.42668,43.10878],[-124.43011,43.10882],[-124.43008,43.10502],[-124.42842,43.10499],[-124.42791,43.10216],[-124.42115,43.10207],[-124.42102,43.10081],[-124.4166,43.10188],[-124.41505,43.10171],[-124.41508,43.09524],[-124.41565,43.09538],[-124.42065,43.09466],[-124.42077,43.09058],[-124.4208,43.09058],[-124.42427,43.09138]]]}},{"type":"Feature","properties":{"name":"SPOT Southwest","boundary_type":"county","source":"Census TIGER county","fidelity":"approximate","updated":"2026-09","units":"Washington County","note":"Service limited to South Cooper Mountain, River Terrace, Murrayhill, and Progress Ridge neighborhoods in Washington County; full county boundary shown for reference","confidence":0.6},"geometry":{"type":"Polygon","coordinates":[[[-123.46388,45.44726],[-123.46196,45.46211],[-123.46185,45.46656],[-123.46157,45.47729],[-123.46118,45.49156],[-123.44112,45.49127],[-123.44074,45.50533],[-123.44272,45.52112],[-123.42197,45.52141],[-123.42193,45.53538],[-123.40215,45.53565],[-123.40205,45.55007],[-123.36115,45.5499],[-123.36119,45.55846],[-123.36113,45.57878],[-123.32,45.57868],[-123.32021,45.59298],[-123.29926,45.59302],[-123.29944,45.60725],[-123.34033,45.60746],[-123.3405,45.6222],[-123.36037,45.6225],[-123.37692,45.62208],[-123.38066,45.62199],[-123.38022,45.63575],[-123.40091,45.63586],[-123.42327,45.63618],[-123.423,45.65062],[-123.44385,45.65068],[-123.44375,45.66513],[-123.46409,45.66514],[-123.46433,45.66957],[-123.46436,45.67927],[-123.48512,45.67925],[-123.48472,45.69447],[-123.48473,45.70876],[-123.36103,45.7087],[-123.36141,45.73713],[-123.36105,45.74342],[-123.36166,45.75774],[-123.36122,45.76493],[-123.36162,45.77958],[-123.34041,45.77985],[-123.32103,45.7802],[-123.21554,45.77994],[-123.1959,45.77991],[-123.12208,45.78015],[-123.11518,45.78013],[-123.05118,45.77937],[-123.05067,45.77936],[-123.03087,45.77916],[-123.0317,45.76578],[-123.03184,45.75142],[-123.01114,45.75146],[-122.99034,45.75084],[-122.99037,45.73646],[-122.9289,45.73569],[-122.92915,45.72148],[-122.92912,45.6987],[-122.92914,45.69381],[-122.92896,45.67835],[-122.92919,45.67101],[-122.92913,45.63531],[-122.91872,45.6354],[-122.90908,45.63523],[-122.90899,45.62076],[-122.88784,45.62047],[-122.88796,45.60635],[-122.8683,45.60622],[-122.86749,45.60623],[-122.86759,45.59188],[-122.86674,45.59188],[-122.84685,45.59184],[-122.8469,45.58102],[-122.84698,45.57752],[-122.82634,45.57752],[-122.82622,45.56806],[-122.826,45.56304],[-122.80548,45.56291],[-122.80543,45.55569],[-122.80458,45.55618],[-122.80313,45.55569],[-122.79606,45.5557],[-122.79591,45.55208],[-122.7927,45.54935],[-122.79511,45.54843],[-122.78477,45.5484],[-122.78477,45.54516],[-122.78477,45.54398],[-122.78477,45.54232],[-122.78423,45.53398],[-122.78362,45.53397],[-122.78234,45.53395],[-122.77984,45.5339],[-122.77466,45.53381],[-122.77215,45.53381],[-122.76609,45.53385],[-122.76508,45.53386],[-122.76441,45.53382],[-122.76444,45.53134],[-122.76444,45.53118],[-122.76446,45.52973],[-122.76446,45.52963],[-122.76447,45.52817],[-122.76449,45.52674],[-122.76446,45.51956],[-122.74386,45.51951],[-122.74386,45.51667],[-122.74386,45.51575],[-122.74386,45.5144],[-122.74385,45.51251],[-122.74383,45.50958],[-122.74381,45.50818],[-122.74381,45.50789],[-122.7438,45.50737],[-122.7438,45.50683],[-122.74378,45.50502],[-122.74381,45.49762],[-122.7438,45.49466],[-122.7438,45.4944],[-122.74376,45.48826],[-122.74375,45.48725],[-122.74374,45.48708],[-122.74371,45.4842],[-122.74368,45.47796],[-122.74367,45.47644],[-122.74363,45.47644],[-122.74365,45.46947],[-122.74366,45.46753],[-122.74367,45.46558],[-122.74367,45.45849],[-122.74366,45.45669],[-122.74365,45.45489],[-122.74367,45.44769],[-122.74367,45.44728],[-122.74369,45.44466],[-122.7437,45.44294],[-122.74372,45.43508],[-122.74372,45.43329],[-122.74399,45.42607],[-122.74401,45.42105],[-122.74406,45.41886],[-122.74403,45.41531],[-122.74397,45.40792],[-122.74396,45.40615],[-122.74396,45.40497],[-122.74394,45.4027],[-122.74394,45.40259],[-122.74385,45.39654],[-122.74394,45.39303],[-122.74394,45.3917],[-122.74393,45.38748],[-122.74392,45.38685],[-122.74392,45.38612],[-122.74391,45.38151],[-122.74392,45.37743],[-122.74393,45.37554],[-122.74392,45.37218],[-122.74392,45.37175],[-122.74386,45.35958],[-122.7438,45.35587],[-122.74381,45.35399],[-122.74387,45.34659],[-122.74374,45.33207],[-122.74682,45.33205],[-122.75407,45.33199],[-122.76494,45.33193],[-122.76912,45.33191],[-122.7849,45.33183],[-122.78627,45.33182],[-122.78751,45.33182],[-122.80547,45.33177],[-122.80556,45.34566],[-122.80719,45.34628],[-122.82066,45.34623],[-122.82597,45.34625],[-122.8425,45.34613],[-122.84341,45.34615],[-122.84649,45.34595],[-122.84648,45.32815],[-122.8465,45.31719],[-122.85191,45.31723],[-122.85717,45.31727],[-122.86789,45.31735],[-122.90494,45.31746],[-122.90887,45.31748],[-122.90886,45.33807],[-122.9088,45.34618],[-122.92113,45.34624],[-122.92887,45.34628],[-122.9392,45.34633],[-122.96257,45.34642],[-122.97023,45.34645],[-122.97024,45.34692],[-122.97029,45.34886],[-122.97052,45.35319],[-122.97033,45.35377],[-122.9703,45.36077],[-122.97659,45.36093],[-122.97981,45.36101],[-122.9914,45.3611],[-122.99139,45.36499],[-122.99139,45.36801],[-122.99139,45.37547],[-123.01165,45.37635],[-123.01164,45.38218],[-123.01129,45.3909],[-123.01448,45.39099],[-123.02788,45.3909],[-123.03229,45.39089],[-123.03216,45.40496],[-123.05267,45.40473],[-123.06289,45.4049],[-123.06359,45.4049],[-123.073,45.40508],[-123.08376,45.40452],[-123.10312,45.40442],[-123.11203,45.40439],[-123.11464,45.40438],[-123.1147,45.41896],[-123.13466,45.41894],[-123.13523,45.42435],[-123.13543,45.43346],[-123.13761,45.43347],[-123.13899,45.43347],[-123.14268,45.43349],[-123.15195,45.43353],[-123.15602,45.43354],[-123.17689,45.43358],[-123.18095,45.4336],[-123.19698,45.43367],[-123.20926,45.43371],[-123.46488,45.43333],[-123.48608,45.4332],[-123.48544,45.44714],[-123.46388,45.44726]]]}},{"type":"Feature","properties":{"name":"Sunset Empire Transportation District Microtransit Pilot","boundary_type":"places","source":"Census TIGER place","fidelity":"exact","updated":"2026-09","units":"Seaside city; Cannon Beach city","note":"Pilot program ended as of Feb 2026; service area was within Route 20 service zone covering Seaside and Cannon Beach in Clatsop County","confidence":0.6},"geometry":{"type":"MultiPolygon","coordinates":[[[[-123.95626,45.87414],[-123.95465,45.87416],[-123.95764,45.87334],[-123.95742,45.87597],[-123.95624,45.87598],[-123.95626,45.87414]]],[[[-123.96405,45.90892],[-123.96006,45.90894],[-123.95814,45.9084],[-123.95813,45.90747],[-123.95478,45.9075],[-123.95619,45.90681],[-123.95483,45.90612],[-123.95478,45.90296],[-123.95341,45.90296],[-123.95473,45.90018],[-123.95468,45.89718],[-123.95467,45.89291],[-123.94942,45.89295],[-123.94941,45.89049],[-123.95303,45.89041],[-123.95095,45.88841],[-123.95207,45.88748],[-123.95466,45.88744],[-123.95465,45.8856],[-123.95107,45.88563],[-123.95258,45.88505],[-123.9554,45.88558],[-123.95549,45.88464],[-123.95884,45.88557],[-123.95988,45.88499],[-123.95986,45.8819],[-123.95807,45.87907],[-123.95842,45.87344],[-123.95936,45.87236],[-123.95825,45.87099],[-123.95473,45.87103],[-123.95465,45.8674],[-123.95335,45.8674],[-123.95335,45.86294],[-123.95413,45.86201],[-123.95808,45.86211],[-123.95798,45.86165],[-123.9592,45.8618],[-123.95857,45.86736],[-123.95949,45.86353],[-123.96032,45.86165],[-123.96223,45.85892],[-123.96397,45.85897],[-123.96251,45.86389],[-123.96274,45.86997],[-123.96428,45.88195],[-123.96595,45.88355],[-123.96723,45.88478],[-123.96648,45.88834],[-123.96563,45.89234],[-123.96573,45.89309],[-123.96733,45.90547],[-123.96763,45.90781],[-123.96986,45.90919],[-123.96798,45.90959],[-123.96956,45.91089],[-123.96522,45.91101],[-123.96405,45.90892]]],[[[-123.94183,45.97566],[-123.93763,45.97725],[-123.93638,45.9768],[-123.93468,45.98051],[-123.93642,45.98085],[-123.92851,46.00749],[-123.92571,46.008],[-123.92552,46.00877],[-123.9261,46.00872],[-123.92735,46.00814],[-123.92813,46.00802],[-123.92777,46.00836],[-123.92813,46.00876],[-123.92789,46.00956],[-123.92797,46.01136],[-123.92191,46.01147],[-123.91973,46.01147],[-123.91859,46.01153],[-123.91713,46.01156],[-123.91713,46.01205],[-123.91675,46.01381],[-123.91604,46.01446],[-123.91467,46.01417],[-123.91347,46.01333],[-123.91242,46.01335],[-123.91243,46.01381],[-123.91406,46.01466],[-123.91578,46.01676],[-123.91134,46.01681],[-123.91104,46.01408],[-123.90958,46.01409],[-123.91052,46.01688],[-123.90878,46.01688],[-123.90711,46.01689],[-123.90686,46.01037],[-123.90789,46.01039],[-123.90808,46.00863],[-123.90643,46.00863],[-123.90549,46.01036],[-123.90125,46.01068],[-123.89976,46.012],[-123.89975,46.01241],[-123.89463,46.01242],[-123.89462,46.01177],[-123.89457,46.00735],[-123.89975,46.00737],[-123.89962,46.00023],[-123.90481,46.00025],[-123.90467,45.98591],[-123.90765,45.98592],[-123.90771,45.98236],[-123.91366,45.98232],[-123.91515,45.9832],[-123.91514,45.98259],[-123.9203,45.98231],[-123.92019,45.97271],[-123.92228,45.97327],[-123.92577,45.97326],[-123.92656,45.97725],[-123.92766,45.97515],[-123.9263,45.97271],[-123.92581,45.97117],[-123.92607,45.97007],[-123.92508,45.96767],[-123.92535,45.96619],[-123.92366,45.96339],[-123.92386,45.96247],[-123.92581,45.962],[-123.92524,45.95971],[-123.92817,45.95944],[-123.92776,45.95719],[-123.92639,45.95581],[-123.92771,45.95351],[-123.92933,45.95298],[-123.9267,45.9519],[-123.92653,45.95016],[-123.92477,45.9487],[-123.92192,45.94874],[-123.92356,45.94744],[-123.92435,45.94836],[-123.92771,45.94836],[-123.92777,45.94942],[-123.93001,45.9508],[-123.93125,45.95354],[-123.93539,45.95354],[-123.93593,45.97238],[-123.93513,45.97135],[-123.93116,45.97138],[-123.9312,45.97194],[-123.93485,45.97239],[-123.93802,45.97553],[-123.93938,45.97512],[-123.93852,45.97388],[-123.94176,45.97185],[-123.94554,45.97242],[-123.94512,45.97411],[-123.94823,45.97462],[-123.95204,45.97366],[-123.95618,45.97323],[-123.9562,45.97439],[-123.95326,45.97536],[-123.95206,45.97561],[-123.94183,45.97566]],[[-123.91232,45.9986],[-123.91223,45.99887],[-123.91379,45.99886],[-123.91501,45.9987],[-123.91468,45.99738],[-123.91429,45.99672],[-123.91247,45.99667],[-123.91232,45.9986]],[[-123.91189,46.00155],[-123.9117,46.00312],[-123.90992,46.00309],[-123.91023,45.99988],[-123.90843,45.99988],[-123.90812,46.00833],[-123.91125,46.00825],[-123.91121,46.00884],[-123.9142,46.00557],[-123.91395,46.00292],[-123.91183,46.00292],[-123.91179,46.00254],[-123.91189,46.00155]],[[-123.91216,45.99621],[-123.91251,45.99611],[-123.91256,45.99547],[-123.90985,45.9955],[-123.90985,45.99621],[-123.91216,45.99621]]]]}},{"type":"Feature","properties":{"name":"TriMet NEXT","boundary_type":"city","source":"Census TIGER place","fidelity":"approximate","updated":"2026-09","units":"Gresham city","note":"Service limited to South Gresham and Powell Valley neighborhoods within city limits; full city boundary shown for reference","confidence":0.7},"geometry":{"type":"Polygon","coordinates":[[[-122.49774,45.52221],[-122.49774,45.52236],[-122.49773,45.52316],[-122.49771,45.52556],[-122.49694,45.52642],[-122.49638,45.52642],[-122.49631,45.52736],[-122.49759,45.52769],[-122.49665,45.52958],[-122.49773,45.53195],[-122.49586,45.53332],[-122.49584,45.53367],[-122.49578,45.53426],[-122.49576,45.5371],[-122.49571,45.54242],[-122.49192,45.54272],[-122.49158,45.54958],[-122.49158,45.54959],[-122.49158,45.54974],[-122.47714,45.54891],[-122.47242,45.54929],[-122.47283,45.54997],[-122.4729,45.55882],[-122.47524,45.55872],[-122.47524,45.56081],[-122.46002,45.55972],[-122.46007,45.5581],[-122.45864,45.55824],[-122.45956,45.55757],[-122.45987,45.55659],[-122.45649,45.55361],[-122.45755,45.54999],[-122.45863,45.5499],[-122.45664,45.54799],[-122.45416,45.54735],[-122.45433,45.54737],[-122.45435,45.54473],[-122.45332,45.54459],[-122.45257,45.54375],[-122.45337,45.53951],[-122.45337,45.53902],[-122.45665,45.53942],[-122.45649,45.53352],[-122.45645,45.52876],[-122.4561,45.52833],[-122.45392,45.52851],[-122.45392,45.52757],[-122.45427,45.52689],[-122.45391,45.52698],[-122.45371,45.527],[-122.45071,45.52779],[-122.43362,45.52783],[-122.41313,45.52772],[-122.41314,45.52431],[-122.4088,45.52432],[-122.41057,45.52295],[-122.41058,45.51905],[-122.39842,45.51907],[-122.39826,45.51906],[-122.39487,45.51868],[-122.38953,45.51882],[-122.39307,45.5155],[-122.39322,45.51382],[-122.3941,45.51313],[-122.39358,45.51122],[-122.39096,45.50955],[-122.39089,45.5069],[-122.3896,45.5069],[-122.3896,45.50466],[-122.38544,45.50214],[-122.38499,45.50012],[-122.38488,45.49873],[-122.38296,45.49874],[-122.38304,45.49074],[-122.3823,45.49018],[-122.37271,45.49004],[-122.37275,45.48926],[-122.37003,45.48907],[-122.37033,45.48646],[-122.36756,45.48649],[-122.36764,45.47683],[-122.36766,45.47267],[-122.37274,45.47264],[-122.37274,45.47291],[-122.37689,45.47302],[-122.37689,45.47201],[-122.3779,45.47389],[-122.38299,45.47363],[-122.38322,45.47383],[-122.3866,45.47385],[-122.38801,45.47326],[-122.3906,45.47325],[-122.39061,45.47416],[-122.39316,45.47473],[-122.39659,45.4747],[-122.39661,45.47548],[-122.39968,45.47547],[-122.39611,45.47172],[-122.40005,45.47133],[-122.40358,45.47475],[-122.40357,45.47584],[-122.40587,45.47587],[-122.40489,45.47423],[-122.40766,45.47426],[-122.40766,45.47216],[-122.40986,45.4722],[-122.40985,45.47381],[-122.41369,45.47445],[-122.41369,45.46698],[-122.41397,45.46158],[-122.41446,45.46158],[-122.43914,45.46113],[-122.43917,45.46219],[-122.44182,45.46212],[-122.44227,45.46231],[-122.44233,45.46328],[-122.4392,45.46336],[-122.43924,45.46474],[-122.44953,45.46457],[-122.44958,45.46709],[-122.45463,45.46703],[-122.45463,45.46686],[-122.45584,45.46686],[-122.45593,45.46458],[-122.45461,45.46456],[-122.45466,45.46094],[-122.46664,45.46113],[-122.46664,45.46276],[-122.46945,45.46277],[-122.468,45.46191],[-122.468,45.46113],[-122.47253,45.46117],[-122.47331,45.466],[-122.47671,45.46708],[-122.47545,45.46737],[-122.4755,45.47206],[-122.47938,45.47206],[-122.48001,45.47547],[-122.48128,45.47559],[-122.48531,45.47558],[-122.48528,45.47776],[-122.48393,45.47776],[-122.48391,45.47928],[-122.48079,45.47932],[-122.48078,45.48026],[-122.48527,45.48029],[-122.48529,45.48081],[-122.48522,45.48423],[-122.48517,45.48466],[-122.48073,45.48462],[-122.48075,45.48625],[-122.48182,45.4872],[-122.48472,45.4872],[-122.48469,45.48904],[-122.48212,45.48907],[-122.48297,45.48998],[-122.48295,45.49196],[-122.48294,45.49357],[-122.47951,45.49447],[-122.4795,45.4954],[-122.48467,45.49539],[-122.48466,45.4972],[-122.48202,45.4972],[-122.48211,45.50096],[-122.48338,45.50094],[-122.48338,45.50458],[-122.48295,45.50458],[-122.48253,45.51072],[-122.48345,45.51366],[-122.48321,45.5187],[-122.48457,45.51869],[-122.48458,45.51812],[-122.48615,45.51866],[-122.48743,45.51802],[-122.49014,45.51876],[-122.49025,45.51883],[-122.49435,45.51829],[-122.49646,45.51852],[-122.49645,45.51916],[-122.49719,45.51916],[-122.49777,45.52001],[-122.49774,45.52211],[-122.49774,45.52221]],[[-122.42056,45.47279],[-122.42425,45.47226],[-122.42422,45.46864],[-122.4186,45.46994],[-122.41653,45.47233],[-122.41552,45.47594],[-122.42425,45.47468],[-122.42069,45.47479],[-122.42056,45.47279]],[[-122.41394,45.46799],[-122.41396,45.46877],[-122.4164,45.46874],[-122.41636,45.46792],[-122.41394,45.46799]]]}},{"type":"Feature","properties":{"name":"UPTD Dial-A-Ride","boundary_type":"county","source":"Census TIGER county","fidelity":"approximate","updated":"2026-09","units":"Douglas County","note":"Countywide service across Douglas County, but excludes ADA Paratransit service zone (open to general public with priority to seniors and people with disabilities)","confidence":0.65},"geometry":{"type":"Polygon","coordinates":[[[-124.21053,43.65335],[-124.2102,43.65472],[-124.20896,43.65992],[-124.20634,43.66663],[-124.20634,43.66911],[-124.20634,43.67402],[-124.20022,43.68955],[-124.19362,43.70614],[-124.19398,43.70667],[-124.17768,43.76723],[-124.16856,43.80895],[-124.1645,43.83155],[-124.15873,43.86372],[-124.13881,43.86361],[-124.10417,43.86329],[-124.10212,43.86342],[-124.10167,43.86343],[-124.09853,43.86351],[-124.06461,43.86421],[-124.06458,43.86228],[-124.02578,43.86222],[-124.00594,43.863],[-123.98581,43.862],[-123.96592,43.86304],[-123.94629,43.86274],[-123.94653,43.87169],[-123.93471,43.86601],[-123.92548,43.86595],[-123.92609,43.87869],[-123.92592,43.89848],[-123.91616,43.89732],[-123.90717,43.89625],[-123.90239,43.89628],[-123.90219,43.90051],[-123.89741,43.90051],[-123.8972,43.90471],[-123.8828,43.90458],[-123.88255,43.90871],[-123.87775,43.90863],[-123.87748,43.91275],[-123.87267,43.91266],[-123.87257,43.9141],[-123.8724,43.91673],[-123.86268,43.91656],[-123.86238,43.92066],[-123.8526,43.92055],[-123.85227,43.92468],[-123.8474,43.92466],[-123.84706,43.92882],[-123.84214,43.92888],[-123.84206,43.93243],[-123.83714,43.93246],[-123.83707,43.93598],[-123.83212,43.93599],[-123.83198,43.94308],[-123.82704,43.94305],[-123.827,43.94484],[-123.81007,43.94458],[-123.75871,43.94388],[-123.73473,43.94406],[-123.7038,43.94432],[-123.70363,43.9374],[-123.65877,43.93647],[-123.65891,43.92167],[-123.61901,43.92112],[-123.61962,43.90651],[-123.61937,43.89907],[-123.61957,43.89167],[-123.57958,43.89106],[-123.57969,43.86829],[-123.529,43.86833],[-123.52915,43.83006],[-123.47025,43.83118],[-123.47037,43.81006],[-123.41143,43.80988],[-123.39783,43.80908],[-123.3482,43.80921],[-123.34825,43.78017],[-123.31313,43.77991],[-123.312,43.77991],[-123.18599,43.77953],[-123.15365,43.77963],[-123.14754,43.77964],[-123.13732,43.77967],[-123.138,43.75365],[-123.13765,43.73628],[-123.13759,43.67709],[-123.13733,43.64936],[-123.13721,43.60591],[-123.10732,43.60589],[-123.10767,43.5421],[-123.10747,43.54001],[-122.98763,43.53899],[-122.98762,43.54099],[-122.97091,43.54168],[-122.9355,43.54417],[-122.93253,43.54436],[-122.9124,43.54389],[-122.89276,43.54488],[-122.83374,43.5447],[-122.78152,43.54391],[-122.77641,43.54403],[-122.77156,43.54432],[-122.74184,43.54465],[-122.74191,43.51758],[-122.74132,43.45202],[-122.74172,43.4374],[-122.62295,43.43846],[-122.62291,43.44026],[-122.50844,43.44023],[-122.50844,43.44127],[-122.44712,43.44141],[-122.27067,43.44163],[-122.27065,43.44001],[-122.13203,43.44022],[-122.13178,43.4394],[-122.13333,43.43729],[-122.13288,43.43653],[-122.12992,43.43616],[-122.12849,43.43523],[-122.12642,43.43535],[-122.12391,43.43466],[-122.12058,43.4354],[-122.11849,43.43284],[-122.1171,43.43198],[-122.11396,43.43135],[-122.11176,43.42909],[-122.10858,43.42922],[-122.10644,43.4298],[-122.1017,43.42803],[-122.1016,43.42508],[-122.09963,43.42595],[-122.09666,43.4253],[-122.09512,43.42789],[-122.09341,43.42928],[-122.09158,43.42882],[-122.09118,43.42674],[-122.08804,43.42365],[-122.08468,43.42258],[-122.08459,43.42164],[-122.0859,43.42024],[-122.08568,43.41932],[-122.08315,43.4184],[-122.08125,43.41447],[-122.07711,43.41215],[-122.07413,43.41085],[-122.07306,43.40968],[-122.06751,43.407],[-122.06415,43.40655],[-122.06326,43.40587],[-122.0628,43.4039],[-122.06041,43.40072],[-122.0571,43.39965],[-122.05922,43.39856],[-122.06245,43.39528],[-122.06277,43.39438],[-122.06227,43.39268],[-122.06024,43.39057],[-122.05949,43.38678],[-122.05712,43.38377],[-122.05622,43.38146],[-122.05322,43.38089],[-122.05166,43.38],[-122.04888,43.37755],[-122.04794,43.37749],[-122.04458,43.37526],[-122.04221,43.37224],[-122.03917,43.37061],[-122.03398,43.36851],[-122.03268,43.36607],[-122.02996,43.36456],[-122.02916,43.36315],[-122.03051,43.36163],[-122.03106,43.36005],[-122.03369,43.35665],[-122.03038,43.35885],[-122.028,43.36001],[-122.02528,43.36191],[-122.0218,43.36204],[-122.02166,43.35938],[-122.02054,43.35841],[-122.01797,43.35274],[-122.01581,43.35087],[-122.01315,43.34759],[-122.01216,43.34565],[-122.0104,43.3447],[-122.01079,43.34269],[-122.01014,43.34026],[-122.00821,43.33737],[-122.00935,43.33516],[-122.00923,43.33193],[-122.01216,43.32902],[-122.01294,43.32775],[-122.0156,43.32546],[-122.01594,43.32415],[-122.01326,43.32131],[-122.01308,43.31895],[-122.0123,43.31799],[-122.00865,43.31724],[-122.00175,43.31257],[-122.00096,43.31047],[-121.99929,43.30899],[-122.00144,43.30762],[-122.00316,43.30472],[-122.00558,43.30255],[-122.00847,43.30118],[-122.00907,43.29877],[-122.00853,43.29605],[-122.00953,43.29434],[-122.00878,43.29105],[-122.00765,43.28823],[-122.00626,43.28597],[-122.00133,43.2817],[-121.9999,43.28112],[-121.99451,43.28044],[-121.99276,43.2794],[-121.98777,43.27765],[-121.9864,43.27473],[-121.98457,43.27353],[-121.9839,43.27039],[-121.98242,43.26889],[-121.98055,43.26518],[-121.97639,43.2623],[-121.9742,43.26169],[-121.97532,43.26098],[-121.97942,43.25978],[-121.98518,43.25735],[-121.98823,43.25485],[-121.98966,43.25314],[-121.99274,43.25115],[-121.99276,43.24835],[-121.99648,43.24262],[-121.99686,43.23989],[-121.99922,43.23893],[-122.00126,43.23659],[-122.002,43.23475],[-122.00313,43.23423],[-122.00662,43.23407],[-122.01068,43.23459],[-122.01198,43.23411],[-122.01376,43.23201],[-122.0148,43.22835],[-122.01588,43.2269],[-122.01888,43.22683],[-122.02323,43.22458],[-122.02483,43.222],[-122.02634,43.22154],[-122.02817,43.21989],[-122.03418,43.21867],[-122.03733,43.2175],[-122.0394,43.21858],[-122.04066,43.21814],[-122.04072,43.21662],[-122.03965,43.2141],[-122.03841,43.21319],[-122.03733,43.21116],[-122.03401,43.20786],[-122.03363,43.2069],[-122.03452,43.20533],[-122.03966,43.19992],[-122.04098,43.19766],[-122.03996,43.19626],[-122.03969,43.19353],[-122.03896,43.1916],[-122.04017,43.1895],[-122.04264,43.18729],[-122.04458,43.18676],[-122.04553,43.1831],[-122.04703,43.18128],[-122.04833,43.17855],[-122.05102,43.17688],[-122.05218,43.17466],[-122.05417,43.17212],[-122.05462,43.16866],[-122.05317,43.16723],[-122.05238,43.16458],[-122.05428,43.16217],[-122.05354,43.15796],[-122.05548,43.15633],[-122.05746,43.15582],[-122.06047,43.15424],[-122.06502,43.15248],[-122.06628,43.15276],[-122.06599,43.15087],[-122.06711,43.14996],[-122.06649,43.1472],[-122.06532,43.14606],[-122.0643,43.14338],[-122.06426,43.14081],[-122.06517,43.1357],[-122.06874,43.1311],[-122.072,43.12944],[-122.0753,43.12655],[-122.07604,43.12207],[-122.07713,43.12001],[-122.07729,43.1177],[-122.07988,43.11591],[-122.08134,43.1135],[-122.08346,43.10851],[-122.08267,43.10475],[-122.08311,43.10303],[-122.08444,43.10154],[-122.08664,43.10043],[-122.08697,43.09889],[-122.08663,43.09633],[-122.08859,43.09493],[-122.08696,43.09148],[-122.08905,43.09046],[-122.09213,43.08684],[-122.09183,43.08371],[-122.09299,43.08224],[-122.09395,43.07745],[-122.09378,43.07626],[-122.09102,43.07364],[-122.0879,43.07216],[-122.08615,43.07205],[-122.0831,43.06984],[-122.08045,43.06977],[-122.07626,43.06774],[-122.11966,43.06776],[-122.28224,43.06772],[-122.28258,43.06772],[-122.28262,43.05627],[-122.28273,42.9965],[-122.38592,42.99664],[-122.40031,42.99663],[-122.40102,42.99663],[-122.40104,42.99346],[-122.40108,42.98346],[-122.42084,42.98344],[-122.42086,42.96893],[-122.44053,42.96892],[-122.4405,42.95442],[-122.46021,42.95437],[-122.46022,42.93987],[-122.52052,42.93976],[-122.56027,42.93919],[-122.5603,42.92469],[-122.58005,42.92465],[-122.58009,42.9108],[-122.6002,42.91107],[-122.60025,42.89569],[-122.62166,42.89681],[-122.63781,42.89699],[-122.63769,42.88114],[-122.67718,42.88108],[-122.6772,42.8666],[-122.69702,42.86657],[-122.69701,42.8521],[-122.71666,42.85211],[-122.7167,42.83767],[-122.73633,42.83766],[-122.73637,42.8235],[-122.75603,42.82319],[-122.75608,42.82869],[-122.77522,42.8288],[-122.77504,42.80683],[-122.78491,42.80685],[-122.78549,42.79271],[-122.79481,42.79272],[-122.79478,42.77822],[-122.81441,42.78051],[-122.83397,42.78065],[-122.85371,42.78177],[-122.85294,42.7746],[-122.86869,42.77454],[-122.91192,42.7747],[-122.9178,42.77475],[-122.93175,42.77487],[-122.9451,42.77481],[-122.9512,42.77477],[-122.95119,42.76756],[-122.97083,42.76812],[-122.97049,42.76095],[-122.99003,42.76095],[-122.99073,42.75954],[-123.00974,42.75941],[-123.00976,42.75214],[-123.11269,42.75222],[-123.11265,42.75575],[-123.15223,42.75583],[-123.15202,42.73772],[-123.18051,42.73777],[-123.18055,42.73166],[-123.19046,42.7317],[-123.1905,42.72449],[-123.20042,42.72447],[-123.20042,42.71724],[-123.20991,42.71716],[-123.21039,42.70998],[-123.22963,42.70996],[-123.22962,42.70261],[-123.24921,42.70242],[-123.24933,42.7244],[-123.27426,42.72471],[-123.27428,42.73203],[-123.3092,42.73206],[-123.30916,42.72841],[-123.32863,42.72825],[-123.32859,42.73175],[-123.34705,42.73223],[-123.36667,42.73219],[-123.36665,42.73947],[-123.37158,42.73948],[-123.372,42.72496],[-123.40024,42.72495],[-123.4014,42.7103],[-123.40634,42.71029],[-123.4063,42.71397],[-123.42572,42.71448],[-123.42569,42.71104],[-123.43105,42.71093],[-123.44492,42.71112],[-123.44546,42.70302],[-123.45521,42.70298],[-123.4553,42.69941],[-123.46527,42.6993],[-123.46526,42.70294],[-123.48469,42.70217],[-123.4943,42.70225],[-123.49441,42.70918],[-123.52344,42.70919],[-123.54254,42.70983],[-123.54243,42.71712],[-123.56217,42.71757],[-123.56209,42.7248],[-123.56704,42.72483],[-123.56678,42.73569],[-123.57173,42.73572],[-123.57181,42.7321],[-123.58186,42.73215],[-123.5817,42.73992],[-123.67727,42.73968],[-123.67721,42.75015],[-123.68708,42.75027],[-123.68709,42.75379],[-123.697,42.75391],[-123.69684,42.73959],[-123.70138,42.7397],[-123.7165,42.73966],[-123.71649,42.78406],[-123.71649,42.78538],[-123.72014,42.78416],[-123.72319,42.78395],[-123.72683,42.78153],[-123.73231,42.78013],[-123.73408,42.78175],[-123.73574,42.78252],[-123.73923,42.78287],[-123.74009,42.78334],[-123.74172,42.78655],[-123.74349,42.78797],[-123.74688,42.78823],[-123.75044,42.78773],[-123.75242,42.78825],[-123.75453,42.7898],[-123.75649,42.78981],[-123.75943,42.79107],[-123.76148,42.79239],[-123.76402,42.79206],[-123.76611,42.79347],[-123.76995,42.79457],[-123.77357,42.79741],[-123.77804,42.79767],[-123.78035,42.79892],[-123.7833,42.79943],[-123.78926,42.79815],[-123.7917,42.7973],[-123.79511,42.7937],[-123.79646,42.79294],[-123.79675,42.79277],[-123.79914,42.79095],[-123.80008,42.79009],[-123.80044,42.78959],[-123.80373,42.78754],[-123.80698,42.78698],[-123.80854,42.78787],[-123.81155,42.78884],[-123.81179,42.8241],[-123.82044,42.82411],[-123.81914,42.88436],[-123.81915,42.88513],[-123.8195,42.90966],[-123.82051,42.90968],[-123.82151,42.92448],[-123.82112,42.96528],[-123.82112,42.99629],[-123.76159,42.99632],[-123.76138,43.05451],[-123.76133,43.08316],[-123.70706,43.08346],[-123.70706,43.08707],[-123.70214,43.08708],[-123.70214,43.11246],[-123.70213,43.11395],[-123.70217,43.17059],[-123.70365,43.17058],[-123.70342,43.1777],[-123.70357,43.18613],[-123.70386,43.21414],[-123.70446,43.24325],[-123.70475,43.25774],[-123.76436,43.25805],[-123.76434,43.2636],[-123.76392,43.2871],[-123.7645,43.3448],[-123.76229,43.35142],[-123.76198,43.35875],[-123.7628,43.388],[-123.76153,43.42229],[-123.76488,43.43155],[-123.76902,43.43169],[-123.81761,43.43131],[-123.81715,43.45959],[-123.81666,43.51645],[-123.87563,43.51595],[-123.8757,43.60841],[-123.94957,43.60847],[-123.94956,43.60927],[-123.979,43.60936],[-124.06297,43.60964],[-124.10076,43.61124],[-124.14635,43.61122],[-124.18089,43.61145],[-124.18343,43.61093],[-124.21897,43.61093],[-124.21448,43.62762],[-124.21053,43.65335]]]}}]}