{"type":"FeatureCollection","features":[{"type":"Feature","properties":{"name":"BCTA Connect","boundary_type":"county","source":"Census TIGER county","fidelity":"exact","updated":"2026-09","units":"Beaver County","note":"Primary service area is Beaver County; out-of-county destination service added Feb 2026.","confidence":0.8},"geometry":{"type":"Polygon","coordinates":[[[-80.51909,40.61639],[-80.51904,40.61639],[-80.51899,40.63745],[-80.51899,40.6388],[-80.51899,40.64304],[-80.519,40.64935],[-80.519,40.65409],[-80.519,40.66877],[-80.51901,40.67403],[-80.51901,40.68856],[-80.51903,40.71725],[-80.51903,40.72582],[-80.51903,40.73374],[-80.51905,40.7748],[-80.51905,40.78381],[-80.51906,40.78944],[-80.51906,40.79224],[-80.51906,40.7923],[-80.51899,40.80122],[-80.51901,40.81287],[-80.51906,40.83548],[-80.51908,40.84916],[-80.51902,40.85007],[-80.51902,40.8501],[-80.51902,40.85134],[-80.46614,40.85187],[-80.44565,40.85207],[-80.42254,40.85227],[-80.41663,40.85217],[-80.40851,40.85236],[-80.40743,40.85236],[-80.39597,40.85249],[-80.3655,40.85266],[-80.32258,40.85315],[-80.3224,40.85323],[-80.29865,40.85349],[-80.29823,40.85344],[-80.28881,40.85368],[-80.28227,40.85379],[-80.27657,40.85372],[-80.2717,40.85384],[-80.26258,40.85402],[-80.25972,40.85401],[-80.25781,40.854],[-80.25281,40.85396],[-80.25188,40.85397],[-80.2426,40.85408],[-80.2394,40.85411],[-80.21184,40.85438],[-80.15853,40.8551],[-80.15671,40.81753],[-80.15644,40.81072],[-80.156,40.80037],[-80.15522,40.78819],[-80.15478,40.78204],[-80.15452,40.77617],[-80.15429,40.77268],[-80.15343,40.75828],[-80.15344,40.75639],[-80.15256,40.74404],[-80.1515,40.72282],[-80.15106,40.71314],[-80.14995,40.69609],[-80.14981,40.69293],[-80.14905,40.68102],[-80.14868,40.67385],[-80.1485,40.67377],[-80.14838,40.67028],[-80.14779,40.66116],[-80.14671,40.64209],[-80.14519,40.61475],[-80.14514,40.61403],[-80.14511,40.61345],[-80.15087,40.61161],[-80.15206,40.6094],[-80.15501,40.60801],[-80.15869,40.60923],[-80.16082,40.60949],[-80.16578,40.60603],[-80.16681,40.60668],[-80.16938,40.60662],[-80.16997,40.60772],[-80.17202,40.60815],[-80.17372,40.60771],[-80.17602,40.60811],[-80.17787,40.60948],[-80.18075,40.60911],[-80.18053,40.60759],[-80.18186,40.60583],[-80.18382,40.60475],[-80.18475,40.60359],[-80.18404,40.60113],[-80.18848,40.60005],[-80.188,40.59918],[-80.18519,40.59812],[-80.18454,40.59683],[-80.18652,40.59613],[-80.19023,40.59618],[-80.19328,40.59693],[-80.19499,40.59672],[-80.19534,40.59585],[-80.19846,40.59265],[-80.20212,40.59094],[-80.20416,40.58857],[-80.20679,40.58815],[-80.208,40.58806],[-80.20849,40.58682],[-80.21117,40.58498],[-80.21183,40.58248],[-80.21443,40.58099],[-80.21807,40.5819],[-80.21898,40.58199],[-80.21917,40.57945],[-80.22013,40.57991],[-80.22401,40.57733],[-80.22405,40.57527],[-80.22858,40.57307],[-80.22895,40.5728],[-80.23337,40.56958],[-80.24664,40.55964],[-80.25142,40.55602],[-80.26365,40.54722],[-80.27433,40.53931],[-80.27803,40.53674],[-80.34901,40.48614],[-80.3608,40.47774],[-80.3608,40.47759],[-80.36186,40.47757],[-80.39351,40.47729],[-80.39602,40.47737],[-80.43712,40.47777],[-80.44811,40.47772],[-80.519,40.47736],[-80.51905,40.51792],[-80.51906,40.51792],[-80.51906,40.51855],[-80.51906,40.55961],[-80.51905,40.59017],[-80.51909,40.59016],[-80.51909,40.59227],[-80.51909,40.61639]]]}},{"type":"Feature","properties":{"name":"CATA GO","boundary_type":"county","source":"Census TIGER county","fidelity":"exact","updated":"2026-09","units":"Crawford County","note":"County-level microtransit service in Crawford County (Meadville area), northwest PA.","confidence":0.9},"geometry":{"type":"Polygon","coordinates":[[[-80.51937,41.70147],[-80.51939,41.71473],[-80.51941,41.73936],[-80.51937,41.75249],[-80.51931,41.75845],[-80.51924,41.76514],[-80.51926,41.79107],[-80.51929,41.84956],[-80.40817,41.84946],[-80.40589,41.84962],[-80.35076,41.84951],[-80.34755,41.84951],[-80.26698,41.84947],[-80.20654,41.84904],[-80.20437,41.84908],[-80.1465,41.84904],[-80.09568,41.84974],[-80.03523,41.84997],[-80.02472,41.85009],[-80.0129,41.85032],[-80.01109,41.8502],[-79.90998,41.85069],[-79.8869,41.85074],[-79.8583,41.85084],[-79.76203,41.85091],[-79.76131,41.85091],[-79.70439,41.85142],[-79.70141,41.85145],[-79.68998,41.85128],[-79.68035,41.85152],[-79.65648,41.851],[-79.64829,41.85105],[-79.61207,41.85033],[-79.61233,41.83],[-79.61228,41.82988],[-79.61255,41.78583],[-79.6126,41.77458],[-79.61297,41.70525],[-79.61257,41.69473],[-79.61255,41.63043],[-79.61315,41.62386],[-79.61317,41.61687],[-79.64335,41.6172],[-79.64968,41.61725],[-79.68806,41.61722],[-79.74804,41.61791],[-79.76836,41.61771],[-79.76834,41.62096],[-79.82911,41.62207],[-79.82926,41.61716],[-79.82972,41.60195],[-79.84961,41.59776],[-79.85005,41.58706],[-79.873,41.58115],[-79.87003,41.57425],[-79.87717,41.57424],[-79.89273,41.57414],[-79.89276,41.56217],[-79.90861,41.56217],[-79.90947,41.55015],[-79.92537,41.55021],[-79.92334,41.5376],[-79.9433,41.53784],[-79.94223,41.52535],[-79.95919,41.52544],[-79.95816,41.51362],[-79.96533,41.51286],[-79.98154,41.51289],[-79.98228,41.50014],[-79.98636,41.50063],[-79.99441,41.50098],[-79.99849,41.50095],[-79.99978,41.49005],[-80.04135,41.48871],[-80.1013,41.48699],[-80.1256,41.48628],[-80.12537,41.4804],[-80.15677,41.48088],[-80.15947,41.48113],[-80.16185,41.48132],[-80.1792,41.48173],[-80.26514,41.48345],[-80.27868,41.48353],[-80.32598,41.48426],[-80.35833,41.48502],[-80.38007,41.48586],[-80.39827,41.48624],[-80.42815,41.48689],[-80.43115,41.48696],[-80.43152,41.48886],[-80.43295,41.48785],[-80.43149,41.48983],[-80.43209,41.49209],[-80.44148,41.49217],[-80.4449,41.49227],[-80.44495,41.48939],[-80.445,41.48712],[-80.44803,41.48723],[-80.51921,41.48911],[-80.51922,41.49934],[-80.51922,41.49992],[-80.51916,41.52877],[-80.51921,41.53211],[-80.51934,41.5393],[-80.51934,41.55201],[-80.51934,41.5709],[-80.51934,41.57847],[-80.51935,41.60688],[-80.51935,41.6441],[-80.51936,41.66103],[-80.51936,41.66977],[-80.51942,41.67123],[-80.51942,41.67175],[-80.51937,41.70147]]]}},{"type":"Feature","properties":{"name":"CATAGO!","boundary_type":"city","source":"Census TIGER place","fidelity":"approximate","updated":"2026-09","units":"State College borough","note":"Microtransit zone centered on State College in Centre County; zone extent and boundaries from text alone are not precisely defined.","confidence":0.75},"geometry":{"type":"Polygon","coordinates":[[[-77.88242,40.80099],[-77.88239,40.80048],[-77.882,40.7995],[-77.87903,40.80087],[-77.87686,40.80183],[-77.87607,40.80455],[-77.87533,40.80435],[-77.87408,40.80562],[-77.86921,40.8045],[-77.86725,40.80757],[-77.8638,40.80725],[-77.85907,40.80681],[-77.84394,40.80542],[-77.84352,40.80502],[-77.84215,40.80373],[-77.84062,40.79874],[-77.83643,40.79946],[-77.83444,40.79607],[-77.83282,40.7992],[-77.83114,40.79885],[-77.83143,40.79724],[-77.83352,40.79473],[-77.83097,40.79334],[-77.83129,40.7926],[-77.82702,40.79129],[-77.82349,40.79236],[-77.8226,40.79359],[-77.82027,40.79466],[-77.81967,40.79229],[-77.82015,40.79107],[-77.81893,40.78988],[-77.82139,40.78849],[-77.82275,40.791],[-77.82713,40.79],[-77.83274,40.79202],[-77.83395,40.79168],[-77.83382,40.78983],[-77.83774,40.78592],[-77.83753,40.78578],[-77.83419,40.78653],[-77.83276,40.78359],[-77.83499,40.78265],[-77.84359,40.77748],[-77.84692,40.78068],[-77.84952,40.78198],[-77.85307,40.78007],[-77.85127,40.77824],[-77.85496,40.77605],[-77.85189,40.77317],[-77.85428,40.77273],[-77.85523,40.77183],[-77.85822,40.77037],[-77.8629,40.76843],[-77.86664,40.77218],[-77.86675,40.77227],[-77.87013,40.77565],[-77.8683,40.7767],[-77.87099,40.77947],[-77.87244,40.78098],[-77.87484,40.78096],[-77.86948,40.78569],[-77.87126,40.78708],[-77.87262,40.78813],[-77.87338,40.78773],[-77.87559,40.78751],[-77.87795,40.78978],[-77.88143,40.79257],[-77.88337,40.79516],[-77.88288,40.79678],[-77.8857,40.79732],[-77.88621,40.79934],[-77.88242,40.80099]]]}},{"type":"Feature","properties":{"name":"LANtaFlex","boundary_type":"zone_approx","source":"Manual approximation","fidelity":"approximate","updated":"2026-09","units":"buffer 4.54 km @ Macungie borough; buffer 4.54 km @ Bangor borough; buffer 4.54 km @ Slatington borough; buffer 4.54 km @ Coplay borough; buffer 4.54 km @ Coopersburg borough; buffer 4.54 km @ Bath borough; buffer 4.54 km @ Easton city; clipped to Lehigh County; Northampton County","note":"LANtaFlex operates 7 numbered flex zones (501 Macungie, 502 Slate Belt, 503 Slatington/Walnutport, 504 Coplay/Egypt-Airport, 505 Coopersburg, 506 Bath-Hanoverville-Nazareth, 507 West/South Easton) in Lehigh and Northampton counties; CSV notes the largest zone is over 25 sq mi, so each zone is approximated as a ~25 sq mi circle centered on its named town and clipped to the two-county area rather than the town's own (much smaller) municipal boundary. Only one zone's size is public; the other six are sized the same for lack of individual figures, so this is a rough approximation. Zone 502 (Slate Belt) is described by road boundaries reaching the Northampton County line, not by a town list (https://lantabus.com/routes-and-schedules/route-502-slate-belt-flex/), so it is centered on Bangor, the Slate Belt's largest borough. Hanoverville (part of zone 506, an unincorporated place near Bath) has no separate Census place and is not separately resolvable; zone 506 is centered on Bath. Sources: https://lantabus.com/lantaflex/ , https://lantabus.com/routes-and-schedules/route-502-slate-belt-flex/","confidence":0.45},"geometry":{"type":"MultiPolygon","coordinates":[[[[-75.43358,40.48495],[-75.43609,40.48795],[-75.43825,40.49111],[-75.44004,40.49439],[-75.44145,40.49779],[-75.44246,40.50126],[-75.44307,40.50479],[-75.44328,40.50834],[-75.44307,40.5119],[-75.44246,40.51542],[-75.44145,40.5189],[-75.44004,40.52229],[-75.43825,40.52558],[-75.43609,40.52873],[-75.43358,40.53173],[-75.43073,40.53456],[-75.42757,40.53718],[-75.42412,40.53958],[-75.4204,40.54175],[-75.41646,40.54366],[-75.41231,40.5453],[-75.40798,40.54667],[-75.40352,40.54774],[-75.39895,40.54851],[-75.39431,40.54897],[-75.38964,40.54912],[-75.38496,40.54897],[-75.38032,40.54851],[-75.37575,40.54774],[-75.37129,40.54667],[-75.36697,40.5453],[-75.36282,40.54366],[-75.35887,40.54175],[-75.35516,40.53958],[-75.35171,40.53718],[-75.34855,40.53456],[-75.3457,40.53173],[-75.34443,40.53022],[-75.35859,40.52081],[-75.3804,40.50666],[-75.38202,40.50563],[-75.38609,40.50304],[-75.38672,40.50267],[-75.38829,40.5017],[-75.40876,40.4886],[-75.40973,40.48798],[-75.42244,40.47612],[-75.42412,40.4771],[-75.42757,40.4795],[-75.43073,40.48213],[-75.43358,40.48495]]],[[[-75.51471,40.49145],[-75.51787,40.48882],[-75.52132,40.48642],[-75.52503,40.48425],[-75.52898,40.48234],[-75.53313,40.4807],[-75.53746,40.47934],[-75.54192,40.47827],[-75.54649,40.4775],[-75.55113,40.47703],[-75.5558,40.47688],[-75.56048,40.47703],[-75.56512,40.4775],[-75.56969,40.47827],[-75.57415,40.47934],[-75.57848,40.4807],[-75.58263,40.48234],[-75.58658,40.48425],[-75.59029,40.48642],[-75.59374,40.48882],[-75.5969,40.49145],[-75.59975,40.49427],[-75.60226,40.49727],[-75.60443,40.50043],[-75.60622,40.50371],[-75.60762,40.50711],[-75.60864,40.51058],[-75.60925,40.51411],[-75.60945,40.51766],[-75.60925,40.52122],[-75.60864,40.52474],[-75.60762,40.52822],[-75.60622,40.53161],[-75.60443,40.5349],[-75.60226,40.53805],[-75.59975,40.54105],[-75.5969,40.54388],[-75.59374,40.5465],[-75.59029,40.5489],[-75.58658,40.55107],[-75.58263,40.55298],[-75.57848,40.55462],[-75.57415,40.55599],[-75.56969,40.55706],[-75.56512,40.55783],[-75.56048,40.55829],[-75.5558,40.55845],[-75.55113,40.55829],[-75.54649,40.55783],[-75.54192,40.55706],[-75.53746,40.55599],[-75.53313,40.55462],[-75.52898,40.55298],[-75.52503,40.55107],[-75.52132,40.5489],[-75.51787,40.5465],[-75.51471,40.54388],[-75.51186,40.54105],[-75.50934,40.53805],[-75.50718,40.5349],[-75.50539,40.53161],[-75.50398,40.52822],[-75.50297,40.52474],[-75.50236,40.52122],[-75.50216,40.51766],[-75.50236,40.51411],[-75.50297,40.51058],[-75.50398,40.50711],[-75.50539,40.50371],[-75.50718,40.50043],[-75.50934,40.49727],[-75.51186,40.49427],[-75.51471,40.49145]]],[[[-75.45524,40.64399],[-75.45841,40.64137],[-75.46187,40.63896],[-75.46559,40.6368],[-75.46955,40.63488],[-75.47371,40.63324],[-75.47804,40.63188],[-75.48251,40.63081],[-75.48709,40.63004],[-75.49174,40.62958],[-75.49643,40.62942],[-75.50112,40.62958],[-75.50577,40.63004],[-75.51035,40.63081],[-75.51482,40.63188],[-75.51916,40.63324],[-75.52332,40.63488],[-75.52727,40.6368],[-75.53099,40.63896],[-75.53445,40.64137],[-75.53762,40.64399],[-75.54048,40.64681],[-75.543,40.64981],[-75.54516,40.65297],[-75.54696,40.65625],[-75.54837,40.65965],[-75.54938,40.66312],[-75.55,40.66665],[-75.5502,40.6702],[-75.55,40.67376],[-75.54938,40.67729],[-75.54837,40.68076],[-75.54696,40.68415],[-75.54516,40.68744],[-75.543,40.6906],[-75.54048,40.6936],[-75.53762,40.69642],[-75.53445,40.69904],[-75.53099,40.70145],[-75.52727,40.70361],[-75.52332,40.70552],[-75.51916,40.70717],[-75.51482,40.70853],[-75.51035,40.7096],[-75.50577,40.71037],[-75.50112,40.71083],[-75.49643,40.71099],[-75.49174,40.71083],[-75.48709,40.71037],[-75.48251,40.7096],[-75.47804,40.70853],[-75.47371,40.70717],[-75.46955,40.70552],[-75.46559,40.70361],[-75.46187,40.70145],[-75.45841,40.69904],[-75.45524,40.69642],[-75.45238,40.6936],[-75.44986,40.6906],[-75.4477,40.68744],[-75.4459,40.68415],[-75.44449,40.68076],[-75.44348,40.67729],[-75.44287,40.67376],[-75.44266,40.6702],[-75.44287,40.66665],[-75.44348,40.66312],[-75.44449,40.65965],[-75.4459,40.65625],[-75.4477,40.65297],[-75.44986,40.64981],[-75.45238,40.64681],[-75.45524,40.64399]]],[[[-75.21296,40.63808],[-75.21764,40.63823],[-75.22229,40.6387],[-75.22687,40.63947],[-75.23135,40.64054],[-75.23568,40.6419],[-75.23984,40.64354],[-75.2438,40.64545],[-75.24752,40.64762],[-75.25098,40.65002],[-75.25415,40.65264],[-75.25701,40.65547],[-75.25953,40.65847],[-75.26169,40.66162],[-75.26349,40.66491],[-75.2649,40.6683],[-75.26592,40.67178],[-75.26653,40.6753],[-75.26673,40.67886],[-75.26653,40.68241],[-75.26592,40.68594],[-75.2649,40.68942],[-75.26349,40.69281],[-75.26169,40.6961],[-75.25953,40.69925],[-75.25701,40.70225],[-75.25415,40.70507],[-75.25098,40.7077],[-75.24752,40.7101],[-75.2438,40.71227],[-75.23984,40.71418],[-75.23568,40.71582],[-75.23135,40.71718],[-75.22687,40.71825],[-75.22229,40.71902],[-75.21764,40.71949],[-75.21296,40.71964],[-75.20827,40.71949],[-75.20362,40.71902],[-75.19904,40.71825],[-75.19456,40.71718],[-75.19193,40.71636],[-75.19261,40.71587],[-75.19286,40.71562],[-75.19442,40.71402],[-75.19811,40.70654],[-75.19872,40.7053],[-75.20244,40.69543],[-75.20277,40.69454],[-75.20392,40.6915],[-75.20391,40.69147],[-75.2029,40.68946],[-75.20212,40.68791],[-75.20092,40.6855],[-75.19692,40.6813],[-75.19058,40.67938],[-75.19016,40.67942],[-75.18966,40.67947],[-75.18452,40.67997],[-75.18056,40.67936],[-75.17759,40.67773],[-75.1768,40.67571],[-75.17749,40.6726],[-75.17828,40.6716],[-75.18253,40.66626],[-75.18276,40.66597],[-75.18794,40.66381],[-75.19085,40.66194],[-75.19668,40.65512],[-75.20045,40.64922],[-75.20047,40.6469],[-75.19737,40.64457],[-75.19539,40.64308],[-75.19438,40.64059],[-75.19456,40.64054],[-75.19904,40.63947],[-75.20362,40.6387],[-75.20827,40.63823],[-75.21296,40.63808]]],[[[-75.3505,40.7023],[-75.35367,40.69968],[-75.35713,40.69727],[-75.36085,40.69511],[-75.36481,40.6932],[-75.36898,40.69155],[-75.37332,40.69019],[-75.37779,40.68912],[-75.38238,40.68835],[-75.38703,40.68789],[-75.39172,40.68773],[-75.39641,40.68789],[-75.40107,40.68835],[-75.40565,40.68912],[-75.41013,40.69019],[-75.41447,40.69155],[-75.41863,40.6932],[-75.42259,40.69511],[-75.42632,40.69727],[-75.42978,40.69968],[-75.43295,40.7023],[-75.43581,40.70512],[-75.43833,40.70812],[-75.4405,40.71128],[-75.44229,40.71457],[-75.44371,40.71796],[-75.44472,40.72143],[-75.44534,40.72496],[-75.44554,40.72852],[-75.44534,40.73207],[-75.44472,40.7356],[-75.44371,40.73907],[-75.44229,40.74246],[-75.4405,40.74575],[-75.43833,40.74891],[-75.43581,40.75191],[-75.43295,40.75473],[-75.42978,40.75735],[-75.42632,40.75976],[-75.42259,40.76192],[-75.41863,40.76383],[-75.41447,40.76548],[-75.41013,40.76684],[-75.40565,40.76791],[-75.40107,40.76868],[-75.39641,40.76914],[-75.39172,40.7693],[-75.38703,40.76914],[-75.38238,40.76868],[-75.37779,40.76791],[-75.37332,40.76684],[-75.36898,40.76548],[-75.36481,40.76383],[-75.36085,40.76192],[-75.35713,40.75976],[-75.35367,40.75735],[-75.3505,40.75473],[-75.34764,40.75191],[-75.34512,40.74891],[-75.34295,40.74575],[-75.34115,40.74246],[-75.33974,40.73907],[-75.33872,40.7356],[-75.33811,40.73207],[-75.33791,40.72852],[-75.33811,40.72496],[-75.33872,40.72143],[-75.33974,40.71796],[-75.34115,40.71457],[-75.34295,40.71128],[-75.34512,40.70812],[-75.34764,40.70512],[-75.3505,40.7023]]],[[[-75.5658,40.73107],[-75.56897,40.72844],[-75.57243,40.72604],[-75.57616,40.72387],[-75.58012,40.72196],[-75.58429,40.72032],[-75.58863,40.71896],[-75.59311,40.71789],[-75.59769,40.71712],[-75.60235,40.71665],[-75.60704,40.7165],[-75.61173,40.71665],[-75.61639,40.71712],[-75.62098,40.71789],[-75.62545,40.71896],[-75.62979,40.72032],[-75.63396,40.72196],[-75.63792,40.72387],[-75.64165,40.72604],[-75.64511,40.72844],[-75.64828,40.73107],[-75.65114,40.73389],[-75.65367,40.73689],[-75.65584,40.74004],[-75.65763,40.74333],[-75.65905,40.74672],[-75.66006,40.7502],[-75.66068,40.75373],[-75.66088,40.75728],[-75.66068,40.76084],[-75.66006,40.76436],[-75.65905,40.76784],[-75.65763,40.77123],[-75.65584,40.77452],[-75.65367,40.77767],[-75.65208,40.77956],[-75.60907,40.78752],[-75.60898,40.78739],[-75.60805,40.78748],[-75.60261,40.78804],[-75.59841,40.79012],[-75.59545,40.7933],[-75.58866,40.79561],[-75.58863,40.7956],[-75.58429,40.79424],[-75.58012,40.7926],[-75.57616,40.79069],[-75.57243,40.78852],[-75.56897,40.78612],[-75.5658,40.7835],[-75.56294,40.78067],[-75.56041,40.77767],[-75.55824,40.77452],[-75.55645,40.77123],[-75.55503,40.76784],[-75.55402,40.76436],[-75.5534,40.76084],[-75.5532,40.75728],[-75.5534,40.75373],[-75.55402,40.7502],[-75.55503,40.74672],[-75.55645,40.74333],[-75.55824,40.74004],[-75.56041,40.73689],[-75.56294,40.73389],[-75.5658,40.73107]]],[[[-75.16929,40.84103],[-75.17247,40.8384],[-75.17594,40.836],[-75.17967,40.83383],[-75.18364,40.83192],[-75.18781,40.83028],[-75.19216,40.82892],[-75.19664,40.82785],[-75.20124,40.82708],[-75.2059,40.82661],[-75.2106,40.82646],[-75.2153,40.82661],[-75.21997,40.82708],[-75.22456,40.82785],[-75.22905,40.82892],[-75.23339,40.83028],[-75.23757,40.83192],[-75.24154,40.83383],[-75.24527,40.836],[-75.24874,40.8384],[-75.25192,40.84103],[-75.25478,40.84385],[-75.25731,40.84685],[-75.25948,40.85001],[-75.26128,40.85329],[-75.2627,40.85669],[-75.26371,40.86016],[-75.26433,40.86369],[-75.26453,40.86724],[-75.26433,40.8708],[-75.26371,40.87432],[-75.2627,40.8778],[-75.26128,40.88119],[-75.25948,40.88448],[-75.25742,40.88747],[-75.2442,40.8942],[-75.23429,40.89891],[-75.2325,40.89976],[-75.23567,40.90331],[-75.23339,40.9042],[-75.22905,40.90557],[-75.22456,40.90664],[-75.21997,40.90741],[-75.2153,40.90787],[-75.2106,40.90803],[-75.2059,40.90787],[-75.20124,40.90741],[-75.19664,40.90664],[-75.19216,40.90557],[-75.18781,40.9042],[-75.18364,40.90256],[-75.17967,40.90065],[-75.17594,40.89848],[-75.17247,40.89608],[-75.16929,40.89346],[-75.16643,40.89063],[-75.1639,40.88763],[-75.16173,40.88448],[-75.15993,40.88119],[-75.15851,40.8778],[-75.15749,40.87432],[-75.15688,40.8708],[-75.15667,40.86724],[-75.15688,40.86369],[-75.15749,40.86016],[-75.15851,40.85669],[-75.15993,40.85329],[-75.16173,40.85001],[-75.1639,40.84685],[-75.16643,40.84385],[-75.16929,40.84103]]]]}},{"type":"Feature","properties":{"name":"Monroe County Pony Plus (MCTA)","boundary_type":"county","source":"Census TIGER county","fidelity":"exact","updated":"2026-09","units":"Monroe County","note":"Multiple zones within Monroe County in Pocono region; county-wide service provided by Monroe County Transit Authority.","confidence":0.85},"geometry":{"type":"Polygon","coordinates":[[[-75.64312,41.12672],[-75.64026,41.12682],[-75.63818,41.126],[-75.63503,41.12311],[-75.63416,41.12325],[-75.63283,41.12794],[-75.62807,41.12829],[-75.62599,41.13039],[-75.62545,41.13186],[-75.62794,41.13262],[-75.62863,41.13444],[-75.62838,41.13685],[-75.62489,41.13795],[-75.6214,41.14109],[-75.61627,41.14302],[-75.61417,41.14517],[-75.6141,41.14649],[-75.61558,41.15071],[-75.61354,41.15127],[-75.60931,41.15005],[-75.60715,41.15026],[-75.6033,41.15187],[-75.60315,41.15388],[-75.6045,41.15611],[-75.60084,41.15999],[-75.60074,41.1615],[-75.60029,41.16193],[-75.59863,41.16306],[-75.59834,41.16329],[-75.59726,41.1632],[-75.59633,41.16582],[-75.5979,41.16806],[-75.59775,41.17027],[-75.59854,41.17193],[-75.59376,41.17178],[-75.58781,41.17267],[-75.58272,41.17674],[-75.57748,41.17754],[-75.57665,41.17786],[-75.57555,41.18088],[-75.57621,41.18178],[-75.57637,41.18655],[-75.57413,41.18908],[-75.57021,41.19113],[-75.57058,41.19262],[-75.56916,41.19334],[-75.5709,41.19504],[-75.56967,41.19712],[-75.56974,41.19874],[-75.56694,41.19961],[-75.5634,41.20386],[-75.56264,41.20535],[-75.56007,41.20505],[-75.55886,41.20686],[-75.55472,41.20765],[-75.55516,41.20899],[-75.55402,41.21168],[-75.55237,41.21244],[-75.55115,41.21499],[-75.54914,41.2174],[-75.54441,41.22184],[-75.54389,41.2236],[-75.54168,41.22419],[-75.53985,41.22546],[-75.53507,41.22503],[-75.53245,41.22532],[-75.52936,41.22659],[-75.5266,41.22489],[-75.52558,41.22302],[-75.52167,41.22197],[-75.51801,41.21959],[-75.51649,41.21938],[-75.51461,41.2221],[-75.51241,41.22319],[-75.50925,41.22799],[-75.50834,41.23295],[-75.50561,41.23254],[-75.50133,41.23268],[-75.49738,41.23276],[-75.49216,41.23293],[-75.45944,41.23419],[-75.45165,41.23457],[-75.44492,41.23486],[-75.42172,41.23582],[-75.37463,41.23778],[-75.37223,41.23796],[-75.36689,41.23826],[-75.36581,41.23903],[-75.36276,41.23941],[-75.35995,41.23871],[-75.35918,41.23921],[-75.30735,41.24223],[-75.26531,41.24459],[-75.24209,41.24589],[-75.23401,41.2461],[-75.12972,41.2521],[-75.13843,41.21863],[-75.15651,41.15034],[-75.15222,41.14982],[-75.14935,41.14947],[-75.08268,41.14171],[-75.07715,41.14115],[-75.0628,41.12165],[-75.05475,41.11053],[-75.05407,41.10959],[-75.05184,41.1065],[-75.03922,41.0888],[-75.03792,41.08843],[-75.03387,41.08756],[-75.03259,41.08527],[-75.0291,41.08285],[-75.02796,41.07987],[-75.0272,41.07987],[-75.02541,41.08242],[-75.025,41.08352],[-75.02045,41.08479],[-75.01855,41.08489],[-75.01499,41.0837],[-75.01301,41.08363],[-75.01243,41.08417],[-75.01277,41.08659],[-75.01178,41.08801],[-75.00865,41.08792],[-75.00684,41.08851],[-75.00296,41.09176],[-74.99962,41.08937],[-74.99714,41.08985],[-74.9964,41.09299],[-74.99365,41.09387],[-74.99172,41.09228],[-74.99181,41.08913],[-74.99101,41.08858],[-74.98826,41.08822],[-74.98478,41.08855],[-74.98131,41.08986],[-74.9753,41.09407],[-74.97204,41.09556],[-74.96943,41.09607],[-74.96746,41.09533],[-74.9671,41.09434],[-74.96676,41.09343],[-74.96839,41.0878],[-74.97099,41.08529],[-74.98259,41.07917],[-74.98933,41.07832],[-74.99485,41.07656],[-74.99962,41.07394],[-75.00638,41.06755],[-75.01087,41.06766],[-75.0131,41.06649],[-75.01652,41.05947],[-75.01707,41.05677],[-75.0264,41.04644],[-75.02736,41.04454],[-75.02613,41.04195],[-75.0271,41.03953],[-75.03051,41.03876],[-75.036,41.03622],[-75.04179,41.0317],[-75.04422,41.03067],[-75.05247,41.02717],[-75.075,41.01713],[-75.0811,41.01684],[-75.08422,41.01601],[-75.08533,41.01491],[-75.09263,41.00992],[-75.10068,41.00672],[-75.10911,41.0041],[-75.11059,41.00217],[-75.12342,40.99613],[-75.1272,40.99395],[-75.13057,40.99109],[-75.13146,40.98923],[-75.13162,40.9889],[-75.13153,40.98491],[-75.13211,40.98257],[-75.13309,40.98018],[-75.13552,40.97686],[-75.13553,40.97381],[-75.13378,40.97097],[-75.13136,40.96928],[-75.12907,40.96898],[-75.1226,40.97015],[-75.12023,40.9687],[-75.12831,40.95964],[-75.12923,40.95893],[-75.13896,40.95439],[-75.14513,40.95158],[-75.15293,40.94931],[-75.16039,40.94849],[-75.16179,40.94839],[-75.16946,40.94801],[-75.17684,40.94552],[-75.17807,40.94032],[-75.18753,40.93713],[-75.19554,40.93634],[-75.217,40.9284],[-75.21819,40.92787],[-75.22182,40.91958],[-75.24113,40.90944],[-75.2325,40.89976],[-75.23429,40.89891],[-75.2442,40.8942],[-75.26722,40.88247],[-75.27353,40.87315],[-75.28404,40.86604],[-75.29007,40.86393],[-75.29483,40.86224],[-75.29494,40.8622],[-75.30059,40.85956],[-75.31613,40.85658],[-75.32093,40.85566],[-75.3223,40.85504],[-75.33842,40.84674],[-75.33979,40.84594],[-75.37365,40.83429],[-75.37885,40.83253],[-75.38327,40.83104],[-75.41447,40.82644],[-75.41676,40.8261],[-75.42049,40.82345],[-75.44327,40.81828],[-75.47254,40.81505],[-75.47419,40.81475],[-75.48258,40.82993],[-75.48761,40.83797],[-75.49358,40.84644],[-75.49963,40.85419],[-75.51343,40.87272],[-75.51795,40.87819],[-75.52682,40.89039],[-75.53317,40.89861],[-75.55644,40.92869],[-75.5688,40.94431],[-75.57459,40.95132],[-75.54624,40.9646],[-75.52721,40.97328],[-75.51461,40.97878],[-75.50044,40.98512],[-75.49599,40.98718],[-75.49736,40.98844],[-75.50898,40.99867],[-75.5123,41.00211],[-75.51589,41.00554],[-75.52855,41.01747],[-75.54336,41.03161],[-75.54614,41.03429],[-75.5614,41.04899],[-75.56315,41.0498],[-75.56376,41.04916],[-75.56985,41.05033],[-75.56965,41.0524],[-75.57043,41.05331],[-75.57,41.05484],[-75.56841,41.05532],[-75.56889,41.05661],[-75.57114,41.05752],[-75.57119,41.0593],[-75.57489,41.06269],[-75.5746,41.0636],[-75.57599,41.06501],[-75.57717,41.06817],[-75.57894,41.06875],[-75.58051,41.06776],[-75.58207,41.06882],[-75.58327,41.07064],[-75.58296,41.07263],[-75.58554,41.07383],[-75.58746,41.07597],[-75.5897,41.07704],[-75.5918,41.07825],[-75.59403,41.08075],[-75.59602,41.08068],[-75.60082,41.08448],[-75.60439,41.08428],[-75.60535,41.08471],[-75.60607,41.08562],[-75.60515,41.08914],[-75.60505,41.09171],[-75.60411,41.09338],[-75.60489,41.09414],[-75.60746,41.09453],[-75.61269,41.09424],[-75.61426,41.09616],[-75.61399,41.09968],[-75.61563,41.10255],[-75.61595,41.10476],[-75.62061,41.10672],[-75.62004,41.10897],[-75.62482,41.1114],[-75.62613,41.1106],[-75.62709,41.10799],[-75.62824,41.1069],[-75.63122,41.10751],[-75.63298,41.10853],[-75.63432,41.11215],[-75.63759,41.1134],[-75.6404,41.11356],[-75.64397,41.11277],[-75.64642,41.11327],[-75.6467,41.1142],[-75.64574,41.11813],[-75.6477,41.12178],[-75.64941,41.1223],[-75.64904,41.12508],[-75.64312,41.12672]]]}},{"type":"Feature","properties":{"name":"rabbittransit Stop Hopper","boundary_type":"places","source":"Census TIGER place","fidelity":"exact","updated":"2026-09","units":"York city; Red Lion borough; Dallastown borough; East York CDP; Selinsgrove borough; Sunbury city; Danville borough; Bloomsburg town; Lewisburg borough; Milton borough; Gettysburg borough; Hanover borough","note":"Multi-zone microtransit service across south-central PA towns; zones listed as presented in service description.","confidence":0.85},"geometry":{"type":"MultiPolygon","coordinates":[[[[-76.9976,39.82342],[-76.99897,39.82604],[-76.99595,39.82535],[-76.99222,39.82564],[-76.99269,39.82974],[-76.99172,39.83066],[-76.98524,39.83058],[-76.98465,39.83177],[-76.98023,39.8277],[-76.97631,39.82574],[-76.97266,39.82744],[-76.96976,39.82585],[-76.96932,39.82442],[-76.96345,39.82175],[-76.96473,39.82029],[-76.96696,39.82052],[-76.96306,39.81477],[-76.96603,39.81323],[-76.96914,39.80915],[-76.97028,39.80807],[-76.97096,39.80556],[-76.97148,39.8004],[-76.97158,39.79946],[-76.97169,39.7984],[-76.97386,39.79802],[-76.97591,39.79476],[-76.97542,39.79329],[-76.98089,39.79331],[-76.98255,39.79316],[-76.98639,39.79116],[-76.98804,39.79252],[-76.98897,39.79391],[-76.98934,39.79426],[-76.99007,39.79459],[-76.99332,39.79656],[-76.99399,39.79945],[-76.99483,39.79896],[-76.99958,39.79499],[-76.99959,39.80332],[-76.9996,39.80504],[-76.99961,39.80878],[-76.99962,39.81212],[-76.99965,39.81963],[-76.99905,39.81768],[-76.99656,39.8178],[-76.99563,39.81984],[-76.9976,39.82342]]],[[[-77.23116,39.84315],[-77.23113,39.83964],[-77.22959,39.83894],[-77.2215,39.83695],[-77.21995,39.83566],[-77.21984,39.83512],[-77.21904,39.83187],[-77.21764,39.82936],[-77.22697,39.82582],[-77.22886,39.82371],[-77.228,39.82151],[-77.22894,39.82057],[-77.22953,39.81947],[-77.23283,39.82016],[-77.23699,39.81593],[-77.24176,39.8183],[-77.2397,39.8214],[-77.24177,39.82174],[-77.24471,39.82385],[-77.24576,39.82654],[-77.24407,39.82961],[-77.24579,39.82908],[-77.24604,39.83312],[-77.24484,39.83382],[-77.24606,39.83522],[-77.24506,39.83587],[-77.2424,39.83953],[-77.24021,39.84122],[-77.24091,39.84371],[-77.237,39.84001],[-77.23116,39.84315]]],[[[-76.75432,39.97435],[-76.75682,39.97722],[-76.75704,39.97523],[-76.76199,39.974],[-76.7626,39.97659],[-76.7608,39.97812],[-76.75736,39.97786],[-76.75792,39.97851],[-76.75975,39.98002],[-76.76107,39.98096],[-76.75967,39.98178],[-76.7593,39.98557],[-76.75584,39.98943],[-76.75076,39.98818],[-76.74669,39.99258],[-76.7434,39.9878],[-76.74518,39.9847],[-76.74488,39.98182],[-76.74392,39.9769],[-76.74359,39.97537],[-76.74312,39.97305],[-76.73708,39.97195],[-76.73528,39.97156],[-76.73282,39.97192],[-76.73181,39.97182],[-76.73113,39.96914],[-76.73085,39.96856],[-76.731,39.97106],[-76.72979,39.97268],[-76.72628,39.97406],[-76.72568,39.97101],[-76.72408,39.96881],[-76.71754,39.97237],[-76.71231,39.97424],[-76.70896,39.97514],[-76.70679,39.97558],[-76.70625,39.97869],[-76.70339,39.97841],[-76.70339,39.9762],[-76.70185,39.97648],[-76.70076,39.97225],[-76.70306,39.97198],[-76.70269,39.9714],[-76.69995,39.96743],[-76.69974,39.96483],[-76.69945,39.96182],[-76.70728,39.96131],[-76.70475,39.95488],[-76.70385,39.95128],[-76.70191,39.95137],[-76.7018,39.94916],[-76.7038,39.9485],[-76.70535,39.9501],[-76.70551,39.94973],[-76.70665,39.94965],[-76.70606,39.94995],[-76.7124,39.95278],[-76.70875,39.94917],[-76.71192,39.94832],[-76.71712,39.94679],[-76.71581,39.94341],[-76.71667,39.9428],[-76.71826,39.9457],[-76.71955,39.94492],[-76.7219,39.94942],[-76.72349,39.94918],[-76.73095,39.94791],[-76.73162,39.94862],[-76.73225,39.94936],[-76.73383,39.95078],[-76.73636,39.95326],[-76.73836,39.95286],[-76.74312,39.95145],[-76.74604,39.94944],[-76.74715,39.95101],[-76.74878,39.9523],[-76.74912,39.95261],[-76.74994,39.95401],[-76.75118,39.95601],[-76.75126,39.95617],[-76.75155,39.95871],[-76.75241,39.95898],[-76.75805,39.96092],[-76.76197,39.96191],[-76.76281,39.96529],[-76.75515,39.96612],[-76.75583,39.96932],[-76.75134,39.96961],[-76.7513,39.97061],[-76.75432,39.97435]]],[[[-76.8748,40.80808],[-76.86757,40.80959],[-76.86964,40.81191],[-76.86814,40.81249],[-76.86683,40.81177],[-76.86101,40.81243],[-76.85779,40.81176],[-76.85655,40.81047],[-76.85659,40.81002],[-76.85532,40.80988],[-76.84933,40.80967],[-76.84891,40.80599],[-76.85146,40.80196],[-76.85446,40.7956],[-76.85609,40.79121],[-76.85667,40.78838],[-76.86504,40.78999],[-76.86629,40.79027],[-76.87559,40.78872],[-76.87666,40.79235],[-76.87901,40.79195],[-76.88012,40.79066],[-76.88009,40.79494],[-76.88081,40.79776],[-76.88005,40.79938],[-76.87646,40.79881],[-76.87605,40.80122],[-76.8748,40.80808]]],[[[-76.79765,40.86239],[-76.79516,40.86632],[-76.79449,40.86881],[-76.79332,40.8743],[-76.7926,40.87572],[-76.7915,40.87684],[-76.78868,40.87819],[-76.78644,40.87696],[-76.78367,40.87543],[-76.78324,40.87626],[-76.78034,40.87706],[-76.77929,40.87673],[-76.78036,40.87467],[-76.78123,40.87082],[-76.78029,40.86972],[-76.7768,40.8683],[-76.7776,40.86747],[-76.77392,40.86659],[-76.77461,40.86485],[-76.7725,40.86575],[-76.76643,40.86591],[-76.76577,40.8608],[-76.77285,40.85905],[-76.77327,40.85941],[-76.7764,40.85911],[-76.77511,40.85448],[-76.77603,40.85398],[-76.78001,40.85381],[-76.78902,40.85241],[-76.79392,40.85205],[-76.79728,40.85042],[-76.79729,40.84875],[-76.79646,40.84738],[-76.79872,40.84554],[-76.80381,40.84334],[-76.8055,40.84207],[-76.80483,40.84509],[-76.80496,40.8459],[-76.80289,40.85106],[-76.8015,40.8547],[-76.79782,40.86215],[-76.79765,40.86239]]],[[[-76.8928,40.97202],[-76.88933,40.97104],[-76.88512,40.97076],[-76.88338,40.96987],[-76.88217,40.96868],[-76.88137,40.96773],[-76.88068,40.96657],[-76.87714,40.95949],[-76.87747,40.95707],[-76.87759,40.95608],[-76.8773,40.95458],[-76.87888,40.95626],[-76.88095,40.95565],[-76.88593,40.95857],[-76.88998,40.9548],[-76.89064,40.95569],[-76.89191,40.95862],[-76.89257,40.96524],[-76.89394,40.96609],[-76.89437,40.9633],[-76.90567,40.96243],[-76.9059,40.96401],[-76.90825,40.96401],[-76.90861,40.9672],[-76.89917,40.9671],[-76.89852,40.97113],[-76.89626,40.97121],[-76.89456,40.97125],[-76.8928,40.97202]]],[[[-76.86143,41.03339],[-76.86147,41.03357],[-76.8615,41.03395],[-76.85316,41.03369],[-76.85082,41.03328],[-76.85077,41.03511],[-76.84459,41.03524],[-76.843,41.03622],[-76.8429,41.03735],[-76.84119,41.03731],[-76.84011,41.03484],[-76.8413,41.0345],[-76.83984,41.03103],[-76.84236,41.03061],[-76.84059,41.02563],[-76.84028,41.02075],[-76.84002,41.01745],[-76.83844,41.01761],[-76.83857,41.01868],[-76.83604,41.0187],[-76.83428,41.01984],[-76.83216,41.01548],[-76.83978,41.01477],[-76.83917,41.00741],[-76.84136,41.00733],[-76.84126,41.00615],[-76.83778,41.00681],[-76.83762,41.00521],[-76.83513,41.00532],[-76.83477,41.00418],[-76.83745,41.00132],[-76.8408,41.00149],[-76.84822,41.00421],[-76.84987,41.0032],[-76.85102,40.99825],[-76.85,40.99831],[-76.84905,40.9956],[-76.84953,40.99484],[-76.84766,40.99258],[-76.84847,40.99068],[-76.85112,40.98886],[-76.84983,40.98649],[-76.84852,40.98536],[-76.84716,40.98593],[-76.84399,40.98449],[-76.84244,40.98238],[-76.83973,40.9789],[-76.83989,40.97762],[-76.84817,40.9728],[-76.84583,40.97027],[-76.84569,40.96818],[-76.84761,40.96842],[-76.85056,40.96878],[-76.85127,40.96985],[-76.85118,40.97159],[-76.85383,40.97168],[-76.85375,40.97077],[-76.85809,40.97238],[-76.85812,40.97531],[-76.85243,40.97579],[-76.84867,40.97862],[-76.85114,40.97881],[-76.85158,40.98036],[-76.85299,40.98169],[-76.85458,40.98163],[-76.85435,40.98352],[-76.8569,40.98647],[-76.8571,40.98768],[-76.85856,40.98849],[-76.85859,40.99043],[-76.8572,40.9905],[-76.85607,40.9918],[-76.8586,40.99197],[-76.85811,40.99617],[-76.85588,41.00356],[-76.85175,41.00366],[-76.85189,41.00619],[-76.85456,41.00778],[-76.8551,41.00604],[-76.85678,41.00607],[-76.85609,41.00803],[-76.86175,41.0079],[-76.86739,41.00794],[-76.86612,41.01323],[-76.8651,41.01858],[-76.86454,41.0198],[-76.86125,41.02849],[-76.86143,41.03339]],[[-76.84894,41.02604],[-76.85122,41.02608],[-76.85142,41.02438],[-76.85051,41.0243],[-76.84811,41.02437],[-76.84811,41.02448],[-76.84894,41.02604]],[[-76.84486,41.00606],[-76.84456,41.00567],[-76.84499,41.0053],[-76.84389,41.00456],[-76.84337,41.00495],[-76.84348,41.00611],[-76.84486,41.00606]],[[-76.84441,41.0038],[-76.84326,41.00339],[-76.84281,41.00382],[-76.84376,41.00448],[-76.84441,41.0038]]],[[[-76.62247,39.89573],[-76.6223,39.89608],[-76.62172,39.89603],[-76.62203,39.89541],[-76.62243,39.89553],[-76.62247,39.89573]]],[[[-76.63924,39.9052],[-76.63866,39.90516],[-76.6374,39.90499],[-76.63457,39.90463],[-76.62929,39.89992],[-76.62783,39.89951],[-76.62794,39.89871],[-76.62797,39.8971],[-76.63127,39.8967],[-76.63419,39.89623],[-76.63471,39.89563],[-76.63726,39.89359],[-76.64447,39.89046],[-76.64616,39.89292],[-76.64624,39.89285],[-76.64627,39.89317],[-76.64487,39.89388],[-76.64737,39.89648],[-76.64562,39.89904],[-76.64939,39.89988],[-76.6508,39.89903],[-76.65072,39.90101],[-76.65242,39.90335],[-76.65302,39.90601],[-76.6532,39.90682],[-76.64898,39.90714],[-76.64695,39.90545],[-76.64386,39.90472],[-76.64312,39.90334],[-76.63924,39.9052]]],[[[-76.61476,39.90784],[-76.61489,39.91025],[-76.61236,39.91107],[-76.6099,39.91131],[-76.60901,39.91095],[-76.61021,39.90953],[-76.6066,39.90635],[-76.60818,39.90524],[-76.60532,39.90404],[-76.60308,39.90547],[-76.60105,39.90619],[-76.59669,39.90462],[-76.59654,39.90281],[-76.59336,39.90299],[-76.59449,39.90174],[-76.59167,39.90203],[-76.59148,39.9009],[-76.59719,39.90016],[-76.59848,39.89661],[-76.59469,39.88997],[-76.59536,39.88878],[-76.59369,39.88772],[-76.59524,39.88727],[-76.59659,39.88973],[-76.59812,39.88893],[-76.60112,39.89406],[-76.6033,39.89165],[-76.60451,39.89168],[-76.61116,39.89024],[-76.61501,39.88727],[-76.61918,39.89182],[-76.61791,39.89341],[-76.6156,39.89313],[-76.61356,39.8944],[-76.61542,39.89474],[-76.61814,39.89567],[-76.6203,39.8959],[-76.62078,39.89657],[-76.62146,39.89846],[-76.62153,39.89964],[-76.61707,39.9015],[-76.61535,39.90223],[-76.61658,39.90373],[-76.61303,39.9053],[-76.61476,39.90784]]],[[[-76.66028,39.97602],[-76.66015,39.97549],[-76.65972,39.97026],[-76.65959,39.96705],[-76.66035,39.96179],[-76.66036,39.96133],[-76.66032,39.96092],[-76.66485,39.95878],[-76.6662,39.95814],[-76.67035,39.95618],[-76.67077,39.95564],[-76.67079,39.95545],[-76.67194,39.95465],[-76.67235,39.95457],[-76.67305,39.95414],[-76.67378,39.95385],[-76.67497,39.95399],[-76.67571,39.95364],[-76.67843,39.9503],[-76.67966,39.95032],[-76.68043,39.95141],[-76.68147,39.95092],[-76.68354,39.95358],[-76.68476,39.95433],[-76.68477,39.95826],[-76.68498,39.96058],[-76.68557,39.96218],[-76.68659,39.96392],[-76.6929,39.97071],[-76.69413,39.97294],[-76.69641,39.97746],[-76.69485,39.97774],[-76.66485,39.98318],[-76.66396,39.98232],[-76.66156,39.97908],[-76.66131,39.97847],[-76.66028,39.97602]]],[[[-76.61932,40.97281],[-76.61622,40.97017],[-76.6165,40.97181],[-76.61779,40.97454],[-76.61675,40.97514],[-76.61749,40.97629],[-76.61541,40.97788],[-76.61737,40.9792],[-76.61404,40.98065],[-76.61247,40.97632],[-76.61488,40.97465],[-76.61509,40.97293],[-76.61318,40.97288],[-76.60699,40.96495],[-76.60322,40.96029],[-76.60221,40.95989],[-76.59905,40.96064],[-76.59256,40.95923],[-76.59508,40.95595],[-76.59675,40.95595],[-76.5966,40.95433],[-76.59844,40.95434],[-76.60246,40.94871],[-76.60469,40.94632],[-76.60828,40.94908],[-76.61158,40.95227],[-76.61166,40.95228],[-76.61408,40.95451],[-76.61972,40.95914],[-76.62848,40.96389],[-76.63295,40.96537],[-76.63328,40.96791],[-76.63325,40.96866],[-76.62328,40.96659],[-76.6208,40.97004],[-76.61839,40.97013],[-76.62157,40.97179],[-76.61932,40.97281]]],[[[-76.46075,41.00492],[-76.46224,41.0063],[-76.46836,41.00845],[-76.47051,41.00975],[-76.46988,41.01233],[-76.47266,41.01303],[-76.47427,41.01447],[-76.47571,41.01835],[-76.47333,41.02287],[-76.46903,41.02495],[-76.46549,41.02517],[-76.4601,41.02465],[-76.45893,41.02311],[-76.45635,41.02231],[-76.45307,41.02451],[-76.45104,41.02484],[-76.4503,41.02401],[-76.44799,41.0213],[-76.44226,41.01417],[-76.4371,41.00726],[-76.43513,41.00487],[-76.43165,41.00079],[-76.42807,40.99655],[-76.43926,40.99252],[-76.45565,40.98492],[-76.4587,40.98305],[-76.46434,40.9789],[-76.46638,40.97633],[-76.47082,40.98106],[-76.47284,40.98146],[-76.47384,40.98192],[-76.47443,40.9846],[-76.47451,40.98641],[-76.47728,40.99003],[-76.47733,40.99156],[-76.47387,40.99477],[-76.47343,40.99523],[-76.46582,41.00092],[-76.46123,41.00394],[-76.46075,41.00492]]]]}},{"type":"Feature","properties":{"name":"SEPTA Go","boundary_type":"counties","source":"Census TIGER county","fidelity":"exact","updated":"2026-09","units":"Delaware County; Montgomery County","note":"6 planned zones across Delaware and Montgomery counties in Philadelphia suburbs; phases 2-3 (Spring/Summer 2027). Service area inferred from named counties.","confidence":0.8},"geometry":{"type":"Polygon","coordinates":[[[-75.59671,39.86434],[-75.59523,39.86659],[-75.59301,39.86704],[-75.59322,39.86948],[-75.59555,39.87075],[-75.5962,39.87182],[-75.59667,39.87293],[-75.59791,39.87446],[-75.58476,39.88098],[-75.58719,39.88421],[-75.58419,39.88457],[-75.58242,39.88574],[-75.58041,39.88375],[-75.57888,39.88447],[-75.57116,39.88814],[-75.57425,39.89215],[-75.57252,39.89301],[-75.57242,39.89474],[-75.57338,39.8964],[-75.56254,39.90164],[-75.56237,39.90171],[-75.55929,39.90298],[-75.55927,39.90475],[-75.56131,39.90743],[-75.55864,39.90868],[-75.55611,39.90534],[-75.54881,39.90866],[-75.54873,39.9087],[-75.54642,39.90973],[-75.55045,39.91493],[-75.54249,39.91842],[-75.54411,39.92047],[-75.54439,39.9234],[-75.54108,39.9251],[-75.54273,39.92718],[-75.53611,39.92993],[-75.53024,39.92212],[-75.52717,39.92344],[-75.52583,39.92182],[-75.52461,39.92243],[-75.5235,39.92314],[-75.52726,39.92786],[-75.52836,39.92923],[-75.53047,39.93205],[-75.53017,39.93336],[-75.52617,39.93499],[-75.52539,39.93341],[-75.52454,39.9316],[-75.51905,39.93416],[-75.51834,39.9361],[-75.51954,39.93896],[-75.52382,39.94412],[-75.51045,39.95043],[-75.50787,39.95165],[-75.50213,39.95437],[-75.48075,39.96418],[-75.47349,39.96752],[-75.46219,39.97271],[-75.45243,39.97734],[-75.43605,39.98495],[-75.43619,39.98693],[-75.43563,39.98883],[-75.43822,39.99071],[-75.43836,39.99194],[-75.43685,39.99297],[-75.43769,39.99389],[-75.4406,39.99281],[-75.44076,39.99185],[-75.44285,39.99298],[-75.4431,39.99371],[-75.44995,39.9939],[-75.45083,39.9932],[-75.45184,39.99381],[-75.45377,39.99359],[-75.44881,39.99689],[-75.42882,40.01049],[-75.42308,40.01438],[-75.40434,40.02736],[-75.40642,40.03022],[-75.41499,40.04179],[-75.40653,40.04546],[-75.40521,40.04604],[-75.40048,40.04816],[-75.39853,40.049],[-75.39141,40.05203],[-75.38623,40.0543],[-75.37561,40.059],[-75.36107,40.06554],[-75.36669,40.07236],[-75.39263,40.06097],[-75.39454,40.06327],[-75.40388,40.07607],[-75.40557,40.07845],[-75.40682,40.07972],[-75.40813,40.08129],[-75.40956,40.08305],[-75.40989,40.08374],[-75.41466,40.08944],[-75.41502,40.09014],[-75.41507,40.0903],[-75.41709,40.09283],[-75.41818,40.09474],[-75.42012,40.0972],[-75.43369,40.09142],[-75.43786,40.08957],[-75.44072,40.09432],[-75.45619,40.08778],[-75.4569,40.09138],[-75.45662,40.09385],[-75.46191,40.09635],[-75.46293,40.09725],[-75.46257,40.09998],[-75.46199,40.1015],[-75.46173,40.10303],[-75.46392,40.10353],[-75.46924,40.10738],[-75.4716,40.11185],[-75.4707,40.11487],[-75.46941,40.11666],[-75.46263,40.11958],[-75.46167,40.12082],[-75.46127,40.12433],[-75.46209,40.12527],[-75.46768,40.12765],[-75.47245,40.1293],[-75.47387,40.12919],[-75.48108,40.1268],[-75.49164,40.12608],[-75.49258,40.12614],[-75.49369,40.12649],[-75.49973,40.12958],[-75.50562,40.13263],[-75.5082,40.13552],[-75.50924,40.13662],[-75.5097,40.13706],[-75.51084,40.14053],[-75.50932,40.14559],[-75.50644,40.14832],[-75.5033,40.15109],[-75.50097,40.15448],[-75.50108,40.15744],[-75.5038,40.15973],[-75.50623,40.16011],[-75.50897,40.16009],[-75.51321,40.1583],[-75.51567,40.15486],[-75.51728,40.15168],[-75.51776,40.14974],[-75.51915,40.14796],[-75.52107,40.14707],[-75.52432,40.14772],[-75.52684,40.14955],[-75.52763,40.15094],[-75.52778,40.15311],[-75.52661,40.15856],[-75.52711,40.16235],[-75.52864,40.16751],[-75.52916,40.16868],[-75.53182,40.17061],[-75.53442,40.17236],[-75.53958,40.17497],[-75.54099,40.17595],[-75.54534,40.18255],[-75.54742,40.18645],[-75.54865,40.18842],[-75.54917,40.18954],[-75.55033,40.19343],[-75.5553,40.20411],[-75.55775,40.20798],[-75.55975,40.20925],[-75.56289,40.20987],[-75.56428,40.2091],[-75.56491,40.20618],[-75.56254,40.20207],[-75.56223,40.20056],[-75.56288,40.19736],[-75.56701,40.19428],[-75.57035,40.19412],[-75.57334,40.1953],[-75.57719,40.19836],[-75.57922,40.20104],[-75.57973,40.20182],[-75.58149,40.20712],[-75.58776,40.21445],[-75.59266,40.22549],[-75.5954,40.2323],[-75.59582,40.23522],[-75.59703,40.23684],[-75.60136,40.23805],[-75.60431,40.23782],[-75.60692,40.23613],[-75.60758,40.2347],[-75.60747,40.23277],[-75.60602,40.2311],[-75.6037,40.22955],[-75.60317,40.22701],[-75.60552,40.22481],[-75.61072,40.22306],[-75.61237,40.223],[-75.61452,40.22373],[-75.61628,40.22491],[-75.61697,40.22638],[-75.61958,40.23008],[-75.62213,40.231],[-75.62401,40.23132],[-75.62796,40.23292],[-75.63026,40.23407],[-75.63399,40.2353],[-75.6345,40.23575],[-75.64025,40.23705],[-75.64331,40.2384],[-75.65089,40.24202],[-75.65275,40.242],[-75.65604,40.24117],[-75.65861,40.2419],[-75.65941,40.24234],[-75.6636,40.24476],[-75.66491,40.24506],[-75.6712,40.24458],[-75.67606,40.24255],[-75.67693,40.24216],[-75.68144,40.23914],[-75.68558,40.23658],[-75.68853,40.23619],[-75.69017,40.23645],[-75.69251,40.23894],[-75.69678,40.24186],[-75.69595,40.24236],[-75.68629,40.25463],[-75.67555,40.26795],[-75.66453,40.2811],[-75.64786,40.30174],[-75.64499,40.30525],[-75.63883,40.31277],[-75.63419,40.31841],[-75.62808,40.32587],[-75.62801,40.32595],[-75.62524,40.32936],[-75.62099,40.33484],[-75.61853,40.33786],[-75.61509,40.34209],[-75.60656,40.35246],[-75.58555,40.37792],[-75.58152,40.38285],[-75.56927,40.39789],[-75.55975,40.40972],[-75.55189,40.41936],[-75.5448,40.4282],[-75.54271,40.43061],[-75.53395,40.44181],[-75.52969,40.447],[-75.49874,40.42771],[-75.49819,40.42727],[-75.48406,40.41845],[-75.48289,40.41792],[-75.47653,40.41418],[-75.47126,40.41114],[-75.44565,40.39621],[-75.42567,40.38443],[-75.42223,40.38169],[-75.41147,40.37505],[-75.4104,40.3745],[-75.40225,40.36962],[-75.37246,40.35172],[-75.35322,40.34018],[-75.33934,40.33169],[-75.33461,40.32881],[-75.32991,40.32608],[-75.32904,40.32557],[-75.31718,40.31849],[-75.317,40.31838],[-75.31123,40.31488],[-75.30767,40.31269],[-75.30261,40.3096],[-75.29977,40.30783],[-75.29933,40.30756],[-75.28408,40.2984],[-75.26776,40.28888],[-75.26432,40.28684],[-75.25727,40.28254],[-75.24715,40.27665],[-75.24479,40.27533],[-75.24317,40.27439],[-75.22842,40.26582],[-75.21413,40.25742],[-75.20647,40.25285],[-75.19298,40.24474],[-75.18765,40.24146],[-75.18005,40.23669],[-75.1774,40.23505],[-75.15884,40.22358],[-75.13937,40.21185],[-75.13778,40.21089],[-75.12982,40.20596],[-75.1246,40.20282],[-75.12275,40.20173],[-75.11863,40.19928],[-75.11603,40.19774],[-75.1078,40.19282],[-75.10688,40.19228],[-75.10487,40.19111],[-75.10308,40.19006],[-75.10208,40.18947],[-75.09684,40.18639],[-75.09456,40.18505],[-75.09021,40.18249],[-75.08965,40.18215],[-75.08548,40.1797],[-75.08079,40.17687],[-75.0712,40.17103],[-75.06444,40.16719],[-75.06013,40.16476],[-75.0531,40.16059],[-75.05184,40.15984],[-75.03351,40.14897],[-75.0293,40.14651],[-75.02552,40.14427],[-75.01734,40.13938],[-75.01507,40.13799],[-75.02057,40.13227],[-75.02489,40.12922],[-75.03326,40.12338],[-75.03784,40.12021],[-75.04386,40.116],[-75.04426,40.11571],[-75.04854,40.11273],[-75.05432,40.10869],[-75.05834,40.10589],[-75.06946,40.09441],[-75.07127,40.09253],[-75.0778,40.08577],[-75.08246,40.08288],[-75.08691,40.07865],[-75.09019,40.07524],[-75.09032,40.07511],[-75.09673,40.06899],[-75.08742,40.0636],[-75.09364,40.05743],[-75.0935,40.05724],[-75.09508,40.05609],[-75.1009,40.05272],[-75.10093,40.0527],[-75.10241,40.05179],[-75.10323,40.05135],[-75.10789,40.04819],[-75.10941,40.04584],[-75.10943,40.04587],[-75.11098,40.04677],[-75.11236,40.04756],[-75.1171,40.0503],[-75.11855,40.05113],[-75.11865,40.05119],[-75.12215,40.05318],[-75.12492,40.05468],[-75.12632,40.05548],[-75.12902,40.05709],[-75.13013,40.0578],[-75.13512,40.06099],[-75.13672,40.06182],[-75.13943,40.06336],[-75.1409,40.06424],[-75.14312,40.06549],[-75.14668,40.06755],[-75.14833,40.06849],[-75.1516,40.07033],[-75.15408,40.07173],[-75.15842,40.07417],[-75.16128,40.07576],[-75.1634,40.07695],[-75.16991,40.08082],[-75.1716,40.08181],[-75.17295,40.08258],[-75.17644,40.08465],[-75.17976,40.08133],[-75.1809,40.08022],[-75.18205,40.0791],[-75.1861,40.07512],[-75.18846,40.07275],[-75.1892,40.07317],[-75.19083,40.07411],[-75.1976,40.07799],[-75.2094,40.08493],[-75.21187,40.08609],[-75.21237,40.08599],[-75.21357,40.08715],[-75.22361,40.09291],[-75.2305,40.08602],[-75.23295,40.08362],[-75.24329,40.07349],[-75.25221,40.06528],[-75.25629,40.06108],[-75.26443,40.05409],[-75.25765,40.04761],[-75.2551,40.04612],[-75.25468,40.04592],[-75.2513,40.04351],[-75.24904,40.04185],[-75.2456,40.03765],[-75.2421,40.03564],[-75.2393,40.03289],[-75.23484,40.03007],[-75.23209,40.02799],[-75.22815,40.02603],[-75.22665,40.02527],[-75.22369,40.02371],[-75.22215,40.02261],[-75.21958,40.02171],[-75.21806,40.02094],[-75.21475,40.01778],[-75.21222,40.01546],[-75.20801,40.013],[-75.2076,40.01272],[-75.20577,40.01163],[-75.20738,40.01048],[-75.20822,40.00995],[-75.21374,40.00716],[-75.22066,40.00394],[-75.2264,40.00125],[-75.22746,40.00075],[-75.2353,39.99707],[-75.23733,39.99613],[-75.24569,39.99219],[-75.24795,39.99114],[-75.25,39.99018],[-75.25144,39.9895],[-75.254,39.9883],[-75.26369,39.98266],[-75.26557,39.98183],[-75.26797,39.98076],[-75.26926,39.98019],[-75.27131,39.97928],[-75.27355,39.97828],[-75.27587,39.97725],[-75.27648,39.97696],[-75.28027,39.97496],[-75.27754,39.97113],[-75.27539,39.96957],[-75.2706,39.96866],[-75.27,39.96748],[-75.26739,39.96621],[-75.26545,39.96526],[-75.26049,39.96631],[-75.25908,39.96569],[-75.25711,39.96372],[-75.25414,39.9654],[-75.25031,39.96507],[-75.24806,39.96407],[-75.24769,39.96282],[-75.24855,39.96027],[-75.25088,39.95902],[-75.2495,39.95719],[-75.24901,39.95691],[-75.25082,39.95347],[-75.25158,39.95213],[-75.25161,39.95147],[-75.25012,39.94697],[-75.24721,39.9439],[-75.24703,39.94341],[-75.24037,39.94217],[-75.2399,39.94004],[-75.24063,39.93919],[-75.23957,39.93804],[-75.23688,39.93843],[-75.23487,39.93746],[-75.23492,39.93633],[-75.23683,39.93377],[-75.23762,39.93253],[-75.24191,39.93354],[-75.24337,39.93191],[-75.24364,39.9309],[-75.24434,39.92625],[-75.24776,39.92171],[-75.24746,39.92134],[-75.24748,39.91924],[-75.24734,39.91854],[-75.24694,39.91687],[-75.2472,39.91358],[-75.2515,39.91005],[-75.24993,39.90935],[-75.25032,39.90763],[-75.2525,39.90661],[-75.25349,39.90559],[-75.25129,39.9044],[-75.25561,39.89958],[-75.25509,39.89876],[-75.25736,39.89584],[-75.25679,39.89519],[-75.25911,39.89244],[-75.26174,39.89177],[-75.26248,39.88841],[-75.26488,39.88793],[-75.26515,39.88714],[-75.26284,39.88568],[-75.2646,39.88474],[-75.26194,39.883],[-75.26443,39.88217],[-75.26253,39.87656],[-75.26124,39.87648],[-75.25351,39.87602],[-75.24843,39.87649],[-75.24682,39.87514],[-75.24175,39.87258],[-75.24047,39.87238],[-75.23637,39.87619],[-75.23412,39.87718],[-75.22998,39.87685],[-75.22376,39.87586],[-75.21977,39.87548],[-75.21572,39.87609],[-75.21579,39.87505],[-75.21604,39.87112],[-75.21152,39.86705],[-75.22137,39.86154],[-75.22294,39.8609],[-75.22624,39.85954],[-75.22987,39.85833],[-75.23503,39.85661],[-75.24343,39.8546],[-75.25678,39.85204],[-75.26809,39.84987],[-75.27214,39.84909],[-75.29338,39.84878],[-75.30967,39.85018],[-75.31653,39.84999],[-75.31854,39.84994],[-75.32323,39.84981],[-75.33043,39.84901],[-75.34147,39.84616],[-75.34176,39.84608],[-75.34566,39.84418],[-75.3544,39.83992],[-75.37183,39.82761],[-75.38976,39.81582],[-75.39054,39.81531],[-75.39854,39.81058],[-75.40374,39.80751],[-75.41506,39.80192],[-75.42342,39.80661],[-75.42804,39.80921],[-75.43391,39.81175],[-75.43707,39.81311],[-75.43731,39.81322],[-75.44987,39.81864],[-75.45374,39.82031],[-75.455,39.82077],[-75.45773,39.82177],[-75.45806,39.82189],[-75.45982,39.82253],[-75.45993,39.82257],[-75.46334,39.82381],[-75.47255,39.82654],[-75.47268,39.82658],[-75.47549,39.82741],[-75.48124,39.82911],[-75.49884,39.83331],[-75.49898,39.83333],[-75.49899,39.83333],[-75.51844,39.83631],[-75.51882,39.83634],[-75.52819,39.8372],[-75.5328,39.83762],[-75.53935,39.83821],[-75.53973,39.83822],[-75.54006,39.83823],[-75.54089,39.83825],[-75.55132,39.83852],[-75.57046,39.83901],[-75.57717,39.83866],[-75.57939,39.83855],[-75.57985,39.83853],[-75.5799,39.83852],[-75.58203,39.84145],[-75.58382,39.84302],[-75.58645,39.84434],[-75.58713,39.8443],[-75.58917,39.84321],[-75.59129,39.84045],[-75.59308,39.8375],[-75.59367,39.83745],[-75.59485,39.83729],[-75.59736,39.83888],[-75.59774,39.84115],[-75.59637,39.84235],[-75.59486,39.8449],[-75.59411,39.84994],[-75.59192,39.85141],[-75.592,39.85254],[-75.59464,39.85363],[-75.59874,39.8542],[-75.60125,39.85541],[-75.60153,39.85643],[-75.59641,39.86297],[-75.59671,39.86434]]]}}]}