{"type":"FeatureCollection","features":[{"type":"Feature","properties":{"name":"RIPTA Flex On Demand","boundary_type":"cousubs","source":"Census TIGER county subdivision","fidelity":"exact","updated":"2026-09","units":"South Kingstown town; Narragansett town; Coventry town; West Warwick town; Westerly town; Newport city; Middletown town","note":"Multiple non-contiguous service zones: South County (South Kingstown, Narragansett), Coventry, West Warwick, Westerly, and Aquidneck Island (Newport, Middletown). Pilot launched August 2024, expanded to multiple zones, Aquidneck Island extended through December 31, 2026.","confidence":0.9},"geometry":{"type":"MultiPolygon","coordinates":[[[[-71.85192,41.32466],[-71.84771,41.3296],[-71.84467,41.33058],[-71.83616,41.33601],[-71.83062,41.34125],[-71.82938,41.34241],[-71.8299,41.34664],[-71.8313,41.35129],[-71.8357,41.35357],[-71.83677,41.3551],[-71.83787,41.36015],[-71.83773,41.3633],[-71.83771,41.36371],[-71.83763,41.3655],[-71.83559,41.36707],[-71.83495,41.36756],[-71.8325,41.36944],[-71.83211,41.37008],[-71.83201,41.37024],[-71.83161,41.3709],[-71.83208,41.37296],[-71.83267,41.37562],[-71.83131,41.37772],[-71.83064,41.37877],[-71.83164,41.38002],[-71.83353,41.38237],[-71.833,41.38527],[-71.83265,41.38716],[-71.8352,41.38956],[-71.83817,41.39059],[-71.83863,41.39115],[-71.84106,41.39407],[-71.84213,41.39536],[-71.84224,41.39688],[-71.84115,41.39923],[-71.84173,41.40324],[-71.84326,41.40446],[-71.84347,41.40583],[-71.84282,41.40873],[-71.84256,41.40985],[-71.83965,41.41212],[-71.83688,41.41223],[-71.83411,41.41158],[-71.8279,41.41433],[-71.82457,41.41524],[-71.82387,41.41716],[-71.82033,41.41938],[-71.8169,41.41993],[-71.8129,41.4194],[-71.80681,41.41667],[-71.80368,41.41743],[-71.80144,41.41555],[-71.79768,41.41671],[-71.79767,41.41691],[-71.79632,41.41622],[-71.79712,41.41369],[-71.79698,41.41144],[-71.79837,41.40892],[-71.79598,41.40729],[-71.7988,41.40499],[-71.80347,41.40407],[-71.80054,41.40111],[-71.80049,41.39961],[-71.79982,41.39933],[-71.79976,41.39859],[-71.79726,41.39853],[-71.79471,41.39793],[-71.79437,41.39704],[-71.79807,41.39669],[-71.79846,41.39556],[-71.79722,41.39321],[-71.79649,41.39286],[-71.79226,41.39214],[-71.79003,41.39262],[-71.78877,41.39108],[-71.78666,41.38971],[-71.7852,41.38953],[-71.78412,41.38694],[-71.78264,41.38675],[-71.78204,41.38858],[-71.78045,41.38871],[-71.78042,41.38708],[-71.77922,41.38728],[-71.77876,41.38964],[-71.78078,41.39349],[-71.77901,41.39455],[-71.77781,41.39326],[-71.77623,41.39352],[-71.77418,41.39541],[-71.77153,41.39706],[-71.77267,41.4004],[-71.7711,41.40139],[-71.76718,41.39921],[-71.76947,41.39948],[-71.77055,41.39817],[-71.76944,41.3968],[-71.7696,41.39781],[-71.76807,41.39482],[-71.76566,41.39625],[-71.76449,41.3986],[-71.76332,41.4013],[-71.76133,41.4017],[-71.75819,41.40414],[-71.75594,41.40766],[-71.75515,41.40798],[-71.75047,41.40782],[-71.74785,41.40671],[-71.74828,41.40519],[-71.74687,41.40337],[-71.74536,41.40233],[-71.7421,41.4013],[-71.73993,41.40171],[-71.73835,41.40033],[-71.7311,41.4008],[-71.73508,41.39966],[-71.73364,41.3987],[-71.73125,41.39851],[-71.73088,41.3903],[-71.73078,41.38647],[-71.73011,41.35166],[-71.73039,41.34279],[-71.72988,41.3317],[-71.73072,41.33164],[-71.74676,41.32809],[-71.74892,41.32691],[-71.75166,41.3254],[-71.76103,41.32849],[-71.76277,41.32861],[-71.76302,41.32863],[-71.76639,41.32886],[-71.7737,41.32798],[-71.78596,41.32574],[-71.7966,41.32375],[-71.81534,41.32024],[-71.83375,41.31563],[-71.83612,41.31486],[-71.84528,41.31187],[-71.85743,41.30632],[-71.85747,41.30637],[-71.8599,41.30942],[-71.86277,41.30979],[-71.86267,41.31086],[-71.86211,41.31661],[-71.86051,41.32025],[-71.85746,41.32079],[-71.85192,41.32466]]],[[[-71.42026,41.50338],[-71.41958,41.50365],[-71.42142,41.49863],[-71.42086,41.49321],[-71.4186,41.49213],[-71.42076,41.48998],[-71.42027,41.48358],[-71.41796,41.48207],[-71.41762,41.47793],[-71.4184,41.47265],[-71.41944,41.47161],[-71.42116,41.46989],[-71.42299,41.47268],[-71.42763,41.47254],[-71.43074,41.47064],[-71.43093,41.46565],[-71.43001,41.46114],[-71.42668,41.45882],[-71.42582,41.456],[-71.42685,41.45413],[-71.43026,41.45304],[-71.43209,41.44939],[-71.43114,41.4473],[-71.43361,41.44499],[-71.43813,41.44165],[-71.43833,41.43958],[-71.43906,41.43919],[-71.4406,41.43837],[-71.44222,41.43972],[-71.44279,41.4414],[-71.44895,41.43848],[-71.45463,41.43395],[-71.45468,41.43391],[-71.45469,41.43391],[-71.45471,41.43389],[-71.45584,41.43299],[-71.455,41.43032],[-71.45539,41.428],[-71.45482,41.42182],[-71.45264,41.41778],[-71.45264,41.41687],[-71.45264,41.41476],[-71.45297,41.40968],[-71.45537,41.40796],[-71.45621,41.40512],[-71.45924,41.40312],[-71.46232,41.40128],[-71.46252,41.39822],[-71.46374,41.39575],[-71.46731,41.39495],[-71.46898,41.39362],[-71.47039,41.39184],[-71.47492,41.3861],[-71.4842,41.37184],[-71.48294,41.36593],[-71.48044,41.36242],[-71.4807,41.36111],[-71.48087,41.36025],[-71.48466,41.36144],[-71.4877,41.36149],[-71.48922,41.36237],[-71.48896,41.36435],[-71.4949,41.36827],[-71.49727,41.37131],[-71.50293,41.3742],[-71.5134,41.37524],[-71.52016,41.37652],[-71.5228,41.37669],[-71.52424,41.37678],[-71.52643,41.37692],[-71.53155,41.37649],[-71.53537,41.37496],[-71.53724,41.37333],[-71.5409,41.37301],[-71.54529,41.37404],[-71.55157,41.37442],[-71.5733,41.37044],[-71.58609,41.36809],[-71.59476,41.36516],[-71.59805,41.36506],[-71.59994,41.36481],[-71.60649,41.36394],[-71.61651,41.36299],[-71.62416,41.36121],[-71.62562,41.36076],[-71.62385,41.3658],[-71.61403,41.3935],[-71.60623,41.41541],[-71.60009,41.43249],[-71.59514,41.44622],[-71.59629,41.44752],[-71.59952,41.44991],[-71.60128,41.45028],[-71.6028,41.44933],[-71.60375,41.45],[-71.60714,41.45101],[-71.60891,41.45223],[-71.60732,41.45251],[-71.60518,41.45375],[-71.60441,41.45507],[-71.60246,41.4564],[-71.59863,41.45804],[-71.59855,41.45982],[-71.59692,41.46139],[-71.59917,41.46675],[-71.60205,41.46943],[-71.60238,41.47109],[-71.60502,41.47307],[-71.6059,41.47567],[-71.60394,41.47763],[-71.60118,41.47779],[-71.60099,41.48066],[-71.60266,41.48212],[-71.60201,41.48338],[-71.60405,41.48522],[-71.60427,41.48645],[-71.60626,41.4875],[-71.60891,41.48774],[-71.60801,41.48948],[-71.60864,41.49287],[-71.60769,41.4938],[-71.60893,41.49537],[-71.60874,41.49698],[-71.60952,41.49802],[-71.60749,41.50093],[-71.60772,41.50248],[-71.60832,41.50262],[-71.60933,41.50666],[-71.61304,41.52512],[-71.59239,41.51989],[-71.58698,41.51821],[-71.5571,41.51058],[-71.53053,41.50375],[-71.5149,41.50134],[-71.50789,41.50006],[-71.50344,41.4997],[-71.4973,41.49816],[-71.49186,41.49722],[-71.45811,41.49907],[-71.45797,41.49906],[-71.45372,41.49976],[-71.4501,41.5018],[-71.44815,41.50279],[-71.43083,41.50316],[-71.42026,41.50338]]],[[[-71.32689,41.45196],[-71.32757,41.45287],[-71.32635,41.45471],[-71.32495,41.45469],[-71.3243,41.45392],[-71.32565,41.45211],[-71.32689,41.45196]]],[[[-71.35827,41.46443],[-71.35721,41.46612],[-71.35277,41.46924],[-71.3479,41.47059],[-71.34183,41.47601],[-71.33644,41.48199],[-71.33438,41.4782],[-71.33637,41.47174],[-71.33599,41.46965],[-71.32366,41.47577],[-71.32353,41.47583],[-71.31913,41.47692],[-71.31652,41.47756],[-71.31726,41.48247],[-71.31806,41.48776],[-71.31947,41.48793],[-71.32115,41.48812],[-71.32282,41.49115],[-71.3229,41.49444],[-71.32303,41.49942],[-71.32312,41.50309],[-71.3278,41.50426],[-71.33069,41.5077],[-71.32931,41.51383],[-71.32603,41.51431],[-71.32545,41.51728],[-71.32803,41.51885],[-71.32713,41.52159],[-71.32399,41.52241],[-71.3209,41.51949],[-71.31981,41.51954],[-71.31861,41.51961],[-71.31458,41.51981],[-71.31267,41.52143],[-71.31125,41.52262],[-71.31135,41.52422],[-71.31415,41.53145],[-71.3127,41.53651],[-71.30808,41.53938],[-71.30808,41.54293],[-71.31113,41.54405],[-71.31053,41.54692],[-71.30695,41.55368],[-71.30565,41.55615],[-71.30554,41.55636],[-71.30365,41.55992],[-71.30161,41.56203],[-71.30026,41.56101],[-71.29075,41.55422],[-71.28062,41.54697],[-71.26566,41.53827],[-71.26572,41.53818],[-71.23345,41.51407],[-71.23346,41.51405],[-71.23613,41.51093],[-71.24074,41.50555],[-71.24074,41.5017],[-71.24667,41.49426],[-71.24799,41.49029],[-71.24685,41.48741],[-71.24426,41.48574],[-71.24203,41.48534],[-71.23811,41.48606],[-71.23744,41.48571],[-71.23761,41.48228],[-71.23833,41.48076],[-71.23968,41.48025],[-71.24043,41.47615],[-71.24228,41.47524],[-71.24373,41.4752],[-71.24489,41.47384],[-71.24643,41.47295],[-71.24737,41.473],[-71.24771,41.47369],[-71.24524,41.48029],[-71.24586,41.48164],[-71.25208,41.48592],[-71.25819,41.48792],[-71.25946,41.48811],[-71.26479,41.4889],[-71.26752,41.48824],[-71.26764,41.48821],[-71.26886,41.4847],[-71.27486,41.47985],[-71.27664,41.48004],[-71.27804,41.48208],[-71.27921,41.48378],[-71.28231,41.48829],[-71.28471,41.48883],[-71.28549,41.489],[-71.28567,41.48897],[-71.29133,41.48786],[-71.2932,41.48708],[-71.29529,41.4862],[-71.29692,41.48552],[-71.29739,41.48479],[-71.29702,41.48268],[-71.29652,41.47983],[-71.29666,41.4788],[-71.29704,41.47598],[-71.29707,41.47583],[-71.29739,41.47344],[-71.29685,41.46913],[-71.29818,41.46749],[-71.30141,41.46728],[-71.30398,41.46372],[-71.30276,41.45975],[-71.30305,41.45908],[-71.30391,41.45868],[-71.30439,41.4545],[-71.30764,41.45244],[-71.31017,41.45112],[-71.31105,41.45124],[-71.31205,41.45138],[-71.31192,41.45289],[-71.31098,41.45511],[-71.31256,41.4565],[-71.31471,41.45639],[-71.31691,41.45479],[-71.31848,41.45572],[-71.31948,41.45838],[-71.32033,41.45978],[-71.32375,41.46013],[-71.32691,41.45894],[-71.32754,41.45707],[-71.33147,41.4528],[-71.33273,41.45154],[-71.333,41.45128],[-71.33476,41.44952],[-71.33748,41.44932],[-71.33804,41.44953],[-71.33754,41.45098],[-71.33793,41.45169],[-71.33901,41.4519],[-71.3397,41.45258],[-71.34418,41.45403],[-71.34686,41.45281],[-71.34905,41.45182],[-71.34917,41.45176],[-71.35157,41.45068],[-71.35361,41.44975],[-71.35616,41.45054],[-71.35724,41.45615],[-71.35845,41.45744],[-71.35879,41.45966],[-71.36004,41.46049],[-71.36189,41.4602],[-71.36291,41.46175],[-71.36118,41.46462],[-71.35956,41.46423],[-71.35927,41.46427],[-71.35856,41.46439],[-71.35827,41.46443]]],[[[-71.3264,41.48379],[-71.32782,41.48298],[-71.329,41.48713],[-71.32883,41.49233],[-71.32696,41.49312],[-71.32566,41.49005],[-71.32536,41.4876],[-71.3264,41.48379]]],[[[-71.33866,41.49493],[-71.34313,41.49493],[-71.34313,41.49729],[-71.34127,41.50049],[-71.33978,41.49882],[-71.33866,41.49618],[-71.33866,41.49493]]],[[[-71.66599,41.72743],[-71.64425,41.7278],[-71.58619,41.7291],[-71.57652,41.72934],[-71.56294,41.72967],[-71.55004,41.72998],[-71.54743,41.73002],[-71.54735,41.7312],[-71.54596,41.73009],[-71.53429,41.73017],[-71.52535,41.73033],[-71.51993,41.73044],[-71.51941,41.73047],[-71.51686,41.73061],[-71.49785,41.73115],[-71.48657,41.73152],[-71.48391,41.7316],[-71.48478,41.72872],[-71.4858,41.72613],[-71.48933,41.72284],[-71.49028,41.72123],[-71.49054,41.71752],[-71.49289,41.71783],[-71.49712,41.71317],[-71.50025,41.71182],[-71.50079,41.71161],[-71.50236,41.71147],[-71.50519,41.71131],[-71.50669,41.70948],[-71.5119,41.70723],[-71.51276,41.70667],[-71.51334,41.70569],[-71.51891,41.6959],[-71.51542,41.69604],[-71.51157,41.69609],[-71.50614,41.69647],[-71.50168,41.69647],[-71.50103,41.68759],[-71.50072,41.68502],[-71.50006,41.67948],[-71.49984,41.67378],[-71.49945,41.66612],[-71.49893,41.66461],[-71.49922,41.66295],[-71.53338,41.66216],[-71.54147,41.66198],[-71.54711,41.66185],[-71.57267,41.66128],[-71.58977,41.66051],[-71.60296,41.66019],[-71.62237,41.65969],[-71.62287,41.65968],[-71.66594,41.65869],[-71.66604,41.65872],[-71.69494,41.65842],[-71.73962,41.65735],[-71.74036,41.65737],[-71.787,41.65612],[-71.78865,41.69834],[-71.78968,41.72473],[-71.78969,41.7252],[-71.72011,41.72633],[-71.70058,41.72669],[-71.66949,41.72737],[-71.66843,41.72747],[-71.66599,41.72743]]]]}}]}