{"type":"FeatureCollection","features":[{"type":"Feature","properties":{"name":"Bamberg County Office on Aging - Handy Ride","boundary_type":"county","source":"Census TIGER county","fidelity":"exact","updated":"2026-09","units":"Bamberg County","note":"County-level demand-response service operated by county Office on Aging","confidence":0.95},"geometry":{"type":"Polygon","coordinates":[[[-81.22579,33.16535],[-81.22598,33.1673],[-81.22391,33.16963],[-81.22378,33.17442],[-81.22326,33.17873],[-81.22185,33.18427],[-81.22152,33.1914],[-81.22122,33.20121],[-81.22071,33.20247],[-81.2206,33.20602],[-81.21793,33.20838],[-81.2184,33.21019],[-81.22172,33.21431],[-81.22036,33.21566],[-81.22042,33.21672],[-81.21883,33.21796],[-81.21772,33.2218],[-81.21938,33.22446],[-81.22042,33.22519],[-81.22066,33.22852],[-81.21994,33.25015],[-81.22082,33.25915],[-81.21972,33.28198],[-81.21908,33.2954],[-81.21773,33.31857],[-81.21517,33.36626],[-81.21318,33.39787],[-81.22267,33.44],[-81.22134,33.43901],[-81.22011,33.43949],[-81.21898,33.43831],[-81.2151,33.43837],[-81.21513,33.43898],[-81.21205,33.43905],[-81.21055,33.43809],[-81.20985,33.43842],[-81.20606,33.43734],[-81.20323,33.43373],[-81.20296,33.43238],[-81.20116,33.43198],[-81.19979,33.43007],[-81.19948,33.42722],[-81.1985,33.42687],[-81.19803,33.4236],[-81.19832,33.42123],[-81.19556,33.41895],[-81.19378,33.41837],[-81.19243,33.41873],[-81.19104,33.41562],[-81.19115,33.41403],[-81.18953,33.41168],[-81.18549,33.41065],[-81.18429,33.40988],[-81.18235,33.41057],[-81.1806,33.40996],[-81.17985,33.41046],[-81.17697,33.41015],[-81.17579,33.40919],[-81.17531,33.40983],[-81.17383,33.40842],[-81.17182,33.40818],[-81.17107,33.4089],[-81.16785,33.40846],[-81.16705,33.40928],[-81.16537,33.40842],[-81.164,33.40925],[-81.16322,33.4079],[-81.1613,33.40703],[-81.16176,33.406],[-81.15965,33.40573],[-81.157,33.40618],[-81.15688,33.40474],[-81.1556,33.40497],[-81.15472,33.4038],[-81.15359,33.40404],[-81.15183,33.4025],[-81.15094,33.40356],[-81.15005,33.40327],[-81.14991,33.40134],[-81.14902,33.40035],[-81.14737,33.40094],[-81.14739,33.39949],[-81.14408,33.39932],[-81.14209,33.39751],[-81.14011,33.39735],[-81.13804,33.39535],[-81.13533,33.39382],[-81.13328,33.39372],[-81.13072,33.39086],[-81.13138,33.39008],[-81.13042,33.38896],[-81.1275,33.38832],[-81.12619,33.38885],[-81.12344,33.38815],[-81.12293,33.38688],[-81.12,33.38613],[-81.11898,33.38646],[-81.11921,33.3847],[-81.11772,33.38345],[-81.1149,33.38363],[-81.11552,33.38282],[-81.11402,33.38182],[-81.11215,33.38172],[-81.11132,33.38086],[-81.10912,33.38104],[-81.10674,33.37962],[-81.10516,33.38016],[-81.10494,33.37912],[-81.10326,33.37936],[-81.10215,33.37854],[-81.09928,33.37834],[-81.09746,33.37926],[-81.09631,33.37873],[-81.09151,33.37853],[-81.09036,33.37744],[-81.08934,33.37815],[-81.0898,33.37904],[-81.08856,33.37957],[-81.08874,33.37745],[-81.08547,33.37529],[-81.08241,33.37546],[-81.0786,33.37516],[-81.07755,33.37365],[-81.07548,33.37344],[-81.0739,33.36845],[-81.07195,33.36773],[-81.07179,33.36589],[-81.07054,33.36654],[-81.0671,33.36533],[-81.06713,33.36462],[-81.06383,33.36113],[-81.06269,33.35946],[-81.06118,33.35983],[-81.05954,33.35887],[-81.0568,33.35767],[-81.05777,33.35631],[-81.05613,33.35641],[-81.05541,33.35396],[-81.05458,33.35435],[-81.05299,33.3536],[-81.05078,33.351],[-81.04879,33.35129],[-81.04782,33.34917],[-81.04642,33.34992],[-81.04665,33.34878],[-81.04478,33.34799],[-81.04178,33.34822],[-81.04077,33.34709],[-81.03971,33.3493],[-81.0362,33.34927],[-81.03606,33.34825],[-81.03259,33.34658],[-81.03103,33.34886],[-81.0305,33.34764],[-81.02818,33.34619],[-81.02826,33.34466],[-81.02745,33.34532],[-81.02714,33.34279],[-81.02598,33.34317],[-81.02467,33.33891],[-81.02261,33.33825],[-81.0223,33.33895],[-81.01831,33.33697],[-81.01642,33.33757],[-81.01551,33.33693],[-81.01372,33.33867],[-81.01285,33.3377],[-81.01116,33.33765],[-81.01068,33.33576],[-81.00898,33.33606],[-81.00757,33.33399],[-81.00622,33.33483],[-81.00682,33.33647],[-81.00513,33.33651],[-81.00395,33.33456],[-81.00304,33.33454],[-81.00269,33.33215],[-81.0018,33.33223],[-81.00083,33.33073],[-80.99921,33.33147],[-80.9987,33.33014],[-81.00011,33.32939],[-80.99807,33.32969],[-80.99604,33.32876],[-80.99482,33.3288],[-80.99491,33.32749],[-80.9936,33.32723],[-80.99371,33.32824],[-80.99185,33.32754],[-80.99246,33.32929],[-80.99133,33.32975],[-80.98904,33.32806],[-80.98534,33.32702],[-80.98518,33.32471],[-80.98357,33.32479],[-80.98303,33.32386],[-80.98014,33.32271],[-80.98188,33.3213],[-80.97949,33.31956],[-80.97973,33.31808],[-80.97858,33.31912],[-80.97625,33.31773],[-80.97368,33.31753],[-80.97135,33.31888],[-80.96902,33.31797],[-80.96833,33.31875],[-80.96798,33.31689],[-80.96701,33.31654],[-80.96492,33.31399],[-80.96361,33.31332],[-80.96429,33.31265],[-80.96391,33.31098],[-80.96272,33.31181],[-80.96212,33.31028],[-80.96269,33.30929],[-80.96188,33.30806],[-80.95931,33.30999],[-80.95774,33.31013],[-80.9567,33.30917],[-80.95491,33.30959],[-80.95195,33.3082],[-80.95231,33.3076],[-80.94957,33.30817],[-80.94871,33.30926],[-80.94876,33.30805],[-80.94995,33.30667],[-80.95073,33.30673],[-80.95086,33.30522],[-80.94877,33.30604],[-80.94781,33.30467],[-80.94741,33.30585],[-80.94609,33.30607],[-80.9464,33.30477],[-80.9441,33.30514],[-80.9412,33.30343],[-80.9401,33.30356],[-80.93805,33.29966],[-80.93718,33.30037],[-80.9334,33.29769],[-80.93514,33.29685],[-80.93456,33.29603],[-80.93346,33.29679],[-80.93061,33.29517],[-80.92924,33.29557],[-80.93036,33.29439],[-80.93218,33.29424],[-80.93209,33.2932],[-80.93017,33.29276],[-80.92856,33.29096],[-80.92752,33.29217],[-80.92602,33.29061],[-80.92422,33.29019],[-80.9229,33.28852],[-80.92657,33.28782],[-80.926,33.28679],[-80.92438,33.28717],[-80.92183,33.28658],[-80.91967,33.28512],[-80.91842,33.28337],[-80.91714,33.28408],[-80.91682,33.28322],[-80.91546,33.28319],[-80.91572,33.28144],[-80.91412,33.28176],[-80.91172,33.28025],[-80.91225,33.27925],[-80.90946,33.27928],[-80.90928,33.27787],[-80.90808,33.27703],[-80.90649,33.27747],[-80.90657,33.27618],[-80.90551,33.27618],[-80.90317,33.27497],[-80.90349,33.27284],[-80.90197,33.27169],[-80.90187,33.27068],[-80.89999,33.2713],[-80.89986,33.26975],[-80.89684,33.27033],[-80.89513,33.268],[-80.89344,33.26907],[-80.89226,33.26839],[-80.89162,33.26577],[-80.88954,33.26129],[-80.88694,33.26315],[-80.88711,33.26418],[-80.88521,33.26291],[-80.88788,33.26054],[-80.88836,33.2594],[-80.88758,33.25793],[-80.8854,33.25983],[-80.88398,33.25994],[-80.88308,33.2596],[-80.88302,33.25756],[-80.88122,33.25793],[-80.88131,33.25674],[-80.87954,33.25598],[-80.87945,33.25456],[-80.87795,33.25502],[-80.87779,33.25311],[-80.87558,33.25474],[-80.87313,33.25414],[-80.87296,33.25293],[-80.87023,33.25305],[-80.86909,33.25167],[-80.87053,33.25112],[-80.86911,33.24907],[-80.86382,33.24824],[-80.86494,33.25094],[-80.86295,33.25106],[-80.86205,33.24918],[-80.86317,33.24804],[-80.86298,33.24581],[-80.85995,33.24485],[-80.85788,33.24474],[-80.85651,33.24575],[-80.85572,33.24518],[-80.85649,33.24307],[-80.85499,33.24208],[-80.85736,33.23858],[-80.8558,33.23771],[-80.85414,33.24105],[-80.85308,33.24025],[-80.85316,33.23853],[-80.85049,33.23915],[-80.84937,33.2383],[-80.84615,33.23833],[-80.84806,33.2348],[-80.84623,33.23368],[-80.84795,33.23287],[-80.84599,33.23269],[-80.84549,33.23081],[-80.84405,33.23143],[-80.84391,33.23036],[-80.84555,33.22937],[-80.84653,33.22719],[-80.8465,33.22568],[-80.84541,33.22477],[-80.84585,33.22314],[-80.84416,33.22183],[-80.845,33.22119],[-80.84636,33.22208],[-80.84683,33.22108],[-80.84385,33.21922],[-80.84176,33.22009],[-80.83889,33.21918],[-80.83851,33.21739],[-80.84197,33.2156],[-80.84061,33.21349],[-80.84344,33.21336],[-80.84391,33.2121],[-80.83982,33.21184],[-80.83963,33.21017],[-80.83742,33.21088],[-80.83756,33.20866],[-80.84058,33.2079],[-80.83709,33.20495],[-80.8375,33.20371],[-80.83464,33.20353],[-80.83096,33.20261],[-80.82979,33.20337],[-80.82475,33.20161],[-80.82515,33.20048],[-80.82284,33.20012],[-80.82319,33.19906],[-80.826,33.19808],[-80.82578,33.19679],[-80.8242,33.19581],[-80.82177,33.19792],[-80.81891,33.19675],[-80.81722,33.19535],[-80.81676,33.19366],[-80.81804,33.19279],[-80.81859,33.19077],[-80.81701,33.18749],[-80.81458,33.1861],[-80.81156,33.185],[-80.81011,33.18358],[-80.80837,33.18305],[-80.80741,33.18115],[-80.80444,33.17904],[-80.8036,33.17776],[-80.79791,33.17694],[-80.84906,33.14938],[-80.89543,33.12535],[-80.89167,33.11978],[-80.89052,33.11934],[-80.88785,33.11227],[-80.88875,33.10711],[-80.88902,33.10221],[-80.88783,33.10063],[-80.88588,33.10049],[-80.88129,33.09851],[-80.87914,33.09639],[-80.8769,33.09318],[-80.88016,33.09142],[-80.88223,33.0897],[-80.88256,33.08839],[-80.88559,33.08477],[-80.88812,33.08049],[-80.89056,33.07808],[-80.89188,33.07549],[-80.89196,33.07329],[-80.89264,33.07104],[-80.89379,33.06946],[-80.89607,33.06141],[-80.90602,33.06023],[-80.90688,33.06203],[-80.90634,33.0633],[-80.90682,33.06478],[-80.90745,33.066],[-80.90939,33.06704],[-80.91035,33.06876],[-80.9161,33.07189],[-80.91728,33.07431],[-80.917,33.07609],[-80.91798,33.07758],[-80.91707,33.07913],[-80.91932,33.08127],[-80.92446,33.08424],[-80.92541,33.08541],[-80.92705,33.08575],[-80.9275,33.08712],[-80.93009,33.09085],[-80.93103,33.09714],[-80.93163,33.09826],[-80.93637,33.10073],[-80.93716,33.10258],[-81.0128,33.06306],[-81.03119,33.05347],[-81.05628,33.04026],[-81.05683,33.03983],[-81.05762,33.03955],[-81.08229,33.02663],[-81.08306,33.02804],[-81.08632,33.03172],[-81.08656,33.0352],[-81.0883,33.03641],[-81.08991,33.03919],[-81.09208,33.03928],[-81.09222,33.04022],[-81.09486,33.04097],[-81.09568,33.04251],[-81.09549,33.04388],[-81.09701,33.04374],[-81.09851,33.04721],[-81.10117,33.0491],[-81.10694,33.04876],[-81.11064,33.04972],[-81.11567,33.04981],[-81.1181,33.05155],[-81.12182,33.05203],[-81.12445,33.05322],[-81.1281,33.05709],[-81.12864,33.05954],[-81.13155,33.06216],[-81.13293,33.06413],[-81.13429,33.06468],[-81.13614,33.0666],[-81.13952,33.06858],[-81.14147,33.07039],[-81.1449,33.07279],[-81.14651,33.078],[-81.14871,33.08091],[-81.15238,33.08285],[-81.15578,33.08556],[-81.16188,33.09143],[-81.16868,33.09495],[-81.17078,33.09569],[-81.17214,33.09899],[-81.17415,33.10197],[-81.17693,33.10449],[-81.17962,33.10554],[-81.18115,33.10872],[-81.18343,33.11122],[-81.18599,33.1134],[-81.18923,33.11448],[-81.18975,33.11649],[-81.1931,33.11867],[-81.19288,33.11954],[-81.19593,33.12126],[-81.19775,33.12355],[-81.19833,33.12659],[-81.20388,33.12922],[-81.20644,33.12964],[-81.20652,33.13069],[-81.20799,33.13147],[-81.20846,33.13307],[-81.21009,33.13371],[-81.20892,33.13587],[-81.2102,33.13703],[-81.2108,33.13882],[-81.21039,33.1404],[-81.21146,33.14354],[-81.2135,33.14464],[-81.21331,33.14585],[-81.21592,33.14748],[-81.21592,33.15011],[-81.21818,33.15055],[-81.22042,33.15202],[-81.22069,33.15447],[-81.22162,33.15573],[-81.22331,33.15651],[-81.22579,33.15653],[-81.22581,33.16035],[-81.2278,33.1607],[-81.22778,33.16262],[-81.22579,33.16535]]]}},{"type":"Feature","properties":{"name":"Lower Richland ReFlex OnDemand","boundary_type":"county","source":"Census TIGER county","fidelity":"approximate","updated":"2026-09","units":"Richland County","note":"Service zone is the Lower Richland area subset of Richland County; COMET also operates a separate ReFlex OnDemand service for Downtown Columbia/Forest Acres","confidence":0.85},"geometry":{"type":"Polygon","coordinates":[[[-81.32879,34.22733],[-81.31691,34.23946],[-81.31418,34.23772],[-81.31032,34.23696],[-81.30739,34.23756],[-81.30247,34.23813],[-81.2966,34.23739],[-81.29267,34.23576],[-81.28411,34.23303],[-81.27957,34.23062],[-81.27732,34.22842],[-81.27572,34.22533],[-81.27313,34.22281],[-81.26951,34.22184],[-81.26631,34.21889],[-81.26457,34.21586],[-81.26223,34.21384],[-81.25929,34.20894],[-81.25826,34.20783],[-81.25418,34.20464],[-81.25127,34.20295],[-81.24787,34.20288],[-81.24592,34.20394],[-81.23599,34.20464],[-81.23046,34.20581],[-81.22641,34.20569],[-81.22299,34.20396],[-81.22185,34.20302],[-81.2207,34.19945],[-81.21873,34.1968],[-81.21372,34.19512],[-81.20841,34.19432],[-81.2052,34.19233],[-81.20165,34.18879],[-81.19867,34.18725],[-81.19213,34.18344],[-81.18493,34.17799],[-81.17829,34.17455],[-81.17926,34.18011],[-81.17923,34.18422],[-81.17951,34.18664],[-81.17683,34.18839],[-81.17392,34.18914],[-81.17309,34.18984],[-81.17193,34.19254],[-81.16888,34.19438],[-81.16856,34.19597],[-81.16843,34.19765],[-81.17025,34.20085],[-81.16987,34.20325],[-81.17099,34.2029],[-81.17118,34.20392],[-81.17308,34.20433],[-81.17343,34.20558],[-81.17267,34.20693],[-81.17365,34.20878],[-81.17351,34.2107],[-81.17559,34.21142],[-81.1758,34.21302],[-81.17741,34.21286],[-81.17771,34.21417],[-81.18052,34.21573],[-81.1821,34.21813],[-81.1812,34.22028],[-81.12481,34.21571],[-81.12051,34.21605],[-81.115,34.21558],[-81.09586,34.21387],[-81.09323,34.2176],[-81.08838,34.21932],[-81.0833,34.22475],[-81.07775,34.22491],[-81.07736,34.22154],[-81.07675,34.22091],[-81.0751,34.22269],[-81.07228,34.22474],[-81.07084,34.22506],[-81.07139,34.22683],[-81.07116,34.23048],[-81.06987,34.23225],[-81.06508,34.23064],[-81.06337,34.22901],[-81.06123,34.228],[-81.05976,34.22976],[-81.05945,34.2312],[-81.05806,34.23188],[-81.05755,34.23365],[-81.05565,34.23286],[-81.05422,34.2343],[-81.05099,34.23429],[-81.04774,34.23533],[-81.04659,34.23521],[-81.04474,34.23667],[-81.04268,34.23666],[-81.04226,34.23468],[-81.04062,34.23311],[-81.03922,34.23254],[-81.01692,34.23826],[-81.01218,34.2395],[-81.00998,34.24004],[-81.00766,34.2406],[-81.00463,34.24132],[-80.99932,34.24254],[-80.99573,34.24345],[-80.98204,34.24681],[-80.9619,34.25202],[-80.95885,34.25239],[-80.91491,34.25785],[-80.90906,34.25857],[-80.87481,34.26273],[-80.8739,34.26301],[-80.82592,34.26876],[-80.84095,34.23892],[-80.84792,34.2257],[-80.85724,34.20689],[-80.86803,34.18476],[-80.86913,34.18287],[-80.86851,34.18171],[-80.865,34.18014],[-80.8553,34.17582],[-80.85138,34.17407],[-80.84808,34.17145],[-80.8201,34.14917],[-80.80261,34.13526],[-80.8018,34.13448],[-80.78716,34.12296],[-80.77552,34.11369],[-80.71932,34.06897],[-80.71717,34.07265],[-80.71429,34.07317],[-80.71088,34.07474],[-80.71003,34.07707],[-80.70691,34.0787],[-80.70653,34.07967],[-80.70359,34.08098],[-80.70218,34.08035],[-80.69887,34.08104],[-80.69296,34.08128],[-80.69249,34.08071],[-80.68927,34.0811],[-80.68827,34.08197],[-80.68703,34.08147],[-80.68366,34.0816],[-80.68216,34.08289],[-80.67791,34.08341],[-80.67642,34.08461],[-80.67297,34.08373],[-80.66906,34.08391],[-80.66728,34.08504],[-80.66661,34.08445],[-80.66382,34.08565],[-80.65884,34.08587],[-80.65832,34.08877],[-80.65529,34.08985],[-80.6467,34.09399],[-80.63953,34.09563],[-80.63648,34.09674],[-80.63559,34.09767],[-80.61619,34.0996],[-80.6157,34.09676],[-80.61856,34.09197],[-80.6209,34.09004],[-80.62442,34.08927],[-80.62993,34.08994],[-80.63243,34.08937],[-80.63571,34.08489],[-80.63653,34.08298],[-80.63616,34.08021],[-80.63365,34.07835],[-80.62922,34.07742],[-80.6266,34.07744],[-80.6248,34.07914],[-80.62421,34.08186],[-80.62252,34.08301],[-80.6213,34.08316],[-80.6195,34.08231],[-80.61931,34.07979],[-80.62144,34.07691],[-80.6242,34.07441],[-80.62481,34.07308],[-80.62742,34.07082],[-80.62984,34.06969],[-80.63117,34.06824],[-80.62945,34.06665],[-80.62481,34.06609],[-80.61968,34.06329],[-80.61744,34.0628],[-80.61424,34.06357],[-80.61272,34.06311],[-80.61233,34.0613],[-80.61451,34.05918],[-80.61387,34.05732],[-80.61274,34.05616],[-80.61095,34.05653],[-80.60748,34.05837],[-80.60642,34.05798],[-80.60672,34.05637],[-80.61023,34.05415],[-80.61257,34.05177],[-80.61212,34.04924],[-80.61024,34.04845],[-80.60786,34.04619],[-80.60746,34.04326],[-80.60696,34.04265],[-80.60095,34.03939],[-80.60104,34.03593],[-80.6043,34.03432],[-80.60526,34.03243],[-80.60802,34.02929],[-80.608,34.02755],[-80.60669,34.02682],[-80.60378,34.02745],[-80.60222,34.02636],[-80.60209,34.02535],[-80.6045,34.02362],[-80.60865,34.02462],[-80.61458,34.02507],[-80.61547,34.02446],[-80.61592,34.02083],[-80.61866,34.01668],[-80.62224,34.01379],[-80.62481,34.01342],[-80.62612,34.01381],[-80.62805,34.01189],[-80.62775,34.00955],[-80.62528,34.0037],[-80.62719,34.00301],[-80.63494,34.00797],[-80.63727,34.00761],[-80.63718,34.00493],[-80.6355,34.00381],[-80.63539,34.00145],[-80.63886,34.00061],[-80.64099,33.99943],[-80.64472,33.99993],[-80.6466,33.99901],[-80.64626,33.99683],[-80.64493,33.99597],[-80.64115,33.99636],[-80.63926,33.99341],[-80.63938,33.99068],[-80.64114,33.98971],[-80.64397,33.98912],[-80.64398,33.98752],[-80.64161,33.98636],[-80.64113,33.98332],[-80.63595,33.9793],[-80.63183,33.97779],[-80.63044,33.97577],[-80.6308,33.97159],[-80.63135,33.96964],[-80.6328,33.96816],[-80.63315,33.96655],[-80.62894,33.96471],[-80.62736,33.96535],[-80.62551,33.96742],[-80.62329,33.96827],[-80.6175,33.96644],[-80.61576,33.96547],[-80.61529,33.96242],[-80.61765,33.96185],[-80.61957,33.9632],[-80.6211,33.96062],[-80.61986,33.95846],[-80.61805,33.95825],[-80.61774,33.95725],[-80.62297,33.95749],[-80.62362,33.95604],[-80.6201,33.95382],[-80.62104,33.95246],[-80.62481,33.9522],[-80.62751,33.95035],[-80.62826,33.94878],[-80.62801,33.94697],[-80.6278,33.94562],[-80.62905,33.94178],[-80.62798,33.94093],[-80.62481,33.94261],[-80.62016,33.94239],[-80.61944,33.94128],[-80.62251,33.9391],[-80.62278,33.93665],[-80.62229,33.93607],[-80.62071,33.93593],[-80.61824,33.93868],[-80.61662,33.93739],[-80.61672,33.93643],[-80.6183,33.93507],[-80.62153,33.93376],[-80.62481,33.93485],[-80.62761,33.93357],[-80.62982,33.93408],[-80.63057,33.9337],[-80.63008,33.9324],[-80.62699,33.93108],[-80.6262,33.9299],[-80.62738,33.92843],[-80.63072,33.92574],[-80.63236,33.92511],[-80.63251,33.92361],[-80.63078,33.92166],[-80.63149,33.91963],[-80.63376,33.91843],[-80.63409,33.91733],[-80.63222,33.91482],[-80.63055,33.91374],[-80.62922,33.91207],[-80.62689,33.90762],[-80.62451,33.9055],[-80.624,33.90357],[-80.62426,33.90209],[-80.62593,33.89964],[-80.62574,33.89854],[-80.62385,33.89636],[-80.62145,33.89512],[-80.61785,33.89573],[-80.61703,33.89552],[-80.6154,33.89326],[-80.61504,33.89189],[-80.61553,33.89074],[-80.61915,33.88867],[-80.62041,33.88865],[-80.62333,33.89006],[-80.62393,33.89258],[-80.62556,33.89351],[-80.62613,33.89041],[-80.62586,33.88879],[-80.62362,33.88424],[-80.62079,33.88249],[-80.62164,33.88051],[-80.62393,33.88115],[-80.625,33.8808],[-80.62393,33.87944],[-80.62083,33.87972],[-80.61959,33.87873],[-80.62097,33.87723],[-80.62355,33.87722],[-80.62406,33.87515],[-80.6229,33.87249],[-80.62362,33.87092],[-80.62532,33.86962],[-80.62533,33.86681],[-80.62296,33.86123],[-80.62296,33.86041],[-80.62481,33.85945],[-80.62605,33.86088],[-80.6276,33.86114],[-80.63077,33.8572],[-80.63035,33.85414],[-80.63158,33.85241],[-80.63354,33.85268],[-80.6328,33.85031],[-80.63097,33.84735],[-80.62823,33.84584],[-80.62749,33.84473],[-80.62797,33.84266],[-80.62665,33.84163],[-80.62307,33.84137],[-80.62208,33.83952],[-80.61907,33.83931],[-80.619,33.83651],[-80.61638,33.83494],[-80.61698,33.83222],[-80.62029,33.83103],[-80.6192,33.8281],[-80.61681,33.82689],[-80.61613,33.82278],[-80.61745,33.82109],[-80.61682,33.8186],[-80.61508,33.81601],[-80.61568,33.81451],[-80.61307,33.81355],[-80.61163,33.81264],[-80.60914,33.80982],[-80.60749,33.81112],[-80.60642,33.80869],[-80.60464,33.81099],[-80.60309,33.81093],[-80.60208,33.80723],[-80.59829,33.80448],[-80.59878,33.80338],[-80.60428,33.80498],[-80.60538,33.80475],[-80.60419,33.80044],[-80.60094,33.79986],[-80.60034,33.79918],[-80.60175,33.79733],[-80.60173,33.79457],[-80.60366,33.79384],[-80.60376,33.79306],[-80.60053,33.79179],[-80.60045,33.79016],[-80.60126,33.7884],[-80.59752,33.78846],[-80.5962,33.78643],[-80.59749,33.785],[-80.59976,33.78461],[-80.60141,33.78648],[-80.60245,33.78657],[-80.60298,33.78532],[-80.60066,33.78289],[-80.59819,33.779],[-80.59771,33.77751],[-80.59879,33.77594],[-80.60217,33.77481],[-80.60375,33.77281],[-80.60568,33.77177],[-80.60155,33.76872],[-80.60201,33.76741],[-80.60428,33.7668],[-80.60512,33.76797],[-80.60627,33.76741],[-80.6053,33.76399],[-80.60347,33.76368],[-80.6037,33.76271],[-80.60672,33.76177],[-80.60884,33.76194],[-80.60731,33.75906],[-80.60497,33.75848],[-80.60564,33.75748],[-80.60884,33.75709],[-80.61181,33.75545],[-80.61127,33.7545],[-80.609,33.7541],[-80.6111,33.7515],[-80.61296,33.75087],[-80.61615,33.75097],[-80.61431,33.74888],[-80.61465,33.74758],[-80.61943,33.74856],[-80.62013,33.74788],[-80.61892,33.74571],[-80.61866,33.74359],[-80.62011,33.74324],[-80.62089,33.74498],[-80.62275,33.74565],[-80.63062,33.74357],[-80.63278,33.74367],[-80.63791,33.74609],[-80.64041,33.74755],[-80.64001,33.74994],[-80.64057,33.75155],[-80.64173,33.75227],[-80.6458,33.7532],[-80.64726,33.7542],[-80.64954,33.75775],[-80.6564,33.7614],[-80.65681,33.7636],[-80.65626,33.76572],[-80.65277,33.7683],[-80.65174,33.76998],[-80.65286,33.77255],[-80.65468,33.77351],[-80.65905,33.77299],[-80.66237,33.77146],[-80.66629,33.76835],[-80.67179,33.76647],[-80.67294,33.76488],[-80.6732,33.76321],[-80.6751,33.76198],[-80.67754,33.76298],[-80.67922,33.76251],[-80.68037,33.76097],[-80.68659,33.75599],[-80.68762,33.75683],[-80.6861,33.75874],[-80.68598,33.76064],[-80.6874,33.76109],[-80.68837,33.76048],[-80.68997,33.75724],[-80.69169,33.75684],[-80.69657,33.75651],[-80.69971,33.75698],[-80.70327,33.75909],[-80.70539,33.75979],[-80.70596,33.76151],[-80.70394,33.76468],[-80.70439,33.76649],[-80.70533,33.76738],[-80.70884,33.76943],[-80.71065,33.77095],[-80.71234,33.77123],[-80.71372,33.77026],[-80.71316,33.76865],[-80.71331,33.76602],[-80.7144,33.76164],[-80.71537,33.76049],[-80.71756,33.76083],[-80.72141,33.76404],[-80.72254,33.76735],[-80.72502,33.76848],[-80.72685,33.76828],[-80.72766,33.76741],[-80.72731,33.76478],[-80.728,33.76182],[-80.73,33.76039],[-80.73386,33.75998],[-80.73738,33.75662],[-80.73846,33.75639],[-80.73955,33.75688],[-80.74046,33.75909],[-80.73837,33.76267],[-80.7359,33.7655],[-80.73633,33.76742],[-80.73922,33.76792],[-80.74068,33.76884],[-80.74159,33.77386],[-80.74328,33.77561],[-80.74503,33.77643],[-80.74797,33.77581],[-80.7512,33.77201],[-80.75157,33.77056],[-80.74857,33.76896],[-80.74779,33.76603],[-80.74486,33.76401],[-80.745,33.76291],[-80.74734,33.76174],[-80.74981,33.7646],[-80.75452,33.764],[-80.75618,33.76482],[-80.75626,33.76811],[-80.75751,33.77308],[-80.75822,33.77393],[-80.75973,33.774],[-80.76301,33.77102],[-80.76634,33.76682],[-80.76783,33.76715],[-80.76819,33.76873],[-80.76795,33.77136],[-80.76913,33.77193],[-80.77177,33.7719],[-80.77283,33.77101],[-80.77764,33.76468],[-80.77935,33.76171],[-80.78221,33.76071],[-80.78486,33.76101],[-80.78614,33.76272],[-80.78301,33.76516],[-80.78206,33.76725],[-80.78297,33.7689],[-80.78609,33.76969],[-80.79335,33.76953],[-80.79789,33.7707],[-80.80137,33.77313],[-80.804,33.77389],[-80.80759,33.77421],[-80.80824,33.77496],[-80.80954,33.77848],[-80.81125,33.77975],[-80.81569,33.78107],[-80.8175,33.77976],[-80.81916,33.77628],[-80.8219,33.77439],[-80.82504,33.77471],[-80.82799,33.77621],[-80.82926,33.77819],[-80.82855,33.77913],[-80.82612,33.78019],[-80.82445,33.78179],[-80.82257,33.78457],[-80.82205,33.78632],[-80.82254,33.787],[-80.82474,33.78686],[-80.82795,33.78526],[-80.82958,33.78491],[-80.83346,33.78551],[-80.83482,33.78739],[-80.83496,33.79055],[-80.83596,33.79274],[-80.83747,33.79391],[-80.8452,33.79599],[-80.85246,33.79959],[-80.85783,33.80157],[-80.85957,33.80181],[-80.86346,33.80164],[-80.86576,33.80272],[-80.86649,33.80465],[-80.86655,33.80737],[-80.86766,33.81006],[-80.86971,33.81239],[-80.87257,33.81445],[-80.87481,33.81549],[-80.87981,33.81562],[-80.88219,33.81508],[-80.88503,33.8134],[-80.89083,33.81077],[-80.89322,33.80992],[-80.89853,33.80877],[-80.90592,33.80971],[-80.91556,33.81142],[-80.91731,33.81374],[-80.91696,33.82098],[-80.91598,33.82491],[-80.91274,33.82804],[-80.91173,33.82988],[-80.91184,33.83129],[-80.9131,33.83293],[-80.91532,33.83392],[-80.92049,33.83485],[-80.92313,33.833],[-80.92303,33.82888],[-80.92426,33.82741],[-80.92635,33.82657],[-80.92918,33.82637],[-80.9312,33.82698],[-80.93355,33.82642],[-80.93619,33.82639],[-80.94058,33.82848],[-80.94322,33.83135],[-80.94405,33.83385],[-80.94705,33.83739],[-80.95082,33.8409],[-80.95374,33.8427],[-80.95944,33.84458],[-80.96594,33.84785],[-80.96885,33.84701],[-80.97299,33.84699],[-80.97776,33.84852],[-80.98571,33.84873],[-80.98828,33.8498],[-80.98996,33.85168],[-80.98959,33.85269],[-80.98743,33.85405],[-80.98593,33.85564],[-80.98622,33.85746],[-80.99318,33.85864],[-80.99978,33.8606],[-81.00113,33.86144],[-81.00208,33.86306],[-81.00085,33.86496],[-80.9983,33.86696],[-80.99672,33.87077],[-80.99657,33.87381],[-80.99817,33.87679],[-81.00017,33.87844],[-81.01233,33.88008],[-81.01556,33.8808],[-81.01833,33.88216],[-81.02071,33.88466],[-81.02142,33.88807],[-81.02043,33.89048],[-81.02011,33.8933],[-81.01865,33.89561],[-81.01739,33.89655],[-81.011,33.89813],[-81.00941,33.9001],[-81.00875,33.9041],[-81.01181,33.90707],[-81.01427,33.90815],[-81.0227,33.90924],[-81.02603,33.91036],[-81.02896,33.91204],[-81.03013,33.91365],[-81.02971,33.91545],[-81.02921,33.91645],[-81.02311,33.91895],[-81.01941,33.92115],[-81.01721,33.92585],[-81.01701,33.93086],[-81.01755,33.93212],[-81.01765,33.93237],[-81.01842,33.93419],[-81.01896,33.93528],[-81.02085,33.93822],[-81.02363,33.94162],[-81.02488,33.94364],[-81.03099,33.95413],[-81.03579,33.96259],[-81.03851,33.96807],[-81.03923,33.96903],[-81.03996,33.96997],[-81.04309,33.97319],[-81.04583,33.97664],[-81.04593,33.97734],[-81.04673,33.98635],[-81.04645,33.98803],[-81.0477,33.9905],[-81.05086,33.99578],[-81.05211,33.99762],[-81.05259,33.998],[-81.05468,34.00079],[-81.05877,34.00369],[-81.05971,34.00525],[-81.06072,34.00473],[-81.06492,34.00861],[-81.06689,34.00905],[-81.07213,34.00657],[-81.07363,34.00661],[-81.07677,34.00877],[-81.08001,34.01185],[-81.08262,34.01193],[-81.08613,34.01389],[-81.08961,34.01341],[-81.09299,34.01464],[-81.09616,34.01648],[-81.09758,34.01801],[-81.09939,34.02307],[-81.10111,34.02412],[-81.10268,34.02403],[-81.10369,34.02335],[-81.10382,34.02332],[-81.1048,34.02588],[-81.10526,34.02689],[-81.10628,34.02903],[-81.10741,34.03116],[-81.10816,34.03283],[-81.11047,34.03675],[-81.11056,34.0369],[-81.11631,34.04521],[-81.12149,34.05159],[-81.12526,34.05574],[-81.13204,34.06232],[-81.13928,34.06834],[-81.13948,34.06849],[-81.14481,34.07239],[-81.14624,34.07337],[-81.14756,34.07426],[-81.14834,34.07488],[-81.1484,34.07494],[-81.14916,34.07532],[-81.15289,34.0776],[-81.1608,34.08199],[-81.1613,34.08225],[-81.16425,34.08371],[-81.1656,34.08509],[-81.16657,34.08481],[-81.17025,34.08644],[-81.17285,34.08755],[-81.17289,34.09014],[-81.1729,34.09045],[-81.18057,34.09054],[-81.18606,34.09268],[-81.18624,34.09273],[-81.18651,34.09277],[-81.19303,34.09484],[-81.19428,34.09523],[-81.19805,34.09625],[-81.20603,34.09807],[-81.21549,34.09959],[-81.22112,34.10045],[-81.22184,34.10056],[-81.22328,34.10078],[-81.22763,34.10122],[-81.22774,34.10123],[-81.22795,34.10129],[-81.22803,34.10129],[-81.23343,34.10177],[-81.24373,34.1022],[-81.24821,34.10216],[-81.25806,34.10193],[-81.26899,34.09965],[-81.27095,34.09904],[-81.27584,34.09738],[-81.27904,34.1027],[-81.28201,34.10703],[-81.28738,34.11592],[-81.28831,34.11753],[-81.28993,34.11755],[-81.29102,34.11716],[-81.29801,34.12492],[-81.30861,34.13733],[-81.3119,34.14118],[-81.31173,34.1434],[-81.31504,34.14614],[-81.31164,34.15447],[-81.30227,34.16239],[-81.30717,34.17221],[-81.31446,34.18691],[-81.3163,34.18713],[-81.31903,34.18565],[-81.32089,34.1873],[-81.32125,34.1887],[-81.32415,34.18965],[-81.32677,34.18932],[-81.3294,34.19042],[-81.32903,34.19175],[-81.32968,34.19325],[-81.33174,34.19297],[-81.33309,34.19367],[-81.33347,34.19498],[-81.33723,34.19528],[-81.33896,34.19759],[-81.34155,34.20143],[-81.34342,34.2027],[-81.34533,34.20503],[-81.32879,34.22733]]]}},{"type":"Feature","properties":{"name":"Santee Wateree RTA On-Demand (Sumter)","boundary_type":"city","source":"Census TIGER place","fidelity":"approximate","updated":"2026-09","units":"Sumter city","note":"Service zone is a subset of Sumter city limits, following the corridors of former Routes 50, 60, and 100 (West Liberty St., South Main St., East Liberty St.), not the full city; https://www.swrta.com/system-information","confidence":0.7},"geometry":{"type":"MultiPolygon","coordinates":[[[[-80.49008,33.97251],[-80.48836,33.9805],[-80.48832,33.98237],[-80.48883,33.98378],[-80.49097,33.98747],[-80.484,33.98748],[-80.48382,33.98881],[-80.48426,33.98958],[-80.48478,33.98961],[-80.48722,33.98996],[-80.48832,33.99009],[-80.48859,33.99027],[-80.48862,33.99075],[-80.48843,33.99171],[-80.49047,33.99185],[-80.49058,33.99139],[-80.49095,33.99184],[-80.49193,33.9929],[-80.49253,33.99339],[-80.49015,33.99334],[-80.48642,33.99485],[-80.47953,33.99291],[-80.4794,33.9924],[-80.47921,33.99104],[-80.47205,33.99025],[-80.47029,33.98925],[-80.47227,33.98626],[-80.46885,33.98743],[-80.46389,33.98915],[-80.4628,33.98895],[-80.46024,33.99213],[-80.45512,33.99007],[-80.45446,33.99043],[-80.45173,33.98771],[-80.45271,33.9867],[-80.45137,33.98439],[-80.44943,33.9833],[-80.44789,33.98089],[-80.44489,33.98926],[-80.43878,33.98924],[-80.43828,33.98847],[-80.43334,33.98426],[-80.43179,33.98344],[-80.42746,33.98254],[-80.42732,33.98494],[-80.41775,33.98482],[-80.41517,33.98573],[-80.41462,33.98422],[-80.41389,33.98341],[-80.41409,33.98174],[-80.41505,33.98156],[-80.41279,33.98168],[-80.41174,33.98103],[-80.41002,33.97856],[-80.41066,33.9776],[-80.40835,33.97618],[-80.40672,33.97688],[-80.40508,33.97759],[-80.4045,33.97729],[-80.40316,33.97785],[-80.40204,33.97728],[-80.40353,33.97664],[-80.40278,33.97625],[-80.40547,33.9751],[-80.40579,33.97496],[-80.40573,33.97443],[-80.40518,33.97373],[-80.4047,33.97348],[-80.40403,33.97276],[-80.40324,33.97305],[-80.40223,33.97222],[-80.40608,33.9694],[-80.40402,33.96906],[-80.4022,33.97045],[-80.40158,33.97108],[-80.39869,33.96724],[-80.39854,33.96652],[-80.39598,33.96829],[-80.39262,33.9657],[-80.38888,33.96824],[-80.39119,33.96761],[-80.39585,33.9716],[-80.39433,33.97274],[-80.39749,33.97503],[-80.39834,33.9742],[-80.39868,33.97624],[-80.40098,33.97498],[-80.40194,33.97602],[-80.39891,33.97647],[-80.40061,33.97943],[-80.40319,33.9783],[-80.40569,33.97984],[-80.389,33.98634],[-80.38739,33.98325],[-80.38849,33.98358],[-80.38875,33.98213],[-80.38748,33.98175],[-80.38933,33.97681],[-80.3872,33.97638],[-80.38338,33.97833],[-80.38173,33.97263],[-80.37667,33.96971],[-80.37813,33.96933],[-80.3771,33.96684],[-80.38209,33.96466],[-80.38346,33.9647],[-80.38171,33.96197],[-80.38155,33.96299],[-80.37668,33.96515],[-80.37637,33.9644],[-80.379,33.96235],[-80.37971,33.96098],[-80.38133,33.96113],[-80.37984,33.95868],[-80.37981,33.95728],[-80.37627,33.95759],[-80.37259,33.95937],[-80.37433,33.9613],[-80.37127,33.96281],[-80.36925,33.96102],[-80.37035,33.96102],[-80.37041,33.95775],[-80.37316,33.95665],[-80.37104,33.95546],[-80.36917,33.95774],[-80.36836,33.95727],[-80.36991,33.95484],[-80.36782,33.95367],[-80.36652,33.95469],[-80.3656,33.95244],[-80.36379,33.95456],[-80.36273,33.95397],[-80.36035,33.95593],[-80.361,33.95653],[-80.36124,33.95912],[-80.36335,33.96001],[-80.3664,33.95893],[-80.3656,33.95755],[-80.3666,33.95717],[-80.36737,33.95855],[-80.36642,33.95892],[-80.36635,33.96108],[-80.36398,33.96006],[-80.35983,33.96048],[-80.35965,33.95821],[-80.35804,33.95674],[-80.35446,33.95849],[-80.35128,33.95638],[-80.3494,33.95813],[-80.34933,33.95902],[-80.35276,33.96328],[-80.35072,33.96409],[-80.34981,33.96185],[-80.34647,33.95799],[-80.34793,33.95495],[-80.34647,33.95457],[-80.3481,33.9513],[-80.34201,33.9509],[-80.34203,33.95068],[-80.34088,33.95064],[-80.34096,33.94854],[-80.34133,33.94857],[-80.34154,33.94942],[-80.34217,33.94942],[-80.34241,33.94734],[-80.34124,33.94751],[-80.34079,33.94565],[-80.34258,33.94583],[-80.34274,33.94449],[-80.34276,33.94434],[-80.34111,33.94439],[-80.34107,33.94373],[-80.3408,33.9433],[-80.34139,33.9428],[-80.34085,33.94236],[-80.34056,33.94556],[-80.34023,33.9444],[-80.33826,33.94541],[-80.33283,33.94492],[-80.335,33.94398],[-80.33535,33.94201],[-80.33139,33.94107],[-80.32726,33.94269],[-80.32747,33.94284],[-80.32674,33.94403],[-80.3255,33.94312],[-80.32637,33.94206],[-80.32532,33.94131],[-80.32383,33.94275],[-80.3219,33.94369],[-80.32123,33.94453],[-80.31994,33.94455],[-80.32114,33.94073],[-80.32193,33.9412],[-80.3233,33.93987],[-80.32181,33.93877],[-80.32002,33.94055],[-80.31745,33.94015],[-80.31956,33.93711],[-80.32117,33.93479],[-80.31514,33.93347],[-80.31707,33.93144],[-80.32149,33.93078],[-80.32256,33.92993],[-80.323,33.927],[-80.32141,33.92603],[-80.31145,33.93152],[-80.30607,33.92793],[-80.3083,33.92465],[-80.30925,33.92388],[-80.30899,33.92257],[-80.31107,33.92305],[-80.31322,33.92608],[-80.32204,33.92249],[-80.32249,33.92517],[-80.3236,33.92449],[-80.32298,33.92209],[-80.32423,33.92159],[-80.32453,33.91973],[-80.32052,33.91781],[-80.32114,33.91699],[-80.32088,33.91454],[-80.31838,33.91464],[-80.31843,33.9155],[-80.31622,33.91575],[-80.31475,33.91526],[-80.31263,33.91492],[-80.31078,33.91495],[-80.31406,33.91407],[-80.31126,33.91041],[-80.31928,33.9102],[-80.32073,33.9088],[-80.32019,33.90624],[-80.31901,33.90637],[-80.31882,33.90508],[-80.3199,33.90478],[-80.31949,33.90266],[-80.3192,33.90169],[-80.31782,33.8991],[-80.31712,33.89923],[-80.31665,33.89801],[-80.31608,33.89623],[-80.31616,33.89592],[-80.31659,33.89584],[-80.31614,33.89524],[-80.31604,33.8938],[-80.31429,33.89317],[-80.31432,33.8923],[-80.31786,33.89255],[-80.31813,33.89596],[-80.31934,33.89903],[-80.32047,33.90021],[-80.32161,33.89961],[-80.32094,33.89776],[-80.32114,33.89623],[-80.32203,33.89631],[-80.32194,33.90038],[-80.32372,33.90315],[-80.32241,33.90353],[-80.32288,33.90455],[-80.32408,33.9042],[-80.32426,33.9045],[-80.32582,33.90734],[-80.32894,33.91161],[-80.33248,33.90873],[-80.33308,33.90875],[-80.33566,33.90773],[-80.33533,33.90514],[-80.33381,33.90528],[-80.33363,33.90339],[-80.32967,33.90362],[-80.3288,33.90245],[-80.32967,33.90194],[-80.33116,33.90101],[-80.33285,33.89704],[-80.33504,33.89711],[-80.33712,33.89692],[-80.33523,33.89953],[-80.33379,33.90003],[-80.33461,33.901],[-80.336,33.89945],[-80.33996,33.90083],[-80.33972,33.89897],[-80.34099,33.89848],[-80.34028,33.89449],[-80.33996,33.89477],[-80.33863,33.89572],[-80.33802,33.89411],[-80.33956,33.89384],[-80.34087,33.89376],[-80.34349,33.89292],[-80.34365,33.89086],[-80.34571,33.89064],[-80.34613,33.89198],[-80.35133,33.8909],[-80.35709,33.8898],[-80.35701,33.88757],[-80.35759,33.88465],[-80.35489,33.88487],[-80.35542,33.88654],[-80.35444,33.88822],[-80.35202,33.88864],[-80.35151,33.88651],[-80.35283,33.88514],[-80.35066,33.88366],[-80.35036,33.88522],[-80.35036,33.88692],[-80.34974,33.88493],[-80.34887,33.8841],[-80.35012,33.88269],[-80.35091,33.88158],[-80.35141,33.88025],[-80.35231,33.87588],[-80.35269,33.87367],[-80.3538,33.87224],[-80.35362,33.87215],[-80.35296,33.87183],[-80.35297,33.87128],[-80.35447,33.86971],[-80.35424,33.86951],[-80.35477,33.86895],[-80.35582,33.86981],[-80.35593,33.8699],[-80.35829,33.86742],[-80.35819,33.86735],[-80.3619,33.86321],[-80.36206,33.86331],[-80.36748,33.87435],[-80.36134,33.86968],[-80.36069,33.87099],[-80.3606,33.87182],[-80.3647,33.87546],[-80.36719,33.87431],[-80.36702,33.87709],[-80.36592,33.87744],[-80.36641,33.87875],[-80.37082,33.88663],[-80.37421,33.88503],[-80.37575,33.88587],[-80.3769,33.884],[-80.37434,33.88497],[-80.37431,33.88314],[-80.37348,33.88169],[-80.37458,33.88107],[-80.374,33.88008],[-80.37282,33.88054],[-80.37113,33.87758],[-80.37377,33.87702],[-80.37743,33.87757],[-80.38158,33.87668],[-80.38178,33.87664],[-80.38247,33.87552],[-80.38467,33.87517],[-80.38591,33.87162],[-80.38696,33.87108],[-80.38596,33.86971],[-80.38725,33.86754],[-80.39194,33.87621],[-80.39135,33.87729],[-80.38464,33.87578],[-80.38397,33.87618],[-80.38656,33.88027],[-80.38338,33.87951],[-80.37973,33.88085],[-80.37612,33.88608],[-80.38103,33.88872],[-80.38314,33.8877],[-80.38287,33.88607],[-80.38519,33.88434],[-80.38551,33.88308],[-80.38678,33.88344],[-80.38686,33.88565],[-80.38328,33.88754],[-80.38239,33.89054],[-80.38393,33.89101],[-80.38325,33.89256],[-80.38657,33.89355],[-80.38682,33.89491],[-80.39364,33.89384],[-80.39321,33.89244],[-80.39725,33.89293],[-80.39732,33.89335],[-80.39658,33.8934],[-80.3975,33.89863],[-80.39844,33.90232],[-80.40429,33.90222],[-80.40462,33.90633],[-80.40111,33.90667],[-80.40081,33.90843],[-80.39749,33.90745],[-80.39697,33.90847],[-80.40074,33.90885],[-80.40173,33.91034],[-80.40072,33.91091],[-80.3968,33.90881],[-80.39351,33.90912],[-80.39411,33.91348],[-80.39209,33.91385],[-80.39176,33.91243],[-80.38817,33.91302],[-80.38811,33.91275],[-80.38895,33.91261],[-80.38848,33.91056],[-80.38896,33.91048],[-80.38876,33.90962],[-80.38741,33.90976],[-80.38656,33.90984],[-80.38753,33.91427],[-80.38829,33.91437],[-80.39016,33.91421],[-80.39031,33.91511],[-80.38863,33.91495],[-80.38651,33.91832],[-80.38762,33.91946],[-80.38652,33.92112],[-80.38374,33.91861],[-80.38505,33.91721],[-80.38314,33.91647],[-80.38168,33.91759],[-80.38018,33.91872],[-80.38225,33.9194],[-80.3823,33.91981],[-80.38302,33.9203],[-80.3834,33.92101],[-80.38311,33.92135],[-80.38367,33.92105],[-80.38501,33.92194],[-80.38596,33.9217],[-80.39043,33.92014],[-80.39229,33.91851],[-80.39292,33.91909],[-80.39679,33.92113],[-80.39022,33.9265],[-80.38977,33.92686],[-80.38965,33.92618],[-80.38863,33.92494],[-80.388,33.92536],[-80.38894,33.92623],[-80.38916,33.92702],[-80.38977,33.92787],[-80.38977,33.92848],[-80.3904,33.9292],[-80.39092,33.92878],[-80.39381,33.92596],[-80.39846,33.92216],[-80.39723,33.92139],[-80.40111,33.91704],[-80.40197,33.91859],[-80.40446,33.91963],[-80.40536,33.92069],[-80.40444,33.92315],[-80.40141,33.92309],[-80.40154,33.92411],[-80.39872,33.92233],[-80.39623,33.92441],[-80.39838,33.92593],[-80.40174,33.92423],[-80.40304,33.92503],[-80.40628,33.92569],[-80.40602,33.92849],[-80.40567,33.92874],[-80.40646,33.92966],[-80.40928,33.92803],[-80.41179,33.92986],[-80.41281,33.92882],[-80.41174,33.9276],[-80.41806,33.92341],[-80.41793,33.92148],[-80.41673,33.91967],[-80.41897,33.91943],[-80.42159,33.91799],[-80.41918,33.91528],[-80.41966,33.91469],[-80.41743,33.91362],[-80.41772,33.91054],[-80.41714,33.9094],[-80.41395,33.90944],[-80.41368,33.90743],[-80.41115,33.9074],[-80.41055,33.90576],[-80.41423,33.9054],[-80.41401,33.90262],[-80.41143,33.9018],[-80.412,33.89562],[-80.40923,33.89516],[-80.40932,33.89299],[-80.41077,33.89267],[-80.41723,33.89146],[-80.42435,33.89154],[-80.42464,33.89445],[-80.42469,33.89492],[-80.41936,33.89539],[-80.41604,33.89834],[-80.41966,33.90488],[-80.41706,33.90513],[-80.4171,33.9067],[-80.42081,33.90899],[-80.42033,33.91284],[-80.42113,33.91297],[-80.42631,33.91305],[-80.42556,33.92101],[-80.42531,33.92261],[-80.42807,33.92598],[-80.4263,33.9271],[-80.42842,33.92938],[-80.43013,33.93028],[-80.43317,33.92763],[-80.43336,33.92779],[-80.44207,33.93537],[-80.44226,33.93621],[-80.43724,33.93732],[-80.43674,33.93865],[-80.43765,33.94364],[-80.43857,33.94483],[-80.4375,33.94456],[-80.43578,33.94554],[-80.43371,33.94788],[-80.43195,33.94812],[-80.42599,33.94739],[-80.42542,33.94466],[-80.42352,33.94702],[-80.42082,33.94772],[-80.42085,33.94601],[-80.4154,33.94445],[-80.4166,33.94006],[-80.41157,33.93883],[-80.41028,33.94313],[-80.41086,33.94378],[-80.40734,33.94342],[-80.40642,33.94476],[-80.40348,33.94408],[-80.40429,33.94074],[-80.40215,33.94035],[-80.40175,33.93914],[-80.39993,33.93939],[-80.3962,33.93911],[-80.39608,33.93911],[-80.39607,33.93927],[-80.39601,33.93945],[-80.39607,33.93952],[-80.39625,33.93962],[-80.39627,33.93966],[-80.39692,33.94136],[-80.39692,33.94179],[-80.40203,33.94545],[-80.40163,33.94646],[-80.40313,33.94735],[-80.4053,33.94797],[-80.40733,33.94794],[-80.40573,33.95156],[-80.40694,33.95263],[-80.4089,33.95321],[-80.40873,33.95134],[-80.41251,33.95139],[-80.41259,33.94998],[-80.41385,33.95],[-80.41719,33.95346],[-80.41983,33.95527],[-80.4195,33.95719],[-80.42321,33.95852],[-80.4263,33.95874],[-80.42758,33.9604],[-80.42721,33.96174],[-80.42639,33.9617],[-80.42399,33.96191],[-80.41629,33.96445],[-80.41572,33.96207],[-80.41644,33.96187],[-80.41609,33.96109],[-80.41241,33.96199],[-80.41274,33.96361],[-80.4144,33.96338],[-80.4146,33.96469],[-80.41288,33.96492],[-80.41337,33.96766],[-80.41477,33.96801],[-80.41396,33.96897],[-80.41587,33.96821],[-80.41819,33.96652],[-80.42155,33.965],[-80.42163,33.96645],[-80.42394,33.96756],[-80.42536,33.96899],[-80.42693,33.96845],[-80.42761,33.96722],[-80.43582,33.96761],[-80.43956,33.96655],[-80.43909,33.96509],[-80.44014,33.96525],[-80.44385,33.96513],[-80.4602,33.96424],[-80.46196,33.96402],[-80.46334,33.96364],[-80.46784,33.96169],[-80.47525,33.95981],[-80.47542,33.95776],[-80.47716,33.95712],[-80.47329,33.95507],[-80.47318,33.95325],[-80.47509,33.95343],[-80.47472,33.9547],[-80.47738,33.95701],[-80.47907,33.95498],[-80.48183,33.95649],[-80.4847,33.95355],[-80.4877,33.95534],[-80.48785,33.95543],[-80.49174,33.954],[-80.49104,33.96555],[-80.49257,33.96565],[-80.49226,33.96831],[-80.49071,33.96994],[-80.49366,33.97012],[-80.49321,33.97256],[-80.49318,33.9726],[-80.49008,33.97251]],[[-80.48087,33.98487],[-80.48148,33.98626],[-80.48438,33.986],[-80.48354,33.98524],[-80.48354,33.98485],[-80.48087,33.98487]],[[-80.4743,33.9869],[-80.47479,33.98789],[-80.47757,33.9871],[-80.47757,33.98481],[-80.47374,33.98575],[-80.4743,33.9869]],[[-80.417,33.93329],[-80.41976,33.93152],[-80.41876,33.93041],[-80.41572,33.93236],[-80.417,33.93329]],[[-80.41307,33.97157],[-80.41385,33.97284],[-80.41802,33.97195],[-80.41783,33.97162],[-80.41717,33.97048],[-80.41307,33.97157]],[[-80.41452,33.93164],[-80.41682,33.93014],[-80.4164,33.92969],[-80.41387,33.93126],[-80.41452,33.93164]],[[-80.4147,33.93537],[-80.41444,33.93644],[-80.41628,33.9368],[-80.4165,33.93597],[-80.41585,33.93559],[-80.4147,33.93537]],[[-80.41082,33.95756],[-80.41044,33.95831],[-80.41166,33.95887],[-80.41214,33.95806],[-80.4104,33.95679],[-80.41082,33.95756]],[[-80.40631,33.96522],[-80.40572,33.9663],[-80.40706,33.96669],[-80.40717,33.96643],[-80.40796,33.96637],[-80.40822,33.9655],[-80.40762,33.96549],[-80.40631,33.96522]],[[-80.40107,33.96506],[-80.40331,33.96642],[-80.40482,33.96456],[-80.4027,33.96327],[-80.40107,33.96506]],[[-80.39783,33.95766],[-80.39938,33.95861],[-80.39834,33.9603],[-80.39826,33.96042],[-80.39801,33.96026],[-80.39593,33.96271],[-80.39666,33.96299],[-80.39887,33.96079],[-80.39897,33.96069],[-80.39932,33.9609],[-80.40034,33.95975],[-80.40153,33.96049],[-80.40051,33.96164],[-80.40179,33.96243],[-80.40305,33.96037],[-80.40469,33.96009],[-80.39833,33.95682],[-80.39783,33.95766]],[[-80.39064,33.90224],[-80.38812,33.8966],[-80.386,33.89503],[-80.38236,33.89558],[-80.38179,33.89715],[-80.38332,33.89738],[-80.38389,33.89608],[-80.385,33.89731],[-80.38443,33.89894],[-80.38304,33.89855],[-80.38281,33.89915],[-80.38114,33.89865],[-80.3803,33.90057],[-80.38506,33.90272],[-80.38513,33.90359],[-80.38799,33.90328],[-80.38568,33.90697],[-80.38043,33.90546],[-80.38158,33.90861],[-80.38685,33.90808],[-80.39314,33.90746],[-80.3954,33.90272],[-80.39642,33.90235],[-80.39625,33.89957],[-80.39507,33.90027],[-80.39064,33.90224]],[[-80.39294,33.9305],[-80.39234,33.92926],[-80.3917,33.9289],[-80.39105,33.92912],[-80.39156,33.92999],[-80.39219,33.93079],[-80.39286,33.93118],[-80.39294,33.93195],[-80.39386,33.93336],[-80.3942,33.93316],[-80.3939,33.93191],[-80.39378,33.93121],[-80.39294,33.9305]],[[-80.39055,33.96099],[-80.38766,33.96083],[-80.38774,33.95944],[-80.38371,33.95938],[-80.3827,33.9573],[-80.38202,33.95763],[-80.38139,33.95796],[-80.38107,33.9581],[-80.38338,33.96158],[-80.38756,33.96187],[-80.3868,33.96326],[-80.38448,33.96563],[-80.38293,33.96772],[-80.38785,33.96821],[-80.39029,33.96654],[-80.39226,33.96457],[-80.39291,33.96277],[-80.39046,33.96261],[-80.39055,33.96099]],[[-80.3885,33.97153],[-80.39122,33.97409],[-80.39209,33.97316],[-80.39134,33.97263],[-80.39245,33.97154],[-80.3902,33.96991],[-80.3885,33.97153]],[[-80.38723,33.97046],[-80.38821,33.9714],[-80.38994,33.96973],[-80.38871,33.96892],[-80.38731,33.96993],[-80.38723,33.97046]],[[-80.38747,33.95302],[-80.38576,33.955],[-80.38519,33.95505],[-80.38507,33.95676],[-80.38546,33.95681],[-80.38785,33.95687],[-80.38769,33.95504],[-80.38862,33.95479],[-80.38849,33.95392],[-80.38758,33.95399],[-80.38747,33.95302]],[[-80.38199,33.91026],[-80.38287,33.91252],[-80.38553,33.91216],[-80.3843,33.91068],[-80.38534,33.90996],[-80.38199,33.91026]],[[-80.37795,33.9141],[-80.37396,33.91387],[-80.37105,33.91476],[-80.37357,33.91493],[-80.37308,33.91633],[-80.37266,33.91758],[-80.37398,33.91822],[-80.37522,33.91831],[-80.37617,33.91866],[-80.37643,33.91668],[-80.37567,33.91631],[-80.37994,33.9143],[-80.38272,33.91345],[-80.38207,33.91186],[-80.37714,33.91326],[-80.37795,33.9141]],[[-80.37285,33.90666],[-80.37392,33.90937],[-80.38098,33.90869],[-80.37986,33.90703],[-80.37455,33.90595],[-80.37285,33.90666]],[[-80.37635,33.90224],[-80.37518,33.90242],[-80.37329,33.9035],[-80.37353,33.9049],[-80.37625,33.90439],[-80.37581,33.90358],[-80.3793,33.90368],[-80.37937,33.90284],[-80.37952,33.90236],[-80.37996,33.90134],[-80.37659,33.90102],[-80.37635,33.90224]],[[-80.37651,33.89498],[-80.37703,33.89451],[-80.37726,33.89362],[-80.37849,33.89356],[-80.37606,33.89331],[-80.37651,33.89498]],[[-80.3757,33.89189],[-80.37483,33.89236],[-80.37512,33.89271],[-80.37577,33.89185],[-80.37728,33.89104],[-80.37635,33.88985],[-80.3753,33.89042],[-80.3757,33.89189]],[[-80.37485,33.89407],[-80.37413,33.89361],[-80.37364,33.89491],[-80.37583,33.89511],[-80.37592,33.89433],[-80.37471,33.89435],[-80.37485,33.89407]],[[-80.37181,33.90217],[-80.37069,33.90326],[-80.37324,33.90182],[-80.37245,33.90133],[-80.37154,33.90179],[-80.37181,33.90217]],[[-80.36939,33.88716],[-80.36786,33.88774],[-80.36277,33.87891],[-80.36178,33.8778],[-80.35842,33.87691],[-80.35752,33.87572],[-80.35686,33.87575],[-80.35595,33.877],[-80.35773,33.87801],[-80.35932,33.8785],[-80.36024,33.88003],[-80.35921,33.88023],[-80.36421,33.88866],[-80.36025,33.88909],[-80.36032,33.89247],[-80.36325,33.89215],[-80.36293,33.89141],[-80.36718,33.89057],[-80.36517,33.88842],[-80.36738,33.88788],[-80.3683,33.88853],[-80.37045,33.89219],[-80.36862,33.89442],[-80.36815,33.89358],[-80.36365,33.89453],[-80.36273,33.89313],[-80.35867,33.8941],[-80.35908,33.89548],[-80.35787,33.89575],[-80.35803,33.89617],[-80.35815,33.89689],[-80.3616,33.90062],[-80.36171,33.90076],[-80.3663,33.89747],[-80.36818,33.89577],[-80.36909,33.89526],[-80.37065,33.89634],[-80.37236,33.89381],[-80.37064,33.89265],[-80.37311,33.89088],[-80.37277,33.8898],[-80.37168,33.89111],[-80.36939,33.88716]],[[-80.3545,33.87656],[-80.35357,33.88027],[-80.35595,33.877],[-80.3545,33.87656]],[[-80.36376,33.90402],[-80.36441,33.90467],[-80.36506,33.90779],[-80.36501,33.90832],[-80.365,33.90845],[-80.36773,33.90767],[-80.36844,33.90642],[-80.36768,33.90332],[-80.36376,33.90402]],[[-80.36542,33.90984],[-80.36548,33.90963],[-80.3654,33.90947],[-80.36521,33.90929],[-80.36516,33.90917],[-80.36294,33.91001],[-80.35982,33.90989],[-80.35978,33.9106],[-80.3659,33.91004],[-80.3658,33.90995],[-80.36548,33.90991],[-80.36542,33.90984]],[[-80.35941,33.95198],[-80.36013,33.9527],[-80.35932,33.95442],[-80.36185,33.95257],[-80.36088,33.95213],[-80.36014,33.95144],[-80.35941,33.95198]],[[-80.35627,33.90877],[-80.35541,33.9094],[-80.35597,33.91104],[-80.35505,33.91123],[-80.35528,33.9115],[-80.35563,33.91188],[-80.35626,33.91113],[-80.35586,33.91117],[-80.35721,33.91047],[-80.35715,33.90975],[-80.35769,33.90965],[-80.35787,33.90898],[-80.35767,33.90837],[-80.35627,33.90877]],[[-80.35505,33.90018],[-80.35513,33.90084],[-80.35478,33.9022],[-80.35577,33.90215],[-80.3574,33.9006],[-80.35672,33.89976],[-80.35524,33.90017],[-80.35505,33.90018]],[[-80.35625,33.89888],[-80.35561,33.89702],[-80.35292,33.89746],[-80.35301,33.89785],[-80.35453,33.89762],[-80.35487,33.89903],[-80.35332,33.89921],[-80.35351,33.9003],[-80.35505,33.90018],[-80.35625,33.89888]],[[-80.35376,33.90408],[-80.35266,33.9042],[-80.35252,33.90477],[-80.35158,33.90476],[-80.35169,33.90548],[-80.35207,33.90599],[-80.3525,33.9057],[-80.35286,33.90604],[-80.35383,33.90543],[-80.35385,33.9058],[-80.35185,33.90734],[-80.34993,33.90732],[-80.35077,33.9085],[-80.3511,33.90867],[-80.35137,33.90883],[-80.35411,33.91034],[-80.35317,33.9071],[-80.35388,33.90624],[-80.35634,33.90453],[-80.35369,33.90291],[-80.35376,33.90408]],[[-80.35216,33.89434],[-80.35066,33.89493],[-80.35273,33.8967],[-80.35278,33.8969],[-80.35509,33.89628],[-80.35468,33.89511],[-80.35241,33.89537],[-80.35216,33.89434]],[[-80.35122,33.88122],[-80.35108,33.88186],[-80.35458,33.88189],[-80.35329,33.88068],[-80.35288,33.88123],[-80.35122,33.88122]],[[-80.35125,33.89365],[-80.35061,33.89358],[-80.34899,33.89388],[-80.34992,33.89445],[-80.35187,33.89414],[-80.35202,33.89376],[-80.35197,33.89354],[-80.35195,33.89348],[-80.35125,33.89365]],[[-80.34409,33.94597],[-80.34398,33.94681],[-80.34472,33.94689],[-80.34453,33.94824],[-80.34601,33.94834],[-80.34613,33.9475],[-80.34687,33.94754],[-80.34693,33.94709],[-80.3478,33.94717],[-80.34755,33.94804],[-80.34847,33.94813],[-80.34868,33.94651],[-80.34607,33.94617],[-80.34409,33.94597]],[[-80.34513,33.94919],[-80.34487,33.95002],[-80.34821,33.95025],[-80.34832,33.94893],[-80.34495,33.94871],[-80.34513,33.94919]],[[-80.30897,33.92638],[-80.30955,33.92759],[-80.30938,33.92766],[-80.30983,33.92856],[-80.31049,33.9283],[-80.3105,33.92719],[-80.30938,33.92532],[-80.30897,33.92638]]],[[[-80.3478,33.973],[-80.35009,33.97274],[-80.3492,33.9693],[-80.35548,33.9686],[-80.35637,33.97227],[-80.35685,33.9787],[-80.3504,33.98285],[-80.3478,33.973]]]]}},{"type":"Feature","properties":{"name":"SpartaGo","boundary_type":"city","source":"Census TIGER place","fidelity":"approximate","updated":"2026-09","units":"Spartanburg city","note":"Service zone covers northside and southside neighborhoods only, not city-wide; one-year pilot program","confidence":0.85},"geometry":{"type":"MultiPolygon","coordinates":[[[[-81.9963,34.94227],[-81.99357,34.9437],[-81.99213,34.94231],[-81.991,34.94267],[-81.992,34.94513],[-81.98789,34.94854],[-81.98429,34.94776],[-81.98315,34.95116],[-81.98102,34.9516],[-81.98014,34.95043],[-81.9787,34.94956],[-81.97763,34.94806],[-81.97727,34.94638],[-81.97883,34.94581],[-81.97921,34.94552],[-81.97823,34.94257],[-81.97602,34.93868],[-81.96587,34.93951],[-81.95945,34.94054],[-81.95785,34.94141],[-81.95923,34.94477],[-81.95989,34.94465],[-81.96107,34.94443],[-81.96189,34.94559],[-81.96488,34.94325],[-81.96551,34.94234],[-81.96483,34.94154],[-81.96443,34.94155],[-81.96337,34.94158],[-81.96486,34.94091],[-81.96596,34.9396],[-81.96649,34.94086],[-81.96618,34.94193],[-81.96519,34.94313],[-81.96794,34.94611],[-81.96565,34.94743],[-81.96188,34.94818],[-81.96014,34.94829],[-81.95946,34.94839],[-81.95918,34.95297],[-81.95816,34.95712],[-81.95768,34.95746],[-81.95651,34.95946],[-81.95568,34.96069],[-81.95614,34.96124],[-81.95264,34.96403],[-81.95152,34.96666],[-81.95209,34.96773],[-81.95119,34.9687],[-81.9498,34.9675],[-81.94862,34.96756],[-81.94708,34.96929],[-81.949,34.97062],[-81.9483,34.97178],[-81.94557,34.96997],[-81.94688,34.96909],[-81.94647,34.96807],[-81.94478,34.96887],[-81.94349,34.9701],[-81.94144,34.97019],[-81.94135,34.9707],[-81.94008,34.97034],[-81.93866,34.97066],[-81.93762,34.97163],[-81.93756,34.97171],[-81.93664,34.97087],[-81.93543,34.97164],[-81.93258,34.9712],[-81.93122,34.97397],[-81.92789,34.97145],[-81.92828,34.9707],[-81.92761,34.97062],[-81.92719,34.97053],[-81.92333,34.97006],[-81.92153,34.96904],[-81.92037,34.96796],[-81.91997,34.96825],[-81.91752,34.96701],[-81.91701,34.96774],[-81.91954,34.9687],[-81.91833,34.96848],[-81.91766,34.96982],[-81.91552,34.96983],[-81.91645,34.96854],[-81.91498,34.96823],[-81.91515,34.96714],[-81.91463,34.96686],[-81.91508,34.966],[-81.91605,34.96688],[-81.91735,34.96692],[-81.9174,34.96686],[-81.91675,34.96649],[-81.91651,34.96633],[-81.91538,34.96551],[-81.91488,34.96512],[-81.91291,34.96581],[-81.90949,34.96692],[-81.90619,34.96752],[-81.90205,34.96809],[-81.90056,34.96847],[-81.90183,34.96894],[-81.90103,34.96961],[-81.90188,34.97048],[-81.89892,34.97236],[-81.89671,34.97073],[-81.89152,34.97403],[-81.89018,34.97466],[-81.88255,34.98192],[-81.8805,34.983],[-81.88006,34.9821],[-81.87787,34.98172],[-81.87742,34.98349],[-81.87485,34.98334],[-81.87356,34.9823],[-81.87297,34.97925],[-81.87134,34.9793],[-81.87009,34.9799],[-81.87113,34.98189],[-81.86772,34.98159],[-81.86697,34.98139],[-81.86447,34.97982],[-81.86087,34.97596],[-81.86092,34.97521],[-81.86476,34.97341],[-81.86653,34.97191],[-81.86635,34.97027],[-81.86756,34.96927],[-81.86533,34.96998],[-81.86532,34.96868],[-81.86183,34.97041],[-81.86259,34.97141],[-81.86023,34.97268],[-81.8585,34.97255],[-81.85816,34.9712],[-81.8588,34.96929],[-81.85749,34.97],[-81.8567,34.96903],[-81.85857,34.96741],[-81.85884,34.96515],[-81.86264,34.9635],[-81.86085,34.9613],[-81.86029,34.96258],[-81.85365,34.96418],[-81.85188,34.96534],[-81.85181,34.9654],[-81.84965,34.96474],[-81.84855,34.96265],[-81.84695,34.96199],[-81.84698,34.96122],[-81.85388,34.96118],[-81.85396,34.9639],[-81.85612,34.96334],[-81.85659,34.96104],[-81.85869,34.96076],[-81.86064,34.9602],[-81.86051,34.96035],[-81.8635,34.96036],[-81.86358,34.95973],[-81.86301,34.9597],[-81.86449,34.95859],[-81.86615,34.95577],[-81.86819,34.95653],[-81.86785,34.95801],[-81.8662,34.95768],[-81.86547,34.95996],[-81.8666,34.96008],[-81.86835,34.96008],[-81.87011,34.96257],[-81.87008,34.96386],[-81.87101,34.9647],[-81.87276,34.96269],[-81.87097,34.96199],[-81.87196,34.95985],[-81.87381,34.95956],[-81.87487,34.95395],[-81.87649,34.95591],[-81.87971,34.9537],[-81.87987,34.95365],[-81.8804,34.95338],[-81.8803,34.94473],[-81.87916,34.94602],[-81.87865,34.9446],[-81.87678,34.94537],[-81.87607,34.94384],[-81.87769,34.9432],[-81.879,34.942],[-81.88103,34.94197],[-81.88295,34.9408],[-81.88135,34.94025],[-81.88194,34.9383],[-81.8836,34.9383],[-81.88362,34.93738],[-81.88657,34.93732],[-81.88567,34.9363],[-81.88914,34.93775],[-81.89007,34.93717],[-81.88923,34.93463],[-81.89141,34.93321],[-81.89096,34.93278],[-81.88867,34.93339],[-81.88906,34.93135],[-81.88805,34.93083],[-81.88795,34.9308],[-81.89137,34.92919],[-81.89069,34.92869],[-81.89137,34.92807],[-81.88954,34.92659],[-81.88878,34.92542],[-81.88705,34.92142],[-81.88393,34.92199],[-81.8826,34.91892],[-81.88524,34.91952],[-81.8836,34.9179],[-81.88566,34.91743],[-81.8896,34.91725],[-81.89147,34.91558],[-81.89492,34.91423],[-81.89313,34.91121],[-81.89494,34.90922],[-81.89643,34.90841],[-81.89299,34.9031],[-81.9016,34.9019],[-81.90352,34.90047],[-81.90439,34.89665],[-81.907,34.89613],[-81.90806,34.89817],[-81.90992,34.9014],[-81.91001,34.90369],[-81.91227,34.90316],[-81.91502,34.90493],[-81.91218,34.90597],[-81.91004,34.90384],[-81.90783,34.90407],[-81.9057,34.90508],[-81.90301,34.90852],[-81.90536,34.90785],[-81.9042,34.90943],[-81.90559,34.91166],[-81.90239,34.91301],[-81.90097,34.91237],[-81.90018,34.91342],[-81.8934,34.91607],[-81.89401,34.9172],[-81.89232,34.91786],[-81.89323,34.91912],[-81.89269,34.92064],[-81.89238,34.91958],[-81.89059,34.92028],[-81.89154,34.92125],[-81.89109,34.92298],[-81.89389,34.92191],[-81.89463,34.91854],[-81.89635,34.91783],[-81.89716,34.91864],[-81.89899,34.91918],[-81.89875,34.91975],[-81.90009,34.92009],[-81.90029,34.92072],[-81.89972,34.92095],[-81.89999,34.9215],[-81.90123,34.92093],[-81.90124,34.92169],[-81.90156,34.92154],[-81.90209,34.92085],[-81.90272,34.92113],[-81.90294,34.91985],[-81.90358,34.92087],[-81.91037,34.91607],[-81.91105,34.91796],[-81.91758,34.9153],[-81.9178,34.91574],[-81.91903,34.91797],[-81.91881,34.91925],[-81.91992,34.92007],[-81.92018,34.92069],[-81.92027,34.92097],[-81.92138,34.92074],[-81.92183,34.92074],[-81.92142,34.92133],[-81.92263,34.92237],[-81.92983,34.91804],[-81.93004,34.91819],[-81.9346,34.92582],[-81.93368,34.9257],[-81.93266,34.92664],[-81.93077,34.92762],[-81.93352,34.92755],[-81.93671,34.92761],[-81.93594,34.92694],[-81.94051,34.92553],[-81.94529,34.92513],[-81.94642,34.92447],[-81.94716,34.92285],[-81.94946,34.92081],[-81.94889,34.91978],[-81.95192,34.91698],[-81.9528,34.91496],[-81.95374,34.91522],[-81.95642,34.91268],[-81.95529,34.90897],[-81.95516,34.90849],[-81.95808,34.90793],[-81.95831,34.90866],[-81.95943,34.90854],[-81.96109,34.90837],[-81.96326,34.90638],[-81.96607,34.90306],[-81.96486,34.90173],[-81.96795,34.90076],[-81.96887,34.90245],[-81.97325,34.90634],[-81.9704,34.90946],[-81.96939,34.91054],[-81.96759,34.90991],[-81.96694,34.91123],[-81.96603,34.91007],[-81.96414,34.91185],[-81.96335,34.91546],[-81.96645,34.91702],[-81.96593,34.91815],[-81.96816,34.91862],[-81.96832,34.92268],[-81.96899,34.92348],[-81.97056,34.92252],[-81.96854,34.92198],[-81.96848,34.91963],[-81.96971,34.91932],[-81.97016,34.92066],[-81.97343,34.91971],[-81.97677,34.92049],[-81.97632,34.92184],[-81.98648,34.92093],[-81.98797,34.92109],[-81.98745,34.92217],[-81.98921,34.92947],[-81.99332,34.93468],[-81.99095,34.93619],[-81.99105,34.93652],[-81.99397,34.93684],[-81.99732,34.93832],[-81.99966,34.94081],[-81.99745,34.943],[-81.99644,34.94082],[-81.9963,34.94227]],[[-81.99082,34.93842],[-81.98841,34.93883],[-81.99008,34.94113],[-81.99201,34.94214],[-81.99125,34.94015],[-81.98995,34.93907],[-81.99082,34.93842]],[[-81.93152,34.92228],[-81.93066,34.91935],[-81.9282,34.91916],[-81.92795,34.92274],[-81.92837,34.92579],[-81.93106,34.92622],[-81.93178,34.92567],[-81.93016,34.92337],[-81.93152,34.92228]],[[-81.9259,34.92151],[-81.92539,34.92112],[-81.92494,34.92111],[-81.92452,34.92145],[-81.92411,34.92249],[-81.92363,34.92276],[-81.92278,34.92249],[-81.92325,34.92468],[-81.92212,34.92508],[-81.92271,34.92655],[-81.92419,34.92552],[-81.92754,34.92275],[-81.92693,34.92268],[-81.92646,34.92209],[-81.9259,34.92151]],[[-81.92437,34.92737],[-81.92444,34.92881],[-81.92632,34.92828],[-81.92509,34.92706],[-81.9245,34.92732],[-81.92437,34.92737]],[[-81.89597,34.93637],[-81.89957,34.93926],[-81.90119,34.94035],[-81.90133,34.94049],[-81.90321,34.93863],[-81.8955,34.93463],[-81.89597,34.93637]],[[-81.89214,34.92537],[-81.89547,34.92541],[-81.89364,34.92959],[-81.8934,34.92956],[-81.89291,34.93004],[-81.8948,34.93132],[-81.89519,34.93087],[-81.89502,34.9306],[-81.89651,34.92847],[-81.89706,34.92861],[-81.89801,34.92704],[-81.89923,34.92574],[-81.89953,34.92587],[-81.90174,34.92381],[-81.90175,34.92358],[-81.89225,34.92343],[-81.89214,34.92537]],[[-81.89218,34.93058],[-81.89029,34.93104],[-81.89046,34.93165],[-81.89119,34.93201],[-81.89251,34.9319],[-81.8918,34.93179],[-81.89236,34.93122],[-81.89218,34.93058]],[[-81.88189,34.94285],[-81.88338,34.9444],[-81.88457,34.94565],[-81.88671,34.94396],[-81.88377,34.94166],[-81.88189,34.94285]],[[-81.88142,34.96139],[-81.88064,34.9605],[-81.87997,34.9616],[-81.87778,34.9618],[-81.87936,34.96359],[-81.87965,34.96262],[-81.88014,34.96328],[-81.87943,34.96452],[-81.88031,34.965],[-81.88253,34.96231],[-81.88211,34.96204],[-81.88169,34.96167],[-81.88142,34.96139]],[[-81.87089,34.96742],[-81.86933,34.96674],[-81.86786,34.9691],[-81.86947,34.96993],[-81.86774,34.97117],[-81.87053,34.97153],[-81.8729,34.96944],[-81.87473,34.96895],[-81.87083,34.96556],[-81.87089,34.96742]],[[-81.86679,34.97176],[-81.86586,34.97467],[-81.86681,34.97487],[-81.86679,34.97407],[-81.86877,34.974],[-81.86705,34.9736],[-81.86804,34.9731],[-81.86679,34.97176]],[[-81.86326,34.96328],[-81.85888,34.96516],[-81.85932,34.96752],[-81.86092,34.9699],[-81.86384,34.96835],[-81.86293,34.9659],[-81.86814,34.96556],[-81.86796,34.96469],[-81.86503,34.96484],[-81.86326,34.96328]]],[[[-82.00142,34.94101],[-81.99978,34.93949],[-82.00281,34.93879],[-82.00354,34.94282],[-82.00216,34.94318],[-82.00142,34.94101]]]]}},{"type":"Feature","properties":{"name":"TriCounty Link","boundary_type":"counties","source":"Census TIGER county","fidelity":"exact","updated":"2026-09","units":"Berkeley County; Charleston County; Dorchester County","note":"Hybrid fixed/commuter/on-demand transit across rural areas of three-county region","confidence":0.9},"geometry":{"type":"MultiPolygon","coordinates":[[[[-80.17715,32.54826],[-80.17873,32.54718],[-80.18205,32.54722],[-80.18591,32.55087],[-80.18632,32.55302],[-80.18449,32.55358],[-80.17796,32.54968],[-80.17715,32.54826]]],[[[-80.44948,32.75288],[-80.44958,32.75725],[-80.44749,32.76271],[-80.44614,32.76487],[-80.44522,32.76535],[-80.44072,32.76505],[-80.43931,32.76588],[-80.43657,32.77022],[-80.4385,32.77128],[-80.43848,32.77274],[-80.43585,32.77435],[-80.43293,32.77848],[-80.43191,32.78169],[-80.43223,32.78326],[-80.43374,32.7854],[-80.43596,32.78774],[-80.43581,32.78819],[-80.43271,32.78997],[-80.43099,32.79161],[-80.43055,32.79282],[-80.42701,32.79605],[-80.42616,32.79793],[-80.42108,32.79838],[-80.41829,32.80248],[-80.41828,32.80514],[-80.41684,32.80512],[-80.41576,32.80239],[-80.41475,32.80256],[-80.41512,32.8053],[-80.41409,32.80884],[-80.41171,32.80888],[-80.41251,32.80682],[-80.41105,32.80601],[-80.40992,32.80654],[-80.41118,32.809],[-80.40775,32.81084],[-80.40541,32.81497],[-80.40512,32.81658],[-80.40402,32.81864],[-80.4044,32.8226],[-80.40334,32.82494],[-80.40028,32.82833],[-80.3989,32.83183],[-80.3993,32.83547],[-80.39737,32.83674],[-80.39641,32.83805],[-80.39572,32.84025],[-80.39717,32.84199],[-80.3967,32.84282],[-80.39414,32.8445],[-80.39433,32.84549],[-80.39621,32.84595],[-80.39771,32.84531],[-80.39943,32.84574],[-80.39949,32.84764],[-80.40075,32.85095],[-80.40136,32.85666],[-80.40132,32.85853],[-80.3993,32.86445],[-80.3999,32.86482],[-80.40263,32.86587],[-80.40326,32.86964],[-80.4028,32.87076],[-80.40187,32.87168],[-80.40021,32.87248],[-80.39923,32.87321],[-80.39886,32.87779],[-80.39617,32.87942],[-80.39443,32.87968],[-80.39425,32.88059],[-80.39624,32.88198],[-80.3962,32.88305],[-80.39338,32.88267],[-80.39379,32.88414],[-80.39329,32.88528],[-80.39184,32.88532],[-80.38944,32.88456],[-80.38728,32.88458],[-80.38534,32.88612],[-80.38718,32.88837],[-80.38949,32.88853],[-80.38953,32.89043],[-80.39116,32.89211],[-80.39308,32.89233],[-80.39148,32.8946],[-80.39289,32.89596],[-80.39292,32.89415],[-80.39746,32.89385],[-80.39759,32.89433],[-80.39526,32.89713],[-80.39675,32.89889],[-80.39726,32.90077],[-80.399,32.90109],[-80.40123,32.90034],[-80.3999,32.90226],[-80.40001,32.9032],[-80.4018,32.90448],[-80.40209,32.90774],[-80.4029,32.90874],[-80.40645,32.91023],[-80.40564,32.91454],[-80.40171,32.91737],[-80.40027,32.92072],[-80.40003,32.92324],[-80.39836,32.9269],[-80.39929,32.93068],[-80.40063,32.9333],[-80.39941,32.93451],[-80.3994,32.93604],[-80.40062,32.93778],[-80.40045,32.94031],[-80.40279,32.9414],[-80.40223,32.94335],[-80.4029,32.94454],[-80.40219,32.94633],[-80.40261,32.94699],[-80.4052,32.94529],[-80.40733,32.94605],[-80.40732,32.94768],[-80.4047,32.95041],[-80.40441,32.95231],[-80.40522,32.95513],[-80.40708,32.95588],[-80.40771,32.95529],[-80.40621,32.95377],[-80.40764,32.95271],[-80.41012,32.95567],[-80.40884,32.95752],[-80.40919,32.95814],[-80.41142,32.95768],[-80.41265,32.95972],[-80.41534,32.96151],[-80.4162,32.96382],[-80.41881,32.96726],[-80.4184,32.96852],[-80.41558,32.96923],[-80.41367,32.9715],[-80.4152,32.9732],[-80.41623,32.97098],[-80.41791,32.9713],[-80.41865,32.97535],[-80.4184,32.97604],[-80.41563,32.97689],[-80.41367,32.97906],[-80.41378,32.98197],[-80.41495,32.98293],[-80.41427,32.98417],[-80.41248,32.98353],[-80.41003,32.98383],[-80.4087,32.98461],[-80.40946,32.98618],[-80.41092,32.9855],[-80.41231,32.98603],[-80.40975,32.98756],[-80.40926,32.98997],[-80.41079,32.99352],[-80.40785,32.99618],[-80.40585,32.99984],[-80.40709,33.00017],[-80.40785,33.00458],[-80.40757,33.00492],[-80.40673,33.00593],[-80.40638,33.00675],[-80.40627,33.00724],[-80.40608,33.00755],[-80.40379,33.0084],[-80.4036,33.00962],[-80.40559,33.00943],[-80.40692,33.01035],[-80.40657,33.01402],[-80.407,33.01713],[-80.40648,33.01901],[-80.40444,33.02041],[-80.39927,33.02235],[-80.39557,33.02437],[-80.39359,33.02609],[-80.3926,33.02756],[-80.3913,33.02998],[-80.38782,33.03284],[-80.38799,33.03411],[-80.38958,33.03898],[-80.38969,33.04299],[-80.39167,33.04498],[-80.39809,33.05001],[-80.4007,33.05278],[-80.40223,33.05324],[-80.40312,33.05308],[-80.40424,33.05136],[-80.40427,33.04944],[-80.40631,33.04944],[-80.40919,33.04831],[-80.41202,33.0466],[-80.4133,33.04669],[-80.41482,33.04989],[-80.41836,33.05134],[-80.42187,33.05492],[-80.42263,33.05475],[-80.42475,33.05148],[-80.42589,33.05281],[-80.42794,33.05134],[-80.43174,33.05143],[-80.43332,33.05233],[-80.43623,33.05233],[-80.43738,33.05322],[-80.43996,33.04901],[-80.43996,33.05001],[-80.4423,33.05173],[-80.44088,33.05219],[-80.4408,33.05327],[-80.44458,33.05578],[-80.44763,33.05416],[-80.44891,33.05455],[-80.44788,33.0581],[-80.45014,33.05906],[-80.45082,33.06151],[-80.45207,33.0622],[-80.45283,33.06167],[-80.45174,33.06023],[-80.45552,33.05899],[-80.45571,33.06128],[-80.45811,33.06066],[-80.45958,33.06374],[-80.46151,33.06229],[-80.46366,33.0624],[-80.46483,33.06316],[-80.46804,33.06265],[-80.46932,33.06325],[-80.47479,33.06439],[-80.47522,33.06256],[-80.47438,33.0608],[-80.47541,33.05995],[-80.47675,33.06114],[-80.48053,33.05986],[-80.48055,33.06155],[-80.48469,33.06144],[-80.48613,33.0627],[-80.48815,33.06182],[-80.48959,33.06198],[-80.48978,33.06356],[-80.49117,33.06379],[-80.49318,33.06294],[-80.49683,33.06317],[-80.49726,33.06203],[-80.49614,33.06102],[-80.49536,33.0618],[-80.49383,33.06059],[-80.49459,33.05967],[-80.49982,33.05839],[-80.50247,33.05891],[-80.50396,33.0577],[-80.50641,33.0588],[-80.50968,33.05726],[-80.51482,33.05846],[-80.5162,33.06082],[-80.51794,33.06048],[-80.52038,33.06204],[-80.52447,33.0615],[-80.52606,33.06118],[-80.52834,33.06339],[-80.52731,33.06631],[-80.52939,33.06699],[-80.53201,33.06965],[-80.53318,33.06859],[-80.53506,33.06905],[-80.53644,33.06852],[-80.53832,33.06997],[-80.53976,33.06813],[-80.53753,33.06694],[-80.53783,33.066],[-80.54023,33.06431],[-80.54227,33.06621],[-80.54382,33.06603],[-80.54436,33.06383],[-80.54605,33.06614],[-80.54744,33.06575],[-80.54679,33.06383],[-80.54752,33.06275],[-80.54491,33.06298],[-80.5445,33.06224],[-80.54651,33.06099],[-80.54771,33.05947],[-80.54921,33.06005],[-80.5503,33.05833],[-80.55304,33.05931],[-80.55321,33.06193],[-80.55781,33.06115],[-80.55878,33.05982],[-80.5617,33.06064],[-80.56357,33.06048],[-80.56477,33.05943],[-80.56648,33.0605],[-80.56801,33.06037],[-80.56784,33.05931],[-80.57103,33.05943],[-80.57057,33.05769],[-80.57198,33.05924],[-80.57546,33.05851],[-80.57587,33.05993],[-80.57794,33.06053],[-80.57895,33.06002],[-80.57745,33.05869],[-80.57731,33.05741],[-80.57848,33.05725],[-80.5821,33.05846],[-80.5873,33.05748],[-80.58931,33.0583],[-80.59149,33.05782],[-80.59502,33.05988],[-80.5966,33.05997],[-80.60038,33.06137],[-80.60058,33.06267],[-80.60248,33.06283],[-80.604,33.06176],[-80.60857,33.06279],[-80.61015,33.06414],[-80.61142,33.06389],[-80.61511,33.06521],[-80.6181,33.06475],[-80.61935,33.0662],[-80.6227,33.06626],[-80.62381,33.06693],[-80.62368,33.06924],[-80.62623,33.0686],[-80.62773,33.06952],[-80.62941,33.07277],[-80.62669,33.07506],[-80.62726,33.07593],[-80.63088,33.07568],[-80.63238,33.07628],[-80.63219,33.0777],[-80.63589,33.07958],[-80.63586,33.08082],[-80.63869,33.08159],[-80.64019,33.08068],[-80.64125,33.08212],[-80.64076,33.08297],[-80.64312,33.08419],[-80.64378,33.08581],[-80.64527,33.08627],[-80.64693,33.08554],[-80.64843,33.08749],[-80.6493,33.08985],[-80.65004,33.0902],[-80.65169,33.09051],[-80.65322,33.09317],[-80.65798,33.09226],[-80.6586,33.09368],[-80.66135,33.09459],[-80.66149,33.09562],[-80.65923,33.09649],[-80.65961,33.09759],[-80.66258,33.09895],[-80.66508,33.09945],[-80.66595,33.10122],[-80.67044,33.10355],[-80.6718,33.10568],[-80.67109,33.10768],[-80.67357,33.10802],[-80.67403,33.10981],[-80.67303,33.11056],[-80.67327,33.11224],[-80.6721,33.11318],[-80.67433,33.11359],[-80.6751,33.11467],[-80.67825,33.11565],[-80.67893,33.117],[-80.67771,33.11854],[-80.67953,33.11902],[-80.67991,33.12044],[-80.67861,33.12159],[-80.68117,33.12445],[-80.68302,33.1233],[-80.68509,33.12378],[-80.68502,33.125],[-80.68936,33.12712],[-80.68944,33.1287],[-80.69173,33.12813],[-80.69304,33.1287],[-80.69217,33.12987],[-80.68939,33.13024],[-80.68988,33.13148],[-80.6929,33.1315],[-80.6935,33.13237],[-80.69157,33.13443],[-80.69165,33.13752],[-80.69326,33.13743],[-80.6929,33.13853],[-80.69451,33.14075],[-80.69993,33.14268],[-80.69908,33.14405],[-80.70301,33.1444],[-80.70527,33.14701],[-80.70617,33.1499],[-80.70565,33.15093],[-80.70314,33.15138],[-80.70306,33.15248],[-80.7051,33.15338],[-80.70666,33.15482],[-80.70894,33.15484],[-80.70974,33.15647],[-80.71126,33.15569],[-80.71071,33.15345],[-80.71257,33.15381],[-80.71319,33.15677],[-80.71546,33.16052],[-80.7166,33.16101],[-80.71739,33.15958],[-80.72088,33.16126],[-80.72311,33.16286],[-80.72529,33.16375],[-80.72725,33.16549],[-80.7309,33.16687],[-80.73246,33.16911],[-80.73445,33.17005],[-80.73742,33.17037],[-80.73831,33.16922],[-80.74038,33.16824],[-80.74374,33.16819],[-80.7475,33.17222],[-80.74556,33.17337],[-80.74611,33.17453],[-80.75042,33.17268],[-80.75347,33.17424],[-80.75633,33.17346],[-80.75868,33.17467],[-80.75892,33.17321],[-80.75729,33.17163],[-80.75824,33.17089],[-80.76004,33.17218],[-80.76217,33.17034],[-80.76342,33.17055],[-80.76334,33.17365],[-80.765,33.17461],[-80.76701,33.17239],[-80.76849,33.17211],[-80.76966,33.17294],[-80.772,33.17156],[-80.77377,33.17351],[-80.77649,33.17305],[-80.77671,33.17521],[-80.77908,33.17677],[-80.78189,33.17612],[-80.78254,33.17464],[-80.78426,33.17459],[-80.78458,33.17567],[-80.78676,33.1751],[-80.78821,33.17686],[-80.79197,33.17617],[-80.78992,33.17943],[-80.7903,33.18084],[-80.71289,33.22229],[-80.70104,33.22867],[-80.66619,33.24741],[-80.66075,33.25013],[-80.6129,33.27585],[-80.50279,33.3345],[-80.49847,33.33057],[-80.49574,33.32617],[-80.49467,33.32381],[-80.49413,33.32117],[-80.49388,33.31579],[-80.49534,33.30497],[-80.49518,33.30255],[-80.49396,33.29754],[-80.49174,33.29329],[-80.48923,33.28956],[-80.48612,33.28219],[-80.48458,33.28003],[-80.47926,33.27766],[-80.47561,33.27485],[-80.47333,33.27367],[-80.46662,33.27147],[-80.46228,33.27067],[-80.45349,33.27099],[-80.45168,33.27066],[-80.4495,33.26954],[-80.4436,33.26494],[-80.44116,33.2624],[-80.43969,33.2617],[-80.43953,33.26162],[-80.43617,33.26002],[-80.42709,33.25776],[-80.42446,33.25771],[-80.42,33.25825],[-80.41329,33.25981],[-80.41025,33.2602],[-80.40144,33.26237],[-80.39631,33.26423],[-80.39421,33.26466],[-80.39187,33.26456],[-80.38983,33.26429],[-80.38445,33.26174],[-80.38197,33.26101],[-80.37766,33.2605],[-80.37482,33.26067],[-80.36826,33.25949],[-80.3643,33.25856],[-80.36185,33.25744],[-80.3613,33.26308],[-80.3591,33.27199],[-80.35735,33.27477],[-80.35442,33.27676],[-80.35217,33.2775],[-80.34893,33.27802],[-80.34464,33.27785],[-80.33766,33.27587],[-80.33012,33.27223],[-80.3256,33.26905],[-80.32226,33.26605],[-80.31996,33.26477],[-80.3172,33.26412],[-80.31474,33.26411],[-80.31159,33.26457],[-80.30194,33.26746],[-80.296,33.26996],[-80.29448,33.27126],[-80.29169,33.27632],[-80.28927,33.27911],[-80.28701,33.27934],[-80.28412,33.28082],[-80.27855,33.28259],[-80.27541,33.2847],[-80.2726,33.28573],[-80.27181,33.28784],[-80.2702,33.29043],[-80.26572,33.29203],[-80.26351,33.29232],[-80.26202,33.2945],[-80.26052,33.29539],[-80.25968,33.29686],[-80.25564,33.3],[-80.25384,33.29926],[-80.25219,33.30831],[-80.25201,33.31031],[-80.2525,33.31957],[-80.25209,33.32129],[-80.24807,33.32667],[-80.24729,33.32869],[-80.2479,33.33816],[-80.24745,33.33975],[-80.24462,33.34348],[-80.24378,33.34582],[-80.24203,33.34863],[-80.24031,33.35063],[-80.23962,33.3522],[-80.2398,33.35516],[-80.23896,33.36022],[-80.23907,33.36284],[-80.24052,33.36647],[-80.24033,33.37256],[-80.24179,33.37605],[-80.24156,33.38308],[-80.23996,33.38678],[-80.23846,33.39115],[-80.2324,33.38412],[-80.23024,33.3841],[-80.22988,33.39158],[-80.22257,33.39129],[-80.22197,33.40309],[-80.22189,33.40454],[-80.2252,33.40934],[-80.22384,33.41505],[-80.22383,33.41813],[-80.22464,33.42282],[-80.22473,33.42548],[-80.22187,33.4329],[-80.22148,33.43458],[-80.22216,33.43956],[-80.22227,33.44372],[-80.22236,33.44776],[-80.21896,33.44772],[-80.21657,33.44662],[-80.21414,33.4443],[-80.20895,33.44266],[-80.20656,33.44197],[-80.20402,33.44187],[-80.20372,33.44397],[-80.20691,33.44694],[-80.20744,33.44949],[-80.20866,33.4513],[-80.20816,33.45229],[-80.20735,33.45257],[-80.20054,33.45293],[-80.1981,33.45157],[-80.19723,33.45052],[-80.19769,33.44892],[-80.20014,33.44583],[-80.19985,33.44391],[-80.19752,33.44364],[-80.19533,33.44465],[-80.19157,33.44751],[-80.19,33.44911],[-80.18679,33.45052],[-80.18578,33.45037],[-80.18353,33.44792],[-80.18166,33.44849],[-80.18119,33.44992],[-80.18314,33.45253],[-80.18258,33.45382],[-80.18102,33.45463],[-80.1783,33.45424],[-80.17719,33.45313],[-80.17657,33.44995],[-80.17568,33.44861],[-80.17339,33.44869],[-80.17056,33.44974],[-80.1677,33.45183],[-80.16582,33.45404],[-80.16515,33.45555],[-80.16481,33.45896],[-80.16364,33.46031],[-80.16273,33.4607],[-80.1593,33.45828],[-80.15854,33.45703],[-80.15871,33.45513],[-80.16158,33.45039],[-80.16146,33.44895],[-80.15846,33.44872],[-80.154,33.44793],[-80.15072,33.44818],[-80.14831,33.44987],[-80.14788,33.45243],[-80.14861,33.45518],[-80.15187,33.45691],[-80.15216,33.45937],[-80.15067,33.46026],[-80.14751,33.45956],[-80.14416,33.45835],[-80.14273,33.45694],[-80.14195,33.45468],[-80.14039,33.45385],[-80.1392,33.45398],[-80.13794,33.45545],[-80.1384,33.45871],[-80.13973,33.46036],[-80.14342,33.46098],[-80.14456,33.46283],[-80.14424,33.46411],[-80.14119,33.46542],[-80.13875,33.46506],[-80.13644,33.46212],[-80.13512,33.46108],[-80.13304,33.461],[-80.13176,33.46341],[-80.13496,33.46671],[-80.14225,33.47005],[-80.14444,33.47266],[-80.14822,33.47402],[-80.15204,33.47857],[-80.15179,33.48048],[-80.15089,33.48149],[-80.15083,33.48304],[-80.15208,33.48542],[-80.15106,33.48643],[-80.14925,33.48684],[-80.1476,33.48642],[-80.14531,33.48456],[-80.1441,33.48439],[-80.14241,33.48523],[-80.14157,33.48643],[-80.13754,33.48744],[-80.13652,33.48818],[-80.13479,33.49223],[-80.13365,33.49286],[-80.13001,33.49243],[-80.12728,33.49327],[-80.126,33.49509],[-80.12614,33.49638],[-80.12764,33.50017],[-80.12694,33.50155],[-80.12555,33.50243],[-80.12273,33.50233],[-80.11916,33.50029],[-80.11651,33.49983],[-80.11312,33.49878],[-80.10892,33.49992],[-80.10668,33.49987],[-80.10573,33.49931],[-80.10442,33.49705],[-80.1017,33.49689],[-80.09999,33.49738],[-80.09802,33.49951],[-80.09594,33.49961],[-80.09559,33.49783],[-80.09671,33.49578],[-80.09587,33.49545],[-80.09383,33.49654],[-80.09306,33.49889],[-80.09412,33.50157],[-80.09383,33.50297],[-80.09153,33.50318],[-80.08712,33.50017],[-80.08466,33.49998],[-80.08393,33.50104],[-80.08217,33.50573],[-80.07989,33.50687],[-80.07551,33.50662],[-80.07349,33.50717],[-80.07075,33.50659],[-80.06458,33.50573],[-80.0575,33.50558],[-80.05344,33.50569],[-80.04865,33.50637],[-80.04248,33.50095],[-80.03997,33.50173],[-80.03796,33.50541],[-80.03656,33.50683],[-80.03471,33.50682],[-80.03326,33.50571],[-80.03288,33.50167],[-80.03172,33.50091],[-80.02936,33.50151],[-80.02806,33.50311],[-80.02748,33.50471],[-80.02526,33.50644],[-80.02395,33.50629],[-80.02147,33.50369],[-80.02056,33.50218],[-80.02128,33.49921],[-80.02048,33.49842],[-80.01857,33.49831],[-80.01661,33.50017],[-80.01537,33.50399],[-80.01396,33.5051],[-80.01214,33.50517],[-80.00962,33.50374],[-80.00536,33.50254],[-80.00364,33.50017],[-80.00464,33.49717],[-80.00445,33.49573],[-80.00189,33.49472],[-80.00014,33.49483],[-79.99787,33.49704],[-79.9969,33.49922],[-79.99707,33.50054],[-79.99899,33.50326],[-80.00034,33.50431],[-80.00035,33.50559],[-79.99883,33.50669],[-79.99623,33.50684],[-79.99186,33.5046],[-79.9908,33.50209],[-79.99127,33.50017],[-79.98979,33.4983],[-79.98626,33.49792],[-79.98398,33.49926],[-79.98224,33.49967],[-79.97953,33.49918],[-79.97747,33.4979],[-79.97548,33.49762],[-79.97388,33.50017],[-79.97196,33.50094],[-79.96456,33.49864],[-79.96089,33.49445],[-79.95904,33.49336],[-79.95464,33.49239],[-79.95293,33.49137],[-79.95157,33.48691],[-79.95023,33.48591],[-79.94622,33.48434],[-79.94381,33.48302],[-79.94115,33.48083],[-79.9411,33.47667],[-79.94011,33.47573],[-79.93837,33.47591],[-79.93613,33.47778],[-79.93477,33.47773],[-79.93263,33.47558],[-79.93027,33.47219],[-79.9279,33.4704],[-79.92413,33.46868],[-79.92039,33.46558],[-79.91539,33.46418],[-79.91314,33.46113],[-79.91023,33.45571],[-79.90785,33.45487],[-79.90419,33.45624],[-79.90214,33.45535],[-79.90279,33.45262],[-79.90355,33.45142],[-79.90312,33.45043],[-79.90141,33.45014],[-79.89989,33.45215],[-79.89957,33.45452],[-79.89701,33.45486],[-79.89415,33.45365],[-79.89004,33.44856],[-79.88822,33.44761],[-79.88458,33.44639],[-79.88015,33.44282],[-79.87946,33.44162],[-79.8785,33.43788],[-79.87632,33.43531],[-79.8728,33.43467],[-79.87022,33.43529],[-79.86822,33.43448],[-79.86704,33.43231],[-79.86728,33.43056],[-79.86854,33.42927],[-79.87162,33.4279],[-79.87591,33.42853],[-79.87763,33.42847],[-79.87867,33.42706],[-79.87752,33.42444],[-79.87613,33.42408],[-79.87157,33.42392],[-79.86982,33.42305],[-79.86778,33.41993],[-79.86349,33.41921],[-79.8613,33.41779],[-79.86016,33.41511],[-79.86099,33.4105],[-79.86079,33.40851],[-79.85499,33.40635],[-79.85476,33.4039],[-79.85477,33.40292],[-79.85131,33.40135],[-79.84851,33.40142],[-79.84544,33.40062],[-79.84022,33.39801],[-79.83899,33.39648],[-79.83811,33.39232],[-79.83582,33.39055],[-79.83166,33.3896],[-79.82828,33.38792],[-79.82474,33.38663],[-79.81907,33.38507],[-79.81386,33.38232],[-79.81203,33.38002],[-79.80959,33.37509],[-79.80827,33.37328],[-79.80701,33.37259],[-79.80246,33.37221],[-79.8008,33.37263],[-79.798,33.3744],[-79.79639,33.37764],[-79.79497,33.37795],[-79.79401,33.37768],[-79.79271,33.37604],[-79.79165,33.3735],[-79.7904,33.37316],[-79.78612,33.37603],[-79.78416,33.37613],[-79.78376,33.37515],[-79.78622,33.37327],[-79.78645,33.37202],[-79.78388,33.3694],[-79.78164,33.36822],[-79.78116,33.36667],[-79.78167,33.36396],[-79.78047,33.36245],[-79.7783,33.36193],[-79.77763,33.3609],[-79.77855,33.35915],[-79.7765,33.35783],[-79.77396,33.35764],[-79.77177,33.35616],[-79.77081,33.35326],[-79.76786,33.34975],[-79.76792,33.34461],[-79.76687,33.34399],[-79.76323,33.34379],[-79.76139,33.34225],[-79.76123,33.34033],[-79.76153,33.33557],[-79.76067,33.33481],[-79.75751,33.33441],[-79.75527,33.33526],[-79.75445,33.33447],[-79.75638,33.33019],[-79.75542,33.32945],[-79.75212,33.3305],[-79.74979,33.33036],[-79.7442,33.32744],[-79.74115,33.32231],[-79.73996,33.32161],[-79.73481,33.32017],[-79.73211,33.31999],[-79.72683,33.32212],[-79.72453,33.3217],[-79.7219,33.31927],[-79.7192,33.31863],[-79.71446,33.31994],[-79.7128,33.32091],[-79.70958,33.32125],[-79.70859,33.32076],[-79.70628,33.31833],[-79.70454,33.31768],[-79.7017,33.31825],[-79.70037,33.31805],[-79.6993,33.31763],[-79.69541,33.31404],[-79.69209,33.31271],[-79.68939,33.31076],[-79.68151,33.30647],[-79.67772,33.30518],[-79.67701,33.30494],[-79.67497,33.30426],[-79.66876,33.30145],[-79.66425,33.29832],[-79.65964,33.29722],[-79.6549,33.29669],[-79.6476,33.29616],[-79.63927,33.29479],[-79.63099,33.29293],[-79.6196,33.28886],[-79.61257,33.28514],[-79.60657,33.27932],[-79.60201,33.27888],[-79.59718,33.27949],[-79.59555,33.27929],[-79.57785,33.27479],[-79.56225,33.27252],[-79.55916,33.27057],[-79.55767,33.26859],[-79.55777,33.26623],[-79.56102,33.26232],[-79.56109,33.26147],[-79.55981,33.26048],[-79.55556,33.26136],[-79.5517,33.26487],[-79.54976,33.26498],[-79.54723,33.25946],[-79.54656,33.25599],[-79.54583,33.25481],[-79.5443,33.25427],[-79.53889,33.25364],[-79.53704,33.25291],[-79.53542,33.24961],[-79.53018,33.24748],[-79.52328,33.24588],[-79.51648,33.24559],[-79.51014,33.24346],[-79.49979,33.23835],[-79.49399,33.23603],[-79.49155,33.23603],[-79.48904,33.23684],[-79.48682,33.23838],[-79.48525,33.24051],[-79.48264,33.24592],[-79.47928,33.24607],[-79.47836,33.24529],[-79.47808,33.24327],[-79.48111,33.23939],[-79.4834,33.23693],[-79.48288,33.23544],[-79.4807,33.23458],[-79.4787,33.23508],[-79.47635,33.2369],[-79.47248,33.23909],[-79.47065,33.23941],[-79.46866,33.23804],[-79.46905,33.23652],[-79.47445,33.23215],[-79.47456,33.23096],[-79.47393,33.22977],[-79.47167,33.22986],[-79.47016,33.23093],[-79.46578,33.23154],[-79.462,33.23398],[-79.45873,33.23522],[-79.45759,33.23265],[-79.45855,33.23127],[-79.46125,33.23027],[-79.46203,33.22939],[-79.4602,33.22813],[-79.45864,33.22952],[-79.45566,33.2292],[-79.45372,33.22784],[-79.45172,33.22541],[-79.45206,33.22266],[-79.45541,33.21955],[-79.45509,33.21773],[-79.45287,33.21608],[-79.44701,33.21338],[-79.4467,33.21346],[-79.43948,33.21534],[-79.43775,33.21524],[-79.43564,33.21393],[-79.43205,33.21109],[-79.42748,33.20978],[-79.4268,33.20899],[-79.42614,33.20568],[-79.42298,33.20277],[-79.41976,33.20114],[-79.41584,33.19989],[-79.41434,33.19901],[-79.4117,33.19588],[-79.41032,33.19308],[-79.40825,33.1883],[-79.40506,33.18469],[-79.40403,33.18378],[-79.3944,33.17804],[-79.38601,33.17609],[-79.38345,33.17516],[-79.3803,33.17284],[-79.37731,33.16936],[-79.37371,33.16649],[-79.36692,33.16227],[-79.36045,33.16052],[-79.35789,33.15933],[-79.35611,33.15786],[-79.35414,33.1553],[-79.35129,33.15352],[-79.34957,33.15328],[-79.34156,33.15403],[-79.33207,33.15269],[-79.32554,33.15044],[-79.31802,33.14669],[-79.31509,33.14572],[-79.31056,33.14543],[-79.2978,33.14558],[-79.29546,33.14648],[-79.29125,33.14656],[-79.28393,33.14425],[-79.2799,33.14327],[-79.27508,33.14116],[-79.27241,33.13965],[-79.26974,33.13736],[-79.26876,33.13604],[-79.26795,33.13271],[-79.26841,33.13031],[-79.27185,33.12339],[-79.27529,33.11892],[-79.27672,33.11791],[-79.27558,33.11677],[-79.29159,33.10977],[-79.30594,33.10316],[-79.31606,33.09923],[-79.32338,33.09258],[-79.32816,33.09041],[-79.3302,33.08659],[-79.33187,33.08101],[-79.33591,33.07026],[-79.34149,33.05382],[-79.35124,33.03519],[-79.3598,33.01965],[-79.36229,33.00909],[-79.37358,33.00869],[-79.38,33.00939],[-79.39675,33.00819],[-79.41651,33.00682],[-79.42314,33.01018],[-79.42148,33.01118],[-79.41163,33.01034],[-79.40108,33.01118],[-79.40065,33.01751],[-79.40442,33.01962],[-79.4052,33.01802],[-79.40729,33.01445],[-79.41636,33.01612],[-79.45285,33.01268],[-79.47055,33.01008],[-79.47468,33.01139],[-79.48327,33.00979],[-79.48933,33.01397],[-79.48873,33.01583],[-79.50407,33.02742],[-79.50692,33.03281],[-79.52245,33.03535],[-79.52522,33.03729],[-79.53211,33.03519],[-79.53213,33.03385],[-79.53215,33.03146],[-79.53497,33.02847],[-79.54132,33.02599],[-79.54532,33.02654],[-79.55142,33.02396],[-79.55482,33.0216],[-79.55756,33.02127],[-79.56318,33.01768],[-79.56619,33.01528],[-79.57111,33.01381],[-79.57597,33.00923],[-79.58072,33.00645],[-79.58131,33.00271],[-79.58334,33.00035],[-79.58372,32.99616],[-79.58659,32.99133],[-79.59276,32.98522],[-79.59841,32.98107],[-79.59866,32.97965],[-79.60102,32.97928],[-79.60661,32.97225],[-79.60551,32.96836],[-79.60622,32.96559],[-79.608,32.96335],[-79.61761,32.95273],[-79.61771,32.94487],[-79.61293,32.93482],[-79.60753,32.92623],[-79.58981,32.92453],[-79.5859,32.92646],[-79.58571,32.92956],[-79.58315,32.93088],[-79.58009,32.93088],[-79.57816,32.93287],[-79.57577,32.9338],[-79.57409,32.93251],[-79.57341,32.92788],[-79.57461,32.92112],[-79.57809,32.91041],[-79.58106,32.90642],[-79.63115,32.88861],[-79.6418,32.88121],[-79.64666,32.87606],[-79.64972,32.87644],[-79.65593,32.87588],[-79.66722,32.86979],[-79.68124,32.86171],[-79.69337,32.85282],[-79.69811,32.85133],[-79.69872,32.84923],[-79.69918,32.84763],[-79.6993,32.8439],[-79.70379,32.83602],[-79.71012,32.83335],[-79.71988,32.8258],[-79.71888,32.82092],[-79.71821,32.81769],[-79.71819,32.81758],[-79.71807,32.81698],[-79.72071,32.81115],[-79.72639,32.806],[-79.73659,32.80159],[-79.75647,32.7966],[-79.78756,32.78447],[-79.78966,32.78334],[-79.79149,32.78236],[-79.79162,32.78229],[-79.80504,32.77509],[-79.81132,32.77479],[-79.81251,32.7748],[-79.81398,32.77482],[-79.81451,32.77045],[-79.81824,32.76635],[-79.82275,32.7635],[-79.82397,32.76273],[-79.83399,32.75911],[-79.84035,32.75682],[-79.8488,32.75363],[-79.8547,32.75488],[-79.86271,32.76153],[-79.86639,32.76602],[-79.8653,32.76787],[-79.86515,32.76812],[-79.86342,32.77102],[-79.86544,32.77492],[-79.87063,32.77826],[-79.87804,32.78571],[-79.886,32.78791],[-79.88723,32.78765],[-79.89123,32.78681],[-79.90002,32.78531],[-79.90608,32.78481],[-79.91716,32.78287],[-79.9232,32.78181],[-79.92364,32.77929],[-79.92369,32.77898],[-79.92439,32.77502],[-79.92736,32.77252],[-79.92737,32.77249],[-79.92878,32.76912],[-79.92869,32.76303],[-79.92855,32.75423],[-79.92682,32.75385],[-79.9232,32.75303],[-79.9184,32.75432],[-79.91797,32.75443],[-79.91687,32.75408],[-79.91547,32.75363],[-79.90894,32.75163],[-79.90856,32.75161],[-79.90763,32.75153],[-79.90507,32.75134],[-79.90109,32.75103],[-79.89907,32.75333],[-79.89861,32.75299],[-79.89758,32.75224],[-79.89729,32.75203],[-79.89639,32.74966],[-79.89634,32.74954],[-79.89087,32.75103],[-79.89044,32.75103],[-79.87911,32.75083],[-79.87297,32.74452],[-79.87093,32.74243],[-79.86936,32.73364],[-79.87015,32.73],[-79.87096,32.72886],[-79.87583,32.722],[-79.88006,32.71605],[-79.88359,32.70932],[-79.88709,32.70195],[-79.88803,32.69518],[-79.88803,32.69492],[-79.88803,32.69425],[-79.88802,32.69021],[-79.88802,32.68765],[-79.88558,32.68487],[-79.88708,32.68305],[-79.89351,32.67897],[-79.91568,32.66492],[-79.91813,32.66382],[-79.93755,32.65511],[-79.94,32.65401],[-79.94376,32.65233],[-79.95802,32.64616],[-79.97002,32.64052],[-79.9743,32.64102],[-79.98,32.63242],[-79.98692,32.62639],[-79.98833,32.62181],[-79.98844,32.62147],[-79.9901,32.6161],[-79.99224,32.611],[-80.0008,32.60589],[-80.00603,32.60599],[-80.0105,32.60885],[-80.01331,32.60952],[-80.01696,32.6104],[-80.03728,32.61024],[-80.06644,32.60516],[-80.07704,32.60332],[-80.09807,32.59828],[-80.12137,32.59052],[-80.13994,32.58027],[-80.14541,32.57813],[-80.14759,32.57683],[-80.15568,32.57198],[-80.15866,32.56823],[-80.16375,32.56183],[-80.16655,32.56022],[-80.17596,32.55921],[-80.1793,32.56023],[-80.18012,32.56022],[-80.19065,32.56009],[-80.19498,32.56003],[-80.20217,32.5574],[-80.21802,32.55109],[-80.23678,32.54232],[-80.25408,32.53229],[-80.25624,32.53173],[-80.25649,32.53378],[-80.25573,32.53622],[-80.25636,32.53679],[-80.26052,32.53686],[-80.26015,32.53319],[-80.26129,32.53257],[-80.26337,32.53337],[-80.26475,32.53301],[-80.26561,32.53121],[-80.26454,32.52927],[-80.26513,32.52843],[-80.269,32.52681],[-80.27164,32.52842],[-80.27184,32.52628],[-80.27403,32.5255],[-80.27485,32.52446],[-80.27711,32.52471],[-80.27726,32.52383],[-80.27971,32.52463],[-80.28509,32.52995],[-80.28705,32.52874],[-80.2918,32.52672],[-80.29984,32.52117],[-80.31147,32.51378],[-80.31913,32.51109],[-80.32058,32.51325],[-80.31994,32.51655],[-80.31914,32.51638],[-80.319,32.5188],[-80.31827,32.52001],[-80.32021,32.51972],[-80.321,32.52306],[-80.32338,32.5241],[-80.32716,32.52439],[-80.32959,32.52296],[-80.33111,32.52284],[-80.33349,32.52438],[-80.33447,32.52637],[-80.33541,32.52658],[-80.33729,32.52613],[-80.33594,32.52396],[-80.33814,32.5241],[-80.33902,32.52306],[-80.34227,32.52383],[-80.34416,32.52333],[-80.34583,32.52563],[-80.34855,32.52526],[-80.34907,32.5241],[-80.34793,32.52277],[-80.34799,32.52135],[-80.34958,32.52004],[-80.35003,32.51878],[-80.34914,32.51816],[-80.34414,32.51774],[-80.34226,32.51686],[-80.33989,32.51468],[-80.33618,32.5142],[-80.33302,32.5125],[-80.33179,32.51076],[-80.3303,32.50658],[-80.3262,32.50501],[-80.32423,32.50287],[-80.32401,32.50017],[-80.32645,32.49379],[-80.32709,32.49334],[-80.3354,32.49285],[-80.33846,32.49389],[-80.34392,32.49688],[-80.345,32.49701],[-80.3506,32.4987],[-80.35282,32.50019],[-80.35385,32.50281],[-80.36107,32.50968],[-80.37137,32.52345],[-80.38005,32.53176],[-80.38399,32.53415],[-80.3878,32.53573],[-80.39326,32.53703],[-80.40639,32.54082],[-80.40929,32.54238],[-80.41488,32.54648],[-80.41533,32.54794],[-80.41528,32.55197],[-80.41431,32.55437],[-80.4123,32.55686],[-80.40964,32.5587],[-80.40627,32.55988],[-80.4014,32.56013],[-80.39845,32.56062],[-80.39571,32.56169],[-80.3928,32.56416],[-80.39075,32.56864],[-80.38969,32.57189],[-80.38949,32.57523],[-80.39115,32.57949],[-80.39374,32.58347],[-80.39584,32.58722],[-80.39711,32.59042],[-80.3972,32.59186],[-80.39688,32.59392],[-80.39546,32.59817],[-80.39337,32.60148],[-80.39061,32.60531],[-80.38811,32.60941],[-80.38705,32.61281],[-80.38719,32.61513],[-80.388,32.61684],[-80.38995,32.61868],[-80.39157,32.61935],[-80.39442,32.61961],[-80.39914,32.61825],[-80.40323,32.6168],[-80.41076,32.6112],[-80.41625,32.60571],[-80.41843,32.6043],[-80.42041,32.6042],[-80.42267,32.60537],[-80.42467,32.60813],[-80.42599,32.61149],[-80.42804,32.62246],[-80.42803,32.62386],[-80.4271,32.62558],[-80.42534,32.62667],[-80.42265,32.62736],[-80.42007,32.62743],[-80.41135,32.62658],[-80.40754,32.62708],[-80.40551,32.62889],[-80.4039,32.63474],[-80.40236,32.63952],[-80.39921,32.64333],[-80.39583,32.64596],[-80.39145,32.64717],[-80.39049,32.64821],[-80.38901,32.65228],[-80.38927,32.65296],[-80.38967,32.65399],[-80.39134,32.65523],[-80.3933,32.65524],[-80.401,32.65196],[-80.40285,32.65169],[-80.40491,32.65241],[-80.40833,32.65639],[-80.41507,32.66267],[-80.41664,32.66568],[-80.41831,32.66768],[-80.42091,32.67006],[-80.42142,32.67168],[-80.42096,32.67395],[-80.41831,32.67756],[-80.41793,32.67851],[-80.41787,32.68069],[-80.41969,32.68393],[-80.4225,32.68639],[-80.42266,32.68847],[-80.42198,32.68918],[-80.41787,32.69139],[-80.41612,32.69332],[-80.41589,32.69474],[-80.41763,32.6998],[-80.41925,32.70273],[-80.42171,32.70584],[-80.42345,32.71022],[-80.42254,32.71255],[-80.42278,32.71459],[-80.4244,32.71564],[-80.42609,32.71589],[-80.42805,32.71516],[-80.42941,32.71308],[-80.43082,32.71216],[-80.43429,32.71225],[-80.43541,32.71313],[-80.43559,32.7152],[-80.43514,32.71614],[-80.43191,32.71726],[-80.43033,32.71838],[-80.42964,32.71976],[-80.42956,32.72039],[-80.43128,32.72258],[-80.43491,32.7237],[-80.43698,32.72469],[-80.44247,32.72661],[-80.44574,32.72743],[-80.44715,32.72838],[-80.44858,32.73083],[-80.44879,32.73348],[-80.45324,32.73906],[-80.45355,32.7405],[-80.45208,32.74293],[-80.44911,32.74568],[-80.44794,32.74844],[-80.44948,32.75288]]],[[[-79.54522,32.99072],[-79.54707,32.98939],[-79.54957,32.98939],[-79.55087,32.98949],[-79.55218,32.98879],[-79.55361,32.99039],[-79.55135,32.99188],[-79.54873,32.99298],[-79.54648,32.99238],[-79.54522,32.99072]]],[[[-79.50549,33.02054],[-79.50463,33.02017],[-79.5033,33.02025],[-79.50237,33.02058],[-79.50151,33.01971],[-79.50097,33.01887],[-79.50097,33.01819],[-79.50136,33.01755],[-79.50198,33.01727],[-79.50311,33.01756],[-79.50347,33.0181],[-79.50413,33.01873],[-79.50513,33.0192],[-79.50642,33.01942],[-79.5074,33.01937],[-79.50807,33.01959],[-79.50795,33.02008],[-79.50713,33.01974],[-79.50633,33.0201],[-79.50549,33.02054]]]]}}]}