{"type":"FeatureCollection","features":[{"type":"Feature","properties":{"name":"Connect Pool (formerly CVTD POOL)","boundary_type":"places","source":"Census TIGER place","fidelity":"approximate","updated":"2026-09","units":"Providence city; Millville city; River Heights city; Logan city","note":"Covers Providence, Millville, River Heights, Cliffside (neighborhood/area name, not found as place), and portions of Logan in Cache County. Service launched Feb 2023 as replacement for removed/modified bus routes.","confidence":0.65},"geometry":{"type":"Polygon","coordinates":[[[-111.79456,41.70757],[-111.79463,41.7046],[-111.79485,41.7046],[-111.79522,41.70159],[-111.79417,41.70022],[-111.79414,41.69264],[-111.79413,41.69238],[-111.79413,41.68561],[-111.79407,41.6782],[-111.80002,41.6782],[-111.8036,41.67426],[-111.80435,41.67212],[-111.80698,41.67214],[-111.80667,41.67085],[-111.80865,41.67084],[-111.80862,41.67329],[-111.81162,41.67311],[-111.81261,41.67441],[-111.81214,41.67311],[-111.81491,41.67313],[-111.81515,41.6697],[-111.81896,41.6698],[-111.81884,41.67205],[-111.8213,41.67212],[-111.82123,41.67384],[-111.8192,41.67439],[-111.82799,41.67423],[-111.82775,41.67571],[-111.82995,41.67739],[-111.83048,41.67817],[-111.83188,41.67872],[-111.83151,41.67959],[-111.83038,41.68023],[-111.83065,41.68137],[-111.8307,41.68148],[-111.83129,41.68226],[-111.83145,41.68232],[-111.83228,41.68233],[-111.83238,41.68417],[-111.83246,41.68556],[-111.83251,41.68604],[-111.83269,41.68757],[-111.8339,41.68749],[-111.83409,41.68979],[-111.83476,41.69035],[-111.83734,41.69024],[-111.83757,41.69291],[-111.84788,41.6929],[-111.85248,41.69289],[-111.85492,41.69289],[-111.86026,41.69287],[-111.86218,41.69285],[-111.86216,41.69084],[-111.86667,41.69183],[-111.86842,41.69009],[-111.87183,41.68664],[-111.87181,41.68552],[-111.86695,41.68551],[-111.86692,41.68192],[-111.87174,41.68189],[-111.87177,41.68466],[-111.87346,41.68501],[-111.8745,41.68395],[-111.87661,41.68549],[-111.87867,41.68347],[-111.8763,41.68214],[-111.87874,41.67971],[-111.87634,41.67824],[-111.87843,41.67814],[-111.87948,41.67898],[-111.8812,41.67725],[-111.88006,41.6771],[-111.88129,41.67528],[-111.88298,41.67547],[-111.88192,41.67652],[-111.88341,41.67822],[-111.88133,41.67822],[-111.88135,41.68366],[-111.87963,41.68254],[-111.87968,41.68549],[-111.87724,41.68549],[-111.87836,41.68756],[-111.87598,41.68917],[-111.87547,41.68797],[-111.87183,41.68796],[-111.87201,41.70009],[-111.86949,41.70009],[-111.86955,41.70465],[-111.87188,41.70551],[-111.87187,41.70369],[-111.87687,41.70548],[-111.87648,41.70779],[-111.87768,41.70891],[-111.87708,41.70891],[-111.87735,41.71095],[-111.87645,41.71277],[-111.8707,41.71296],[-111.87073,41.71142],[-111.86018,41.71144],[-111.86017,41.71339],[-111.85999,41.71815],[-111.86265,41.7182],[-111.86256,41.72078],[-111.86496,41.72081],[-111.86511,41.71571],[-111.86787,41.71575],[-111.87026,41.71519],[-111.8702,41.71682],[-111.87555,41.71675],[-111.87545,41.71878],[-111.88121,41.71881],[-111.88264,41.71981],[-111.88587,41.71999],[-111.88628,41.72058],[-111.88342,41.72105],[-111.88004,41.72098],[-111.87999,41.72286],[-111.87254,41.72283],[-111.87255,41.7209],[-111.87132,41.72088],[-111.86992,41.72469],[-111.87488,41.7246],[-111.87489,41.72641],[-111.8798,41.72648],[-111.87958,41.73594],[-111.88764,41.73601],[-111.8902,41.73642],[-111.90164,41.73921],[-111.90172,41.74938],[-111.87922,41.74945],[-111.87936,41.74409],[-111.87416,41.7435],[-111.87411,41.74516],[-111.86916,41.74511],[-111.8691,41.74689],[-111.86403,41.74682],[-111.86403,41.75249],[-111.86155,41.75245],[-111.86147,41.75799],[-111.86385,41.758],[-111.86379,41.76058],[-111.86628,41.76157],[-111.86603,41.76742],[-111.86357,41.76741],[-111.86364,41.76557],[-111.85619,41.76547],[-111.85615,41.76729],[-111.85851,41.76733],[-111.85848,41.76911],[-111.85373,41.76907],[-111.8536,41.77637],[-111.88278,41.77617],[-111.88276,41.78388],[-111.89238,41.7839],[-111.89239,41.78568],[-111.88275,41.78567],[-111.88279,41.78751],[-111.8796,41.78753],[-111.87279,41.78345],[-111.86701,41.7835],[-111.8623,41.78534],[-111.86234,41.78764],[-111.86738,41.78992],[-111.86729,41.79208],[-111.86432,41.79209],[-111.8625,41.79064],[-111.85667,41.78788],[-111.85521,41.78795],[-111.8507,41.78957],[-111.85043,41.79734],[-111.84609,41.79736],[-111.84672,41.78762],[-111.84733,41.77792],[-111.84708,41.77616],[-111.84777,41.77077],[-111.8389,41.77059],[-111.83898,41.76876],[-111.83649,41.76872],[-111.83414,41.76869],[-111.83417,41.76684],[-111.8342,41.765],[-111.83427,41.76226],[-111.83434,41.75951],[-111.83155,41.75852],[-111.829,41.75939],[-111.819,41.75933],[-111.80858,41.75908],[-111.80863,41.75898],[-111.8087,41.7587],[-111.80876,41.75862],[-111.80898,41.75839],[-111.80887,41.75839],[-111.80428,41.75844],[-111.79995,41.75855],[-111.79948,41.76028],[-111.79465,41.76032],[-111.79466,41.76217],[-111.78031,41.76224],[-111.78028,41.75862],[-111.78493,41.75854],[-111.78494,41.75848],[-111.78484,41.74446],[-111.78483,41.74408],[-111.78156,41.74409],[-111.78023,41.7427],[-111.78019,41.74034],[-111.78493,41.74034],[-111.78494,41.74168],[-111.78971,41.74168],[-111.78967,41.73674],[-111.78866,41.7364],[-111.79026,41.73152],[-111.78497,41.7317],[-111.78496,41.72931],[-111.78501,41.726],[-111.79443,41.72593],[-111.79442,41.71867],[-111.79441,41.71509],[-111.79456,41.70757]],[[-111.81408,41.72128],[-111.81481,41.72129],[-111.81489,41.71887],[-111.81415,41.71886],[-111.81408,41.72128]],[[-111.80763,41.71734],[-111.80752,41.71956],[-111.80293,41.71965],[-111.8003,41.71963],[-111.80032,41.72241],[-111.80405,41.72231],[-111.80995,41.72211],[-111.80997,41.72121],[-111.8101,41.71739],[-111.80763,41.71734]],[[-111.83502,41.69884],[-111.8349,41.69778],[-111.83297,41.69788],[-111.83294,41.69877],[-111.83502,41.69884]],[[-111.82721,41.69406],[-111.82684,41.69505],[-111.82821,41.69505],[-111.82813,41.69679],[-111.83058,41.69684],[-111.83069,41.69306],[-111.82768,41.69317],[-111.82721,41.69406]],[[-111.81472,41.67445],[-111.81759,41.67448],[-111.81762,41.67355],[-111.81583,41.67314],[-111.8158,41.67395],[-111.81472,41.67445]],[[-111.83157,41.70265],[-111.83164,41.70075],[-111.83043,41.70074],[-111.83038,41.70262],[-111.83157,41.70265]],[[-111.81892,41.72717],[-111.81893,41.72824],[-111.82247,41.72541],[-111.82573,41.7251],[-111.82313,41.72463],[-111.82014,41.72573],[-111.81892,41.72717]],[[-111.80995,41.7238],[-111.80407,41.72387],[-111.80422,41.7271],[-111.80552,41.72795],[-111.80857,41.72808],[-111.80989,41.72519],[-111.80995,41.7238]],[[-111.80988,41.72573],[-111.80982,41.72722],[-111.81407,41.72721],[-111.81406,41.72533],[-111.81257,41.72543],[-111.81178,41.72573],[-111.80988,41.72573]]]}},{"type":"Feature","properties":{"name":"High Valley Transit Micro","boundary_type":"places","source":"Census TIGER place","fidelity":"approximate","updated":"2026-09","units":"Silver Summit CDP; Summit Park CDP; Snyderville CDP; Heber city","note":"Micro service runs two zones, not full counties: a Summit County zone covering Kimball Junction/Jeremy Ranch and surrounding area (Snyderville Basin CDPs: Silver Summit, Summit Park, Snyderville), and a Wasatch County zone covering Heber Valley and surrounding area. No zone-size figure is published, so unincorporated community CDPs stand in as an approximate proxy rather than the full 8,009 km2 of Summit+Wasatch counties. Jeremy Ranch itself is not a separate Census place; it falls within these CDPs. Source: https://www.hvtutah.gov/ride-micro (checked 2026-09-09).","confidence":0.5},"geometry":{"type":"MultiPolygon","coordinates":[[[[-111.42424,40.49177],[-111.43358,40.49176],[-111.43318,40.49278],[-111.43566,40.49275],[-111.43565,40.49578],[-111.43554,40.50321],[-111.43303,40.50322],[-111.43296,40.5069],[-111.42703,40.50687],[-111.42645,40.50763],[-111.42619,40.51667],[-111.42302,40.51663],[-111.41812,40.51711],[-111.41809,40.51892],[-111.41327,40.51887],[-111.41169,40.51854],[-111.41073,40.52189],[-111.40846,40.52189],[-111.40848,40.52297],[-111.4071,40.52299],[-111.4071,40.52423],[-111.40591,40.52391],[-111.40436,40.52421],[-111.40343,40.52717],[-111.40958,40.52704],[-111.4093,40.53202],[-111.40511,40.53204],[-111.40519,40.53852],[-111.4077,40.53852],[-111.41001,40.54023],[-111.41298,40.54074],[-111.41122,40.53853],[-111.41257,40.53852],[-111.4161,40.54286],[-111.41249,40.54458],[-111.40959,40.54654],[-111.41295,40.55036],[-111.4154,40.55173],[-111.41735,40.55432],[-111.41922,40.554],[-111.4212,40.55627],[-111.42127,40.55775],[-111.4225,40.55928],[-111.4217,40.56126],[-111.42227,40.56209],[-111.42413,40.5621],[-111.42531,40.56569],[-111.42262,40.56563],[-111.42177,40.56723],[-111.42101,40.57262],[-111.42158,40.57346],[-111.42546,40.57338],[-111.42665,40.57847],[-111.42518,40.57844],[-111.42573,40.57979],[-111.42574,40.58293],[-111.42434,40.58399],[-111.41952,40.58397],[-111.41956,40.59292],[-111.41898,40.59343],[-111.41481,40.59428],[-111.41482,40.59525],[-111.38553,40.59539],[-111.38552,40.58025],[-111.37137,40.58022],[-111.37123,40.56936],[-111.36656,40.56936],[-111.36656,40.56694],[-111.36657,40.56572],[-111.36274,40.56572],[-111.36187,40.56572],[-111.36184,40.57299],[-111.35714,40.57299],[-111.35713,40.57462],[-111.3555,40.57567],[-111.35261,40.57567],[-111.34843,40.57388],[-111.34549,40.57442],[-111.34582,40.57568],[-111.34312,40.57507],[-111.3428,40.57365],[-111.34052,40.57473],[-111.33875,40.57378],[-111.3398,40.57568],[-111.33819,40.57569],[-111.33813,40.58024],[-111.31874,40.58022],[-111.31875,40.56572],[-111.3241,40.56573],[-111.32414,40.56008],[-111.32415,40.55847],[-111.33582,40.55847],[-111.34092,40.55847],[-111.34346,40.55847],[-111.34775,40.55846],[-111.34781,40.53666],[-111.35722,40.53672],[-111.35722,40.53624],[-111.35722,40.51472],[-111.362,40.51481],[-111.36196,40.51114],[-111.35993,40.51111],[-111.36227,40.50776],[-111.37016,40.50848],[-111.37504,40.50746],[-111.3923,40.50744],[-111.39308,40.50556],[-111.39539,40.50556],[-111.39536,40.5001],[-111.39532,40.49281],[-111.39528,40.47817],[-111.3953,40.47694],[-111.39074,40.47233],[-111.39178,40.4718],[-111.39298,40.47297],[-111.39528,40.4752],[-111.39527,40.47182],[-111.39829,40.47149],[-111.39831,40.47288],[-111.40063,40.47288],[-111.40063,40.47812],[-111.40487,40.47812],[-111.40488,40.47586],[-111.411,40.47637],[-111.41447,40.47635],[-111.41447,40.47813],[-111.41106,40.47813],[-111.41097,40.48028],[-111.41448,40.48043],[-111.41448,40.48148],[-111.41553,40.48148],[-111.41921,40.48145],[-111.41921,40.47816],[-111.42511,40.47811],[-111.42513,40.48011],[-111.42882,40.47821],[-111.42884,40.47676],[-111.43349,40.47675],[-111.4335,40.47579],[-111.43472,40.47579],[-111.43509,40.47613],[-111.4393,40.47409],[-111.43816,40.47259],[-111.445,40.47256],[-111.43319,40.48016],[-111.42391,40.48615],[-111.42424,40.49177]],[[-111.38583,40.51843],[-111.38579,40.52395],[-111.38573,40.5296],[-111.38397,40.53273],[-111.38229,40.5331],[-111.39632,40.53265],[-111.40024,40.52826],[-111.40028,40.52576],[-111.39545,40.52572],[-111.39612,40.5184],[-111.38583,40.51843]]],[[[-111.5184,40.71943],[-111.5171,40.71842],[-111.51724,40.71702],[-111.51607,40.71519],[-111.51563,40.7125],[-111.51417,40.71093],[-111.51276,40.7063],[-111.51101,40.70628],[-111.5103,40.70482],[-111.50983,40.70314],[-111.50769,40.70158],[-111.50747,40.70112],[-111.50783,40.6976],[-111.50779,40.6976],[-111.50135,40.69762],[-111.50132,40.6866],[-111.50852,40.68664],[-111.50851,40.68572],[-111.51091,40.68572],[-111.51086,40.68295],[-111.5204,40.68298],[-111.5204,40.67924],[-111.52818,40.67925],[-111.52995,40.67925],[-111.52996,40.6801],[-111.52995,40.68302],[-111.53266,40.68301],[-111.53266,40.68192],[-111.53386,40.68194],[-111.53718,40.6835],[-111.53767,40.6831],[-111.54347,40.6831],[-111.54721,40.68325],[-111.54851,40.68217],[-111.54952,40.67971],[-111.55045,40.67902],[-111.55278,40.67937],[-111.55648,40.67753],[-111.55896,40.67774],[-111.55927,40.67861],[-111.55733,40.6816],[-111.5581,40.68276],[-111.55636,40.68332],[-111.55771,40.68474],[-111.55775,40.68691],[-111.56107,40.6885],[-111.56622,40.68891],[-111.56886,40.69023],[-111.57154,40.69011],[-111.58718,40.68983],[-111.58666,40.6904],[-111.58664,40.69944],[-111.59273,40.69912],[-111.59396,40.70278],[-111.59705,40.70507],[-111.60039,40.70847],[-111.60445,40.71187],[-111.60622,40.71286],[-111.60724,40.71434],[-111.61187,40.71774],[-111.61179,40.71888],[-111.61464,40.71938],[-111.61525,40.72231],[-111.61632,40.72278],[-111.61504,40.72448],[-111.61334,40.72794],[-111.61809,40.72944],[-111.62263,40.73007],[-111.62347,40.73174],[-111.6234,40.73291],[-111.6219,40.73584],[-111.62165,40.73773],[-111.62469,40.74001],[-111.62418,40.7416],[-111.62091,40.74241],[-111.61933,40.74369],[-111.61745,40.74642],[-111.61854,40.74895],[-111.62144,40.75012],[-111.62245,40.75109],[-111.62348,40.75347],[-111.62353,40.75372],[-111.62339,40.75425],[-111.61696,40.75491],[-111.61532,40.76208],[-111.61321,40.76403],[-111.61076,40.7654],[-111.60676,40.76701],[-111.60481,40.76812],[-111.601,40.76851],[-111.5989,40.76992],[-111.59698,40.77047],[-111.59221,40.77273],[-111.58949,40.77317],[-111.58867,40.77518],[-111.5884,40.77631],[-111.58506,40.77842],[-111.5809,40.77986],[-111.57857,40.77977],[-111.57468,40.77744],[-111.57398,40.77603],[-111.57008,40.77467],[-111.56421,40.77319],[-111.55938,40.77287],[-111.55578,40.77187],[-111.55342,40.76998],[-111.54989,40.76941],[-111.54805,40.76852],[-111.54477,40.76812],[-111.54344,40.767],[-111.54374,40.76611],[-111.54267,40.76502],[-111.5422,40.7666],[-111.53918,40.76442],[-111.5367,40.76447],[-111.5346,40.76301],[-111.53581,40.76168],[-111.53553,40.76053],[-111.53627,40.75906],[-111.52965,40.75927],[-111.52805,40.76105],[-111.52729,40.76327],[-111.5248,40.76333],[-111.5237,40.76591],[-111.52055,40.76645],[-111.51618,40.76576],[-111.51305,40.76936],[-111.50592,40.76902],[-111.50432,40.76823],[-111.50185,40.76855],[-111.50113,40.77025],[-111.49431,40.77049],[-111.49196,40.76982],[-111.49044,40.7711],[-111.48816,40.77023],[-111.47939,40.77027],[-111.47629,40.77089],[-111.46955,40.77066],[-111.46826,40.76806],[-111.47034,40.76457],[-111.4713,40.75648],[-111.4696,40.75371],[-111.47053,40.75066],[-111.47064,40.74661],[-111.47096,40.74562],[-111.47199,40.7443],[-111.47579,40.74175],[-111.47934,40.73988],[-111.49761,40.73143],[-111.51599,40.72291],[-111.51722,40.72237],[-111.51805,40.72207],[-111.5184,40.71943]]]]}},{"type":"Feature","properties":{"name":"Moab Area Transit (MAT)","boundary_type":"city","source":"Census TIGER place","fidelity":"approximate","updated":"2026-09","units":"Moab city","note":"On-demand/door-to-door service in Moab and surrounding service area, Grand County. Service launched March 2023. Exact extent of surrounding area not specified.","confidence":0.7},"geometry":{"type":"Polygon","coordinates":[[[-109.5768,38.57212],[-109.57197,38.57206],[-109.57048,38.57204],[-109.57047,38.57453],[-109.57037,38.57616],[-109.56697,38.57574],[-109.56696,38.57818],[-109.57216,38.57811],[-109.57217,38.57931],[-109.57388,38.57939],[-109.57389,38.58114],[-109.57248,38.58113],[-109.57185,38.58295],[-109.56755,38.58294],[-109.56754,38.58092],[-109.5663,38.58093],[-109.56579,38.57937],[-109.5655,38.58295],[-109.56563,38.58805],[-109.56104,38.58805],[-109.56104,38.58861],[-109.57023,38.58857],[-109.57121,38.58927],[-109.57166,38.58983],[-109.56897,38.591],[-109.56816,38.59202],[-109.57054,38.59371],[-109.57291,38.59332],[-109.5727,38.59528],[-109.57702,38.60103],[-109.57703,38.60301],[-109.57247,38.60314],[-109.57045,38.60287],[-109.5703,38.59752],[-109.56778,38.59746],[-109.56854,38.59557],[-109.56616,38.5939],[-109.56107,38.59389],[-109.5611,38.59027],[-109.55185,38.59027],[-109.552,38.58204],[-109.55126,38.58265],[-109.54733,38.58266],[-109.54727,38.58666],[-109.5427,38.58666],[-109.54275,38.5794],[-109.52423,38.5794],[-109.52426,38.57398],[-109.52658,38.57401],[-109.5266,38.57216],[-109.53127,38.57216],[-109.53126,38.57397],[-109.53359,38.57397],[-109.53363,38.56498],[-109.52436,38.56492],[-109.52439,38.56147],[-109.52267,38.56058],[-109.52209,38.56059],[-109.52211,38.55878],[-109.52441,38.55876],[-109.52501,38.55656],[-109.52379,38.55293],[-109.52302,38.55064],[-109.5199,38.55063],[-109.51887,38.54974],[-109.52105,38.54704],[-109.51876,38.54382],[-109.52036,38.54278],[-109.52032,38.54082],[-109.52081,38.53998],[-109.51915,38.53963],[-109.51801,38.53848],[-109.51573,38.53987],[-109.51533,38.53621],[-109.5291,38.53621],[-109.52909,38.53983],[-109.53368,38.53983],[-109.53367,38.54341],[-109.53828,38.54341],[-109.53827,38.54702],[-109.53301,38.54701],[-109.52909,38.54702],[-109.5291,38.54884],[-109.52637,38.55049],[-109.52637,38.54884],[-109.52281,38.54881],[-109.52499,38.55557],[-109.52549,38.55678],[-109.5262,38.55727],[-109.52694,38.55664],[-109.52914,38.55703],[-109.53982,38.55769],[-109.53995,38.5562],[-109.54556,38.559],[-109.54694,38.55785],[-109.55018,38.55775],[-109.55201,38.55917],[-109.55201,38.56135],[-109.55482,38.56134],[-109.55662,38.56274],[-109.55663,38.56496],[-109.55949,38.56496],[-109.56123,38.56605],[-109.56122,38.56872],[-109.56418,38.57062],[-109.56566,38.57106],[-109.56599,38.5699],[-109.56752,38.5702],[-109.56714,38.57136],[-109.56963,38.57185],[-109.56963,38.5713],[-109.5697,38.56494],[-109.57966,38.56496],[-109.57875,38.56908],[-109.5768,38.57212]],[[-109.54488,38.55896],[-109.54412,38.55964],[-109.54286,38.55892],[-109.54286,38.5599],[-109.54058,38.55989],[-109.53926,38.55923],[-109.53822,38.55866],[-109.53822,38.56207],[-109.54004,38.56305],[-109.54115,38.56207],[-109.54288,38.56283],[-109.54381,38.56137],[-109.54553,38.56136],[-109.54647,38.56023],[-109.54488,38.55896]],[[-109.53621,38.56037],[-109.53029,38.56092],[-109.52934,38.56119],[-109.52904,38.5631],[-109.53299,38.56315],[-109.53546,38.56408],[-109.53647,38.56372],[-109.53624,38.56334],[-109.53621,38.56037]]]}},{"type":"Feature","properties":{"name":"UTA On Demand","boundary_type":"places","source":"Census TIGER place","fidelity":"approximate","updated":"2026-09","units":"Salt Lake City city; Davis County; Bluffdale city; Draper city; Herriman city; Riverton city; South Jordan city; Tooele County; Provo city; Orem city; Eagle Mountain city; Saratoga Springs city; Lehi city; American Fork city; Pleasant Grove city; Lindon city; Highland city; Cedar Hills city; Alpine city","note":"Multi-zone system, treated as a single entry; polygon is a proxy union of the containing municipalities/counties per zone, not the actual on-demand zone shapes. South Davis County and Salt Lake City Westside zones are subsets of Davis County / Salt Lake City. Southern Salt Lake County (original pilot zone, ~65 sq mi) covers Bluffdale, Draper, Herriman, Riverton, South Jordan. Tooele County zone is countywide. West Provo/Orem is a subset of Provo and Orem. North Utah County zone (launching Aug 17, 2026) covers portions of Eagle Mountain, Saratoga Springs, Lehi, American Fork, Pleasant Grove, Lindon, Highland, Cedar Hills, and Alpine; per UTA's site the zone is 77.3 sq mi with a 6-mile max travel distance. Source: https://www.rideuta.com/Services/UTA-On-Demand (fetched 2026-09-09).","confidence":0.45},"geometry":{"type":"MultiPolygon","coordinates":[[[[-112.08217,40.30552],[-112.06304,40.30544],[-112.04479,40.30547],[-112.044,40.30543],[-112.04386,40.30543],[-112.04387,40.33303],[-112.04024,40.3332],[-112.04018,40.34016],[-112.04991,40.34028],[-112.04977,40.34751],[-112.04014,40.34744],[-112.03993,40.37669],[-112.03038,40.37663],[-112.0302,40.38753],[-112.03507,40.38757],[-112.03503,40.39107],[-112.01832,40.39115],[-112.00926,40.39118],[-112.00149,40.39121],[-111.9927,40.39145],[-111.9802,40.39131],[-111.97842,40.39128],[-111.97839,40.39496],[-111.97839,40.39545],[-111.97838,40.40015],[-111.9668,40.40219],[-111.95467,40.40202],[-111.95461,40.39885],[-111.95169,40.39847],[-111.94497,40.39843],[-111.94496,40.40034],[-111.94492,40.41194],[-111.94491,40.41669],[-111.94492,40.42033],[-111.9407,40.42035],[-111.94026,40.42505],[-111.93814,40.42957],[-111.93639,40.43409],[-111.93856,40.43495],[-111.93865,40.44235],[-111.94337,40.44237],[-111.94355,40.4497],[-111.94823,40.44969],[-111.94837,40.45692],[-111.97181,40.45671],[-112.00479,40.45656],[-112.0145,40.45653],[-112.01461,40.46015],[-112.03254,40.46013],[-112.03323,40.46271],[-112.03403,40.46293],[-112.03576,40.46421],[-112.03817,40.46462],[-112.04356,40.45961],[-112.04356,40.46402],[-112.06264,40.46397],[-112.06266,40.48196],[-112.05796,40.48227],[-112.05798,40.49147],[-112.06078,40.49191],[-112.06468,40.4905],[-112.06735,40.48973],[-112.06742,40.49687],[-112.06963,40.49683],[-112.07214,40.49693],[-112.07208,40.50789],[-112.07157,40.5095],[-112.06976,40.50954],[-112.06682,40.50975],[-112.06872,40.51061],[-112.07329,40.51154],[-112.09127,40.51152],[-112.08948,40.51248],[-112.09127,40.51239],[-112.09128,40.51332],[-112.09203,40.51366],[-112.09314,40.51524],[-112.09263,40.51957],[-112.08183,40.52244],[-112.06273,40.52243],[-112.0627,40.52606],[-112.054,40.52604],[-112.0533,40.52667],[-112.04853,40.52844],[-112.0485,40.53115],[-112.05155,40.53142],[-112.05196,40.53228],[-112.0557,40.5316],[-112.0568,40.53238],[-112.05958,40.53244],[-112.05978,40.53694],[-112.06854,40.537],[-112.07061,40.53695],[-112.06982,40.53769],[-112.06914,40.53865],[-112.06277,40.55149],[-112.06198,40.55357],[-112.06191,40.5557],[-112.06326,40.56482],[-112.06326,40.56598],[-112.03668,40.56603],[-112.03534,40.56598],[-112.03324,40.56598],[-112.02704,40.56597],[-112.02704,40.56732],[-112.02617,40.56597],[-112.01483,40.56597],[-112.01475,40.57331],[-112.01367,40.57331],[-112.01366,40.57672],[-112.01365,40.57713],[-112.00499,40.58141],[-112.00491,40.58062],[-111.99077,40.5806],[-111.98644,40.58059],[-111.9771,40.58053],[-111.96894,40.58049],[-111.9673,40.58049],[-111.95775,40.58051],[-111.95775,40.58098],[-111.94984,40.58096],[-111.94817,40.58046],[-111.94408,40.58046],[-111.9387,40.58045],[-111.92915,40.58045],[-111.92916,40.58142],[-111.9244,40.5821],[-111.9225,40.58051],[-111.92014,40.5805],[-111.92012,40.57975],[-111.92159,40.57902],[-111.9187,40.57638],[-111.91686,40.57352],[-111.91666,40.57329],[-111.90402,40.57329],[-111.90213,40.56972],[-111.9001,40.5697],[-111.89973,40.5658],[-111.89841,40.55889],[-111.89494,40.54431],[-111.89457,40.54431],[-111.89115,40.54436],[-111.88175,40.54432],[-111.87836,40.54433],[-111.872,40.54431],[-111.87102,40.54431],[-111.87102,40.54073],[-111.86509,40.54062],[-111.86509,40.53698],[-111.86271,40.53696],[-111.86273,40.5337],[-111.86273,40.52973],[-111.85276,40.52967],[-111.85063,40.52808],[-111.84809,40.52967],[-111.84391,40.5297],[-111.83901,40.5297],[-111.83824,40.53103],[-111.8362,40.5314],[-111.83422,40.53395],[-111.82975,40.53526],[-111.82774,40.53518],[-111.82772,40.53612],[-111.82474,40.53612],[-111.8242,40.5333],[-111.81894,40.53333],[-111.81528,40.53611],[-111.81291,40.53515],[-111.81287,40.53695],[-111.81043,40.53694],[-111.81192,40.53555],[-111.80834,40.53338],[-111.81116,40.5337],[-111.8126,40.53325],[-111.81403,40.5339],[-111.81802,40.53117],[-111.82374,40.52571],[-111.82243,40.5248],[-111.82173,40.52177],[-111.82461,40.52265],[-111.82633,40.52199],[-111.82895,40.51702],[-111.83063,40.51651],[-111.83182,40.51444],[-111.82983,40.51189],[-111.8316,40.51191],[-111.83175,40.50996],[-111.8316,40.50712],[-111.82956,40.50676],[-111.83127,40.50454],[-111.83037,40.50214],[-111.82861,40.5008],[-111.82714,40.50096],[-111.82719,40.49957],[-111.82435,40.4978],[-111.8222,40.49772],[-111.82132,40.4969],[-111.82054,40.49688],[-111.82053,40.49638],[-111.81938,40.49618],[-111.81834,40.49556],[-111.81868,40.49454],[-111.81783,40.49389],[-111.81662,40.49335],[-111.81364,40.49343],[-111.81199,40.49347],[-111.81192,40.48841],[-111.80727,40.48938],[-111.80511,40.49176],[-111.80345,40.49248],[-111.80268,40.49364],[-111.7927,40.49375],[-111.7737,40.49403],[-111.77368,40.49026],[-111.7641,40.4903],[-111.76394,40.48087],[-111.76162,40.48089],[-111.76132,40.48046],[-111.76197,40.47947],[-111.74505,40.47953],[-111.74497,40.47226],[-111.75447,40.47221],[-111.75443,40.46856],[-111.74967,40.46856],[-111.74962,40.46343],[-111.75488,40.46342],[-111.75501,40.46342],[-111.75463,40.46249],[-111.75344,40.46172],[-111.7532,40.46171],[-111.74979,40.46159],[-111.74935,40.45745],[-111.74485,40.45728],[-111.74487,40.45376],[-111.74963,40.45384],[-111.74965,40.45024],[-111.74488,40.45019],[-111.74485,40.44294],[-111.75274,40.44298],[-111.75436,40.44299],[-111.75436,40.43914],[-111.75436,40.43748],[-111.75383,40.43568],[-111.74494,40.4357],[-111.74493,40.43353],[-111.7449,40.42473],[-111.73536,40.42469],[-111.73536,40.42108],[-111.74491,40.42105],[-111.74488,40.41674],[-111.74489,40.4138],[-111.74007,40.41379],[-111.74,40.40301],[-111.7352,40.40302],[-111.73513,40.39213],[-111.73508,40.38847],[-111.72848,40.38067],[-111.72529,40.38111],[-111.7245,40.38247],[-111.7226,40.38101],[-111.72279,40.37925],[-111.72028,40.37811],[-111.72028,40.37743],[-111.70717,40.37758],[-111.70765,40.37697],[-111.70939,40.37585],[-111.7108,40.37469],[-111.70603,40.36692],[-111.70559,40.3662],[-111.7038,40.36621],[-111.7038,40.3653],[-111.70503,40.3653],[-111.7027,40.36151],[-111.70271,40.36326],[-111.70329,40.36395],[-111.70221,40.36455],[-111.70221,40.36532],[-111.7017,40.36532],[-111.70114,40.36686],[-111.69625,40.36648],[-111.69623,40.36328],[-111.6997,40.36328],[-111.7011,40.36211],[-111.70257,40.36128],[-111.69876,40.35506],[-111.69689,40.352],[-111.69679,40.352],[-111.67853,40.35197],[-111.66276,40.35195],[-111.65831,40.35194],[-111.65832,40.33373],[-111.663,40.33377],[-111.6745,40.33381],[-111.67234,40.33134],[-111.67222,40.32653],[-111.66754,40.32652],[-111.6675,40.32517],[-111.66518,40.32518],[-111.66512,40.32291],[-111.65338,40.32305],[-111.65344,40.32622],[-111.65016,40.32672],[-111.64396,40.3269],[-111.64406,40.32902],[-111.64348,40.32909],[-111.6421,40.33042],[-111.63929,40.33046],[-111.63467,40.33046],[-111.63461,40.32893],[-111.63459,40.32835],[-111.63325,40.32779],[-111.63233,40.32763],[-111.63085,40.32772],[-111.62805,40.32837],[-111.62804,40.32701],[-111.62886,40.32701],[-111.63019,40.32566],[-111.6304,40.32528],[-111.62649,40.32527],[-111.62506,40.32343],[-111.625,40.31983],[-111.62026,40.31984],[-111.62025,40.31625],[-111.63531,40.31593],[-111.63896,40.31581],[-111.63883,40.31196],[-111.64828,40.31201],[-111.64813,40.3066],[-111.6549,40.30659],[-111.65514,40.30371],[-111.65461,40.30365],[-111.65457,40.30321],[-111.65388,40.30295],[-111.6485,40.303],[-111.64826,40.30214],[-111.65071,40.30213],[-111.65069,40.30137],[-111.65415,40.30133],[-111.65403,40.3002],[-111.64819,40.30053],[-111.64694,40.3021],[-111.64346,40.30211],[-111.64346,40.30137],[-111.63635,40.30152],[-111.63629,40.29806],[-111.6338,40.29807],[-111.63371,40.28556],[-111.63367,40.28306],[-111.63603,40.28305],[-111.63608,40.27913],[-111.63627,40.27855],[-111.63406,40.27577],[-111.63337,40.27505],[-111.63335,40.27369],[-111.63238,40.27206],[-111.63212,40.27206],[-111.63097,40.27207],[-111.63096,40.26848],[-111.62807,40.2685],[-111.61885,40.26856],[-111.6114,40.26889],[-111.60465,40.2692],[-111.60468,40.27288],[-111.59993,40.2731],[-111.60014,40.28045],[-111.59029,40.28011],[-111.59031,40.2837],[-111.58093,40.28343],[-111.581,40.28707],[-111.56687,40.28725],[-111.56689,40.28359],[-111.55727,40.28367],[-111.55731,40.28002],[-111.54741,40.28009],[-111.54742,40.27649],[-111.54246,40.27654],[-111.54246,40.27555],[-111.53685,40.27552],[-111.5369,40.26467],[-111.53691,40.26117],[-111.54241,40.26119],[-111.5424,40.25772],[-111.54237,40.2472],[-111.54237,40.24684],[-111.55065,40.24691],[-111.55191,40.24639],[-111.55189,40.24323],[-111.55834,40.24328],[-111.57098,40.24333],[-111.57098,40.24322],[-111.57095,40.23957],[-111.57317,40.23956],[-111.58994,40.23958],[-111.58988,40.23579],[-111.59939,40.23596],[-111.61066,40.23569],[-111.61817,40.23551],[-111.61837,40.23192],[-111.61832,40.2269],[-111.6183,40.22448],[-111.61827,40.2219],[-111.61796,40.20842],[-111.61788,40.20532],[-111.61777,40.20181],[-111.62012,40.20041],[-111.61264,40.1923],[-111.61253,40.19215],[-111.61196,40.19111],[-111.61071,40.18706],[-111.61371,40.18706],[-111.61371,40.1858],[-111.61371,40.18567],[-111.61693,40.1857],[-111.62033,40.18612],[-111.62383,40.19298],[-111.62442,40.19409],[-111.63003,40.2047],[-111.63029,40.20576],[-111.62878,40.20673],[-111.62979,40.20782],[-111.63011,40.20819],[-111.639,40.20891],[-111.64275,40.2101],[-111.64244,40.20751],[-111.63979,40.19927],[-111.64616,40.19922],[-111.64616,40.1986],[-111.65254,40.19978],[-111.65602,40.19978],[-111.65601,40.19543],[-111.66072,40.19542],[-111.67623,40.19539],[-111.72346,40.19531],[-111.72915,40.1953],[-111.7316,40.1953],[-111.73169,40.2235],[-111.73903,40.23025],[-111.74004,40.23268],[-111.73863,40.23436],[-111.73805,40.23467],[-111.73943,40.23581],[-111.73997,40.23626],[-111.73806,40.23684],[-111.73912,40.23686],[-111.74096,40.23698],[-111.74081,40.23736],[-111.74032,40.23807],[-111.74035,40.23925],[-111.74023,40.23949],[-111.73867,40.24082],[-111.73611,40.23959],[-111.73256,40.23899],[-111.73172,40.23742],[-111.72873,40.23746],[-111.72561,40.23594],[-111.72572,40.23468],[-111.72185,40.23526],[-111.7217,40.23807],[-111.71895,40.23631],[-111.71767,40.23647],[-111.71646,40.23755],[-111.71617,40.23765],[-111.71549,40.23757],[-111.71509,40.23762],[-111.7147,40.23768],[-111.71486,40.23794],[-111.7149,40.23841],[-111.71375,40.23925],[-111.71362,40.23989],[-111.71372,40.24807],[-111.71677,40.24805],[-111.7177,40.24685],[-111.72622,40.25553],[-111.72815,40.25836],[-111.72815,40.26056],[-111.72354,40.26087],[-111.72375,40.2678],[-111.72559,40.26741],[-111.72266,40.26961],[-111.72224,40.2691],[-111.71727,40.26936],[-111.71777,40.27005],[-111.72306,40.27008],[-111.72437,40.27162],[-111.73684,40.27153],[-111.74145,40.27611],[-111.7431,40.27609],[-111.74325,40.27675],[-111.74289,40.27693],[-111.74706,40.27874],[-111.74785,40.27873],[-111.75301,40.28293],[-111.75185,40.28321],[-111.74911,40.28242],[-111.74876,40.28209],[-111.74789,40.28294],[-111.74833,40.28353],[-111.74702,40.28433],[-111.74633,40.28446],[-111.74675,40.28549],[-111.74794,40.28551],[-111.74659,40.28701],[-111.74617,40.28782],[-111.74613,40.28872],[-111.74571,40.28907],[-111.74588,40.28932],[-111.74549,40.28997],[-111.74332,40.28975],[-111.74329,40.28867],[-111.74258,40.28864],[-111.74256,40.28826],[-111.74232,40.28826],[-111.74232,40.28864],[-111.74176,40.28864],[-111.74124,40.28841],[-111.74088,40.28792],[-111.73988,40.28805],[-111.73943,40.2883],[-111.73895,40.2882],[-111.73847,40.2882],[-111.73845,40.28676],[-111.73845,40.28294],[-111.73244,40.28275],[-111.73356,40.28469],[-111.73427,40.28468],[-111.7343,40.28413],[-111.73592,40.28414],[-111.73593,40.28615],[-111.73378,40.28616],[-111.73379,40.28647],[-111.73391,40.28982],[-111.74014,40.28977],[-111.74018,40.29171],[-111.74298,40.29306],[-111.74342,40.29492],[-111.73671,40.29494],[-111.73395,40.29124],[-111.73411,40.29537],[-111.73385,40.30382],[-111.7336,40.30433],[-111.73497,40.31186],[-111.7376,40.32627],[-111.73909,40.32627],[-111.73918,40.32992],[-111.74631,40.32989],[-111.74634,40.33104],[-111.75361,40.33101],[-111.75366,40.33348],[-111.75992,40.33338],[-111.7635,40.33181],[-111.76173,40.32971],[-111.76196,40.32615],[-111.76269,40.32618],[-111.76504,40.32615],[-111.77244,40.32604],[-111.7729,40.32615],[-111.77283,40.33431],[-111.77278,40.34104],[-111.7793,40.34766],[-111.78157,40.34767],[-111.78226,40.34579],[-111.78175,40.34193],[-111.78402,40.34193],[-111.78401,40.34024],[-111.78554,40.33953],[-111.78769,40.34012],[-111.7953,40.34301],[-111.79529,40.34407],[-111.79692,40.34407],[-111.7969,40.34558],[-111.79936,40.34563],[-111.79937,40.34273],[-111.80054,40.34237],[-111.80193,40.34192],[-111.80401,40.34304],[-111.80438,40.34455],[-111.8058,40.34539],[-111.8102,40.34699],[-111.8102,40.34796],[-111.80724,40.34797],[-111.80758,40.34937],[-111.80759,40.35411],[-111.81011,40.35411],[-111.81008,40.3554],[-111.80499,40.35539],[-111.80497,40.35627],[-111.81005,40.35625],[-111.81001,40.36109],[-111.81107,40.36105],[-111.81074,40.36679],[-111.81119,40.36928],[-111.81355,40.36905],[-111.81357,40.36796],[-111.81554,40.36798],[-111.81555,40.36662],[-111.81359,40.36661],[-111.81361,40.36554],[-111.81675,40.36621],[-111.81674,40.3642],[-111.81877,40.36417],[-111.81883,40.36222],[-111.82146,40.36223],[-111.81884,40.36133],[-111.81981,40.35157],[-111.82892,40.35389],[-111.82889,40.35426],[-111.82879,40.36004],[-111.82396,40.36008],[-111.82389,40.36438],[-111.82623,40.36359],[-111.82629,40.36635],[-111.82848,40.36635],[-111.82847,40.36505],[-111.83392,40.36508],[-111.83502,40.3626],[-111.83518,40.35584],[-111.83519,40.35533],[-111.84356,40.35694],[-111.84869,40.35796],[-111.85632,40.35947],[-111.861,40.3604],[-111.86817,40.36046],[-111.87272,40.36109],[-111.87337,40.3602],[-111.88227,40.36001],[-111.88381,40.36018],[-111.88732,40.36066],[-111.89166,40.35964],[-111.89353,40.35918],[-111.89436,40.35867],[-111.8994,40.35546],[-111.90088,40.35432],[-111.90355,40.35002],[-111.9097,40.34435],[-111.91094,40.34242],[-111.91206,40.33934],[-111.91226,40.3382],[-111.90933,40.33603],[-111.90569,40.33531],[-111.90496,40.33507],[-111.89881,40.33141],[-111.89615,40.32763],[-111.89498,40.32296],[-111.88892,40.31815],[-111.88423,40.31255],[-111.88402,40.30998],[-111.88199,40.30765],[-111.88022,40.30551],[-111.87878,40.30308],[-111.87632,40.29935],[-111.87329,40.29475],[-111.8713,40.29173],[-111.86594,40.2836],[-111.85581,40.26822],[-111.86694,40.26799],[-111.87593,40.26791],[-111.87595,40.26432],[-111.8795,40.26431],[-111.87964,40.26067],[-111.88609,40.26064],[-111.88608,40.27148],[-111.90027,40.27148],[-111.90026,40.27509],[-111.90577,40.27509],[-111.90576,40.29026],[-111.90575,40.2904],[-111.90575,40.29314],[-111.90686,40.29314],[-111.91553,40.29314],[-111.91556,40.29675],[-111.92027,40.29675],[-111.92052,40.31117],[-111.91561,40.31117],[-111.91562,40.30756],[-111.90579,40.30756],[-111.90577,40.31653],[-111.90576,40.31839],[-111.92409,40.31839],[-111.92546,40.31839],[-111.92545,40.3308],[-111.92673,40.33136],[-111.92652,40.33284],[-111.92774,40.33285],[-111.94512,40.33286],[-111.95463,40.33281],[-111.9587,40.33282],[-111.9594,40.33282],[-111.95939,40.33513],[-111.95935,40.34384],[-111.94508,40.34377],[-111.94506,40.34742],[-111.96208,40.3475],[-111.96398,40.34753],[-111.96408,40.34753],[-111.96418,40.33283],[-111.96729,40.33282],[-111.96729,40.33082],[-111.96485,40.33081],[-111.96487,40.32758],[-111.96409,40.32719],[-111.95839,40.32718],[-111.95781,40.31995],[-111.96154,40.31995],[-111.96257,40.32357],[-111.96729,40.32357],[-111.96729,40.30639],[-111.96732,40.27582],[-111.9488,40.27581],[-111.9488,40.26141],[-111.96733,40.26144],[-111.96736,40.24688],[-111.98662,40.24688],[-111.98668,40.23246],[-111.99752,40.23236],[-112.00572,40.23225],[-112.00573,40.2469],[-112.0243,40.247],[-112.04393,40.24692],[-112.04388,40.27231],[-112.04388,40.2762],[-112.06302,40.27624],[-112.06304,40.28354],[-112.07279,40.28352],[-112.07268,40.27799],[-112.09252,40.27831],[-112.09215,40.28355],[-112.11563,40.28354],[-112.11565,40.29094],[-112.13011,40.29098],[-112.13005,40.30551],[-112.10149,40.30549],[-112.10072,40.3056],[-112.09921,40.29818],[-112.08217,40.29822],[-112.08217,40.30552]],[[-111.91768,40.44602],[-111.91532,40.44757],[-111.9131,40.4472],[-111.91111,40.44829],[-111.90994,40.44983],[-111.90368,40.44984],[-111.90368,40.45122],[-111.90094,40.45072],[-111.90094,40.45205],[-111.90094,40.45263],[-111.89623,40.45604],[-111.89629,40.46377],[-111.89831,40.46351],[-111.90103,40.46331],[-111.90677,40.45466],[-111.90771,40.45341],[-111.91331,40.45252],[-111.9149,40.45201],[-111.91768,40.44602]],[[-111.86418,40.45666],[-111.86674,40.45365],[-111.86659,40.45007],[-111.84983,40.45011],[-111.84984,40.45946],[-111.84984,40.46078],[-111.84984,40.4645],[-111.85555,40.46452],[-111.86001,40.46452],[-111.86012,40.46452],[-111.86291,40.46088],[-111.86418,40.45666]],[[-111.82837,40.42076],[-111.83043,40.42078],[-111.82978,40.42011],[-111.82837,40.42076]],[[-111.82639,40.4163],[-111.82695,40.4163],[-111.82694,40.4154],[-111.82805,40.41539],[-111.82801,40.41361],[-111.82565,40.4136],[-111.8257,40.4154],[-111.82639,40.41541],[-111.82639,40.4163]],[[-111.82745,40.3989],[-111.82792,40.3989],[-111.82854,40.39538],[-111.82731,40.3962],[-111.82733,40.3989],[-111.82668,40.3989],[-111.8267,40.40347],[-111.82558,40.40242],[-111.82077,40.4014],[-111.82076,40.40049],[-111.81832,40.40015],[-111.81451,40.40283],[-111.8113,40.40342],[-111.81125,40.40425],[-111.81218,40.40555],[-111.81219,40.40627],[-111.81413,40.40623],[-111.81452,40.40338],[-111.81961,40.40392],[-111.82078,40.40218],[-111.82081,40.40516],[-111.82561,40.40499],[-111.82625,40.40358],[-111.82626,40.40618],[-111.82671,40.40618],[-111.82791,40.40442],[-111.82745,40.3989]],[[-111.87346,40.36502],[-111.8735,40.36692],[-111.86955,40.36694],[-111.86706,40.36784],[-111.86706,40.36883],[-111.87192,40.3688],[-111.87191,40.37203],[-111.87289,40.37165],[-111.87354,40.36794],[-111.88158,40.36754],[-111.87681,40.36682],[-111.8789,40.36638],[-111.87891,40.36503],[-111.87346,40.36502]],[[-111.88906,40.36779],[-111.88653,40.3678],[-111.88652,40.36864],[-111.8874,40.36872],[-111.88907,40.36873],[-111.88906,40.36779]],[[-111.88654,40.36605],[-111.88901,40.36605],[-111.88899,40.36504],[-111.88655,40.36504],[-111.88407,40.36506],[-111.88408,40.36694],[-111.88654,40.36693],[-111.88654,40.36605]],[[-111.88651,40.38092],[-111.88651,40.38498],[-111.88904,40.38496],[-111.88903,40.38094],[-111.88651,40.38092]],[[-111.88165,40.38824],[-111.88163,40.38726],[-111.88056,40.38723],[-111.87976,40.38725],[-111.87923,40.38724],[-111.87922,40.38824],[-111.88165,40.38824]],[[-111.8768,40.37237],[-111.87859,40.37238],[-111.87868,40.37456],[-111.8768,40.37452],[-111.87679,40.37488],[-111.87679,40.37661],[-111.88163,40.37663],[-111.87966,40.37457],[-111.87923,40.37085],[-111.88121,40.3697],[-111.87978,40.36877],[-111.87681,40.3688],[-111.8768,40.37237]],[[-111.8768,40.37409],[-111.8768,40.37327],[-111.87511,40.37327],[-111.87439,40.37389],[-111.87432,40.37454],[-111.8768,40.37452],[-111.8768,40.37409]],[[-111.87823,40.40946],[-111.87822,40.40613],[-111.87429,40.40611],[-111.87823,40.40946]],[[-111.87051,40.39101],[-111.8767,40.39101],[-111.87425,40.39037],[-111.87423,40.3891],[-111.87308,40.3891],[-111.87306,40.38721],[-111.87051,40.3872],[-111.87051,40.39101]],[[-111.87308,40.41332],[-111.87588,40.41329],[-111.87586,40.41038],[-111.87348,40.41039],[-111.87348,40.41175],[-111.87114,40.41245],[-111.87115,40.41334],[-111.87308,40.41332]],[[-111.8694,40.40712],[-111.86941,40.40609],[-111.87261,40.4061],[-111.86866,40.40517],[-111.86867,40.406],[-111.86738,40.40606],[-111.86774,40.40711],[-111.8694,40.40712]],[[-111.86459,40.37421],[-111.86704,40.37419],[-111.86704,40.3742],[-111.86953,40.37421],[-111.86953,40.37245],[-111.86836,40.37196],[-111.86705,40.372],[-111.86705,40.37239],[-111.86458,40.3724],[-111.86459,40.37421]],[[-111.86647,40.41911],[-111.86874,40.4191],[-111.86875,40.41875],[-111.86765,40.4183],[-111.86752,40.4182],[-111.86599,40.41735],[-111.86454,40.41609],[-111.86647,40.41911]],[[-111.867,40.3862],[-111.86702,40.38719],[-111.86844,40.3872],[-111.86865,40.3862],[-111.867,40.3862]],[[-111.86573,40.39858],[-111.86529,40.39858],[-111.86486,40.39858],[-111.86542,40.40041],[-111.86739,40.40033],[-111.86573,40.39858]],[[-111.86578,40.38027],[-111.86588,40.38165],[-111.86704,40.38164],[-111.86704,40.38027],[-111.86578,40.38027]],[[-111.86454,40.36967],[-111.86455,40.3706],[-111.86693,40.37058],[-111.86693,40.36967],[-111.86454,40.36967]],[[-111.85752,40.41339],[-111.85738,40.41339],[-111.85715,40.41339],[-111.85716,40.41464],[-111.85751,40.41464],[-111.85752,40.41339]],[[-111.85372,40.37908],[-111.85373,40.37975],[-111.85424,40.37976],[-111.85425,40.37862],[-111.85382,40.37782],[-111.85295,40.37785],[-111.85263,40.37715],[-111.85202,40.37916],[-111.85372,40.37908]],[[-111.84906,40.36971],[-111.84906,40.36746],[-111.85082,40.36742],[-111.85081,40.36494],[-111.85341,40.36494],[-111.85348,40.3623],[-111.84908,40.3623],[-111.84908,40.36246],[-111.84679,40.36246],[-111.84677,40.36971],[-111.84906,40.36971]],[[-111.85148,40.42069],[-111.85147,40.42292],[-111.85206,40.42316],[-111.85204,40.42069],[-111.85148,40.42069]],[[-111.84195,40.37528],[-111.8444,40.37529],[-111.84436,40.36971],[-111.83964,40.36995],[-111.83955,40.37345],[-111.83968,40.3787],[-111.8397,40.38224],[-111.84444,40.38221],[-111.84896,40.38318],[-111.84683,40.38242],[-111.84682,40.38058],[-111.84908,40.38085],[-111.84443,40.37989],[-111.84444,40.38149],[-111.84206,40.38153],[-111.84202,40.37919],[-111.84195,40.37528]],[[-111.84676,40.37342],[-111.84677,40.37577],[-111.84907,40.37493],[-111.84907,40.37342],[-111.84676,40.37342]],[[-111.84593,40.41408],[-111.84647,40.41377],[-111.84711,40.41362],[-111.84743,40.41361],[-111.84743,40.41346],[-111.84651,40.4134],[-111.84511,40.4134],[-111.84508,40.41422],[-111.84567,40.41415],[-111.84593,40.41408]],[[-111.84441,40.37709],[-111.84443,40.37932],[-111.8468,40.37931],[-111.84678,40.37709],[-111.84441,40.37709]],[[-111.84508,40.41435],[-111.84504,40.41546],[-111.84622,40.41507],[-111.84621,40.41433],[-111.84508,40.41435]],[[-111.83303,40.39122],[-111.83545,40.39216],[-111.8366,40.39263],[-111.83622,40.39234],[-111.83507,40.38961],[-111.83482,40.38922],[-111.83387,40.3892],[-111.83319,40.38919],[-111.83303,40.39122]],[[-111.8318,40.40687],[-111.83169,40.40691],[-111.83185,40.4095],[-111.83404,40.40953],[-111.83366,40.40928],[-111.83366,40.4078],[-111.83308,40.40788],[-111.83219,40.40672],[-111.83194,40.40683],[-111.8318,40.40687]],[[-111.83375,40.40481],[-111.83204,40.40369],[-111.8319,40.40504],[-111.83336,40.40539],[-111.83378,40.40491],[-111.83375,40.40481]],[[-111.8316,40.40473],[-111.83158,40.40127],[-111.83022,40.40126],[-111.83028,40.40416],[-111.83112,40.40416],[-111.83113,40.40474],[-111.8316,40.40473]],[[-111.82553,40.39539],[-111.82555,40.39895],[-111.82615,40.39894],[-111.82613,40.39539],[-111.82553,40.39539]],[[-111.77336,40.41072],[-111.77335,40.40994],[-111.7724,40.40998],[-111.77241,40.41074],[-111.77336,40.41072]],[[-111.76423,40.37936],[-111.76303,40.3794],[-111.76298,40.38312],[-111.76417,40.38312],[-111.7648,40.38312],[-111.7648,40.38122],[-111.76423,40.37936]],[[-111.709,40.26527],[-111.70978,40.26532],[-111.71212,40.26809],[-111.71271,40.26807],[-111.71469,40.26808],[-111.70736,40.26075],[-111.70636,40.26075],[-111.71058,40.26454],[-111.70988,40.26482],[-111.709,40.26499],[-111.709,40.26527]],[[-111.66975,40.26728],[-111.66844,40.26732],[-111.66863,40.26891],[-111.66871,40.26892],[-111.66921,40.26777],[-111.66975,40.26728]],[[-111.65675,40.29371],[-111.65691,40.29307],[-111.65747,40.29307],[-111.65744,40.29187],[-111.65278,40.29201],[-111.65299,40.29332],[-111.6532,40.29449],[-111.65655,40.29448],[-111.65675,40.29371]],[[-111.8298,40.37087],[-111.8285,40.37088],[-111.82851,40.3728],[-111.83115,40.37281],[-111.83117,40.3709],[-111.8298,40.37087]],[[-111.82493,40.37585],[-111.82499,40.37278],[-111.82619,40.37177],[-111.82377,40.37278],[-111.82373,40.36987],[-111.82249,40.37277],[-111.82083,40.37276],[-111.82082,40.37498],[-111.82493,40.37585]],[[-111.82321,40.37736],[-111.8249,40.37737],[-111.8249,40.37695],[-111.82319,40.3769],[-111.82321,40.37736]],[[-111.81107,40.37438],[-111.81495,40.37544],[-111.81634,40.376],[-111.81668,40.3758],[-111.81753,40.37526],[-111.81932,40.37573],[-111.81896,40.37459],[-111.81895,40.37275],[-111.81578,40.37274],[-111.81562,40.37389],[-111.81108,40.37296],[-111.81108,40.37414],[-111.81107,40.37438]],[[-111.8128,40.39101],[-111.81282,40.39171],[-111.81382,40.39171],[-111.81382,40.39215],[-111.81387,40.391],[-111.8128,40.39101]],[[-111.81166,40.37271],[-111.8135,40.37273],[-111.81354,40.3702],[-111.81166,40.3702],[-111.81166,40.37271]],[[-111.79523,40.35707],[-111.79042,40.35713],[-111.79041,40.35518],[-111.78735,40.35514],[-111.78553,40.35278],[-111.78553,40.35145],[-111.78305,40.35145],[-111.78505,40.35344],[-111.78549,40.35513],[-111.78677,40.35514],[-111.7932,40.36138],[-111.7932,40.3644],[-111.79521,40.36551],[-111.79521,40.36382],[-111.79848,40.36714],[-111.80085,40.36713],[-111.80139,40.36431],[-111.80172,40.35204],[-111.80281,40.35203],[-111.80277,40.34869],[-111.80172,40.34873],[-111.80172,40.35036],[-111.79958,40.35035],[-111.79955,40.35524],[-111.79524,40.35522],[-111.79523,40.35707]],[[-111.79839,40.34781],[-111.80174,40.34783],[-111.80173,40.34693],[-111.79839,40.34688],[-111.79839,40.34781]],[[-111.79043,40.35143],[-111.79348,40.35145],[-111.79523,40.35184],[-111.79523,40.35265],[-111.79688,40.35264],[-111.79691,40.34779],[-111.79522,40.34778],[-111.79522,40.3501],[-111.79229,40.35011],[-111.79239,40.34776],[-111.79041,40.34775],[-111.79043,40.35143]],[[-111.79138,40.40377],[-111.79198,40.4038],[-111.79224,40.40372],[-111.79293,40.40398],[-111.79369,40.40416],[-111.79375,40.40399],[-111.79211,40.4036],[-111.79202,40.40343],[-111.79158,40.40349],[-111.79082,40.40349],[-111.79071,40.40374],[-111.79138,40.40377]],[[-111.79133,40.36503],[-111.79028,40.36503],[-111.79028,40.36536],[-111.79228,40.36538],[-111.79133,40.36477],[-111.79133,40.36503]],[[-111.79035,40.36414],[-111.78939,40.36435],[-111.78936,40.36492],[-111.79028,40.36494],[-111.79027,40.36445],[-111.79074,40.36445],[-111.79035,40.36414]],[[-111.78553,40.34903],[-111.78553,40.35122],[-111.78568,40.35139],[-111.78806,40.35141],[-111.78805,40.34906],[-111.78553,40.34903]],[[-111.77527,40.37194],[-111.77529,40.37313],[-111.77564,40.37323],[-111.77588,40.3733],[-111.77588,40.37209],[-111.77527,40.37194]],[[-111.77452,40.37725],[-111.77532,40.37725],[-111.77533,40.37568],[-111.77457,40.37568],[-111.77457,40.37617],[-111.77396,40.37617],[-111.77397,40.37652],[-111.7745,40.37651],[-111.77452,40.37725]],[[-111.77064,40.40272],[-111.77331,40.40269],[-111.77331,40.39971],[-111.77056,40.39974],[-111.77064,40.40272]],[[-111.77071,40.38747],[-111.76982,40.39006],[-111.77254,40.39005],[-111.77118,40.38838],[-111.77324,40.38782],[-111.77071,40.38747]],[[-111.76985,40.39101],[-111.772,40.39099],[-111.772,40.39019],[-111.76983,40.39019],[-111.76985,40.39101]],[[-111.76785,40.39099],[-111.76787,40.39186],[-111.76827,40.39186],[-111.76843,40.39185],[-111.76843,40.39099],[-111.76785,40.39099]],[[-111.80793,40.45876],[-111.80591,40.46021],[-111.80593,40.46053],[-111.80824,40.46039],[-111.8095,40.45959],[-111.80949,40.45763],[-111.81157,40.45762],[-111.81174,40.45481],[-111.81173,40.45365],[-111.80219,40.45383],[-111.80218,40.45709],[-111.8077,40.45739],[-111.80793,40.45876]],[[-111.79832,40.4416],[-111.79631,40.44136],[-111.79632,40.44378],[-111.79644,40.44392],[-111.79835,40.44323],[-111.79927,40.44474],[-111.80212,40.44473],[-111.8021,40.44304],[-111.79832,40.4416]],[[-111.76393,40.4392],[-111.76389,40.4356],[-111.76078,40.43563],[-111.76078,40.43743],[-111.76091,40.4392],[-111.76393,40.4392]],[[-111.81161,40.41973],[-111.81156,40.41836],[-111.80882,40.41836],[-111.80882,40.4194],[-111.81162,40.42006],[-111.81161,40.41973]],[[-111.80714,40.41814],[-111.80594,40.41725],[-111.80201,40.41725],[-111.80202,40.42084],[-111.80715,40.42083],[-111.80714,40.41814]]],[[[-114.04668,40.11694],[-114.04615,40.23197],[-114.04618,40.39831],[-114.04583,40.42482],[-114.04522,40.43028],[-114.04552,40.49447],[-114.04558,40.4958],[-114.04528,40.50659],[-114.0438,40.68976],[-114.04351,40.72603],[-114.0435,40.72629],[-114.04364,40.73961],[-114.04372,40.74771],[-114.0438,40.75555],[-114.04383,40.75867],[-114.0438,40.75921],[-114.04318,40.77168],[-114.04241,40.94202],[-114.04215,40.9999],[-113.05908,40.99993],[-112.79936,40.99994],[-112.7508,41.01218],[-112.7486,41.01293],[-112.66359,41.03428],[-112.49351,41.07689],[-112.45162,41.08733],[-112.19934,41.1499],[-112.18654,41.15303],[-112.1732,41.15295],[-112.12288,41.15275],[-112.10461,41.15273],[-112.10299,41.15273],[-112.08381,41.15271],[-112.07787,41.1527],[-112.07309,41.1527],[-112.06447,41.15272],[-112.05486,41.15261],[-112.04587,41.15261],[-112.04523,41.15262],[-112.03753,41.15263],[-112.03729,41.15262],[-112.03237,41.15263],[-112.02606,41.15265],[-112.0251,41.15265],[-112.02123,41.15265],[-112.02113,41.15265],[-111.99963,41.15267],[-111.98778,41.15266],[-111.971,41.15265],[-111.96909,41.15204],[-111.96573,41.15037],[-111.96232,41.1494],[-111.95931,41.14695],[-111.95912,41.14695],[-111.95756,41.14601],[-111.9556,41.14197],[-111.95619,41.14063],[-111.95398,41.13991],[-111.95254,41.13914],[-111.94949,41.13807],[-111.94761,41.13832],[-111.94632,41.13808],[-111.94291,41.13745],[-111.93949,41.13811],[-111.93408,41.13836],[-111.93158,41.13721],[-111.92842,41.13857],[-111.92521,41.13789],[-111.92033,41.13855],[-111.91993,41.1377],[-111.91713,41.13789],[-111.91495,41.13719],[-111.91361,41.13509],[-111.91218,41.13483],[-111.91216,41.13483],[-111.91075,41.13457],[-111.9034,41.13634],[-111.90321,41.13645],[-111.90122,41.13647],[-111.89943,41.13554],[-111.8976,41.13563],[-111.88987,41.13762],[-111.88281,41.13735],[-111.88098,41.13779],[-111.87836,41.13748],[-111.87417,41.13814],[-111.86904,41.13806],[-111.8661,41.13726],[-111.86125,41.13751],[-111.86165,41.14022],[-111.85822,41.13881],[-111.85625,41.13908],[-111.85606,41.13862],[-111.85703,41.1369],[-111.85336,41.13596],[-111.84901,41.13376],[-111.84768,41.13086],[-111.84641,41.12922],[-111.84681,41.12714],[-111.84494,41.12398],[-111.84455,41.12179],[-111.84652,41.11893],[-111.84781,41.11849],[-111.84964,41.11547],[-111.85415,41.11414],[-111.85611,41.11191],[-111.85409,41.10889],[-111.85396,41.10814],[-111.85586,41.10533],[-111.8565,41.10288],[-111.8546,41.09951],[-111.85176,41.09769],[-111.85447,41.09427],[-111.85513,41.09272],[-111.85334,41.08954],[-111.85083,41.0879],[-111.85141,41.08675],[-111.85195,41.08246],[-111.85078,41.08148],[-111.85033,41.0779],[-111.84836,41.07574],[-111.85045,41.07138],[-111.85101,41.06916],[-111.85194,41.06794],[-111.8518,41.06665],[-111.84902,41.06236],[-111.84623,41.06114],[-111.84448,41.05886],[-111.84463,41.05678],[-111.84394,41.05624],[-111.84416,41.04985],[-111.84085,41.04587],[-111.83873,41.04478],[-111.83834,41.04242],[-111.83951,41.04066],[-111.83756,41.04013],[-111.83492,41.03757],[-111.83369,41.03701],[-111.83681,41.03616],[-111.8394,41.03137],[-111.83801,41.02643],[-111.83744,41.02557],[-111.83839,41.02348],[-111.83643,41.02115],[-111.83462,41.02032],[-111.8314,41.021],[-111.82879,41.02078],[-111.8257,41.0185],[-111.82424,41.01601],[-111.82269,41.01449],[-111.82053,41.01084],[-111.82191,41.00784],[-111.82001,41.00652],[-111.81629,41.00575],[-111.81047,41.00509],[-111.80613,41.00169],[-111.80673,40.99994],[-111.80417,40.99497],[-111.80163,40.99258],[-111.79885,40.98935],[-111.79651,40.98868],[-111.79304,40.98574],[-111.79191,40.98307],[-111.78853,40.97972],[-111.78533,40.97483],[-111.78521,40.97319],[-111.78433,40.97254],[-111.78277,40.96885],[-111.78179,40.96818],[-111.77846,40.96442],[-111.77787,40.96309],[-111.77562,40.96136],[-111.77504,40.95932],[-111.77717,40.95827],[-111.78004,40.95817],[-111.78253,40.9568],[-111.78469,40.95721],[-111.78748,40.95902],[-111.78955,40.95958],[-111.79076,40.96085],[-111.79473,40.96093],[-111.79817,40.95905],[-111.80034,40.95971],[-111.80382,40.95934],[-111.8077,40.95741],[-111.80972,40.9575],[-111.81391,40.95997],[-111.81465,40.95977],[-111.8154,40.95772],[-111.8153,40.95718],[-111.81318,40.95393],[-111.81169,40.95017],[-111.81065,40.9495],[-111.80687,40.94919],[-111.80558,40.94609],[-111.80388,40.94424],[-111.8045,40.94199],[-111.80398,40.9407],[-111.80196,40.93927],[-111.80083,40.93757],[-111.79785,40.93586],[-111.79598,40.93411],[-111.79521,40.93182],[-111.79251,40.93015],[-111.79105,40.92703],[-111.79311,40.9247],[-111.79344,40.92352],[-111.79286,40.92096],[-111.79423,40.91846],[-111.79375,40.91596],[-111.7926,40.91495],[-111.79122,40.91522],[-111.78632,40.91338],[-111.78306,40.91284],[-111.7817,40.91089],[-111.78167,40.90927],[-111.77922,40.90643],[-111.77882,40.90414],[-111.777,40.90222],[-111.77608,40.9005],[-111.77649,40.89922],[-111.77846,40.89794],[-111.78052,40.89774],[-111.78146,40.89561],[-111.77777,40.89648],[-111.77476,40.89565],[-111.77257,40.89329],[-111.77145,40.8906],[-111.77149,40.8895],[-111.77027,40.8879],[-111.7665,40.88843],[-111.76403,40.88899],[-111.76231,40.88784],[-111.76175,40.88526],[-111.76463,40.88098],[-111.76513,40.8783],[-111.76659,40.87768],[-111.76676,40.87659],[-111.76828,40.87559],[-111.76869,40.87228],[-111.76356,40.87363],[-111.76057,40.87302],[-111.75884,40.87217],[-111.75631,40.87283],[-111.75239,40.87246],[-111.75139,40.87192],[-111.74638,40.8709],[-111.74408,40.86942],[-111.74379,40.86816],[-111.74031,40.86523],[-111.74018,40.8638],[-111.73891,40.86117],[-111.74179,40.86044],[-111.74684,40.86019],[-111.74869,40.85643],[-111.75199,40.85327],[-111.74079,40.85337],[-111.74056,40.82962],[-111.74051,40.82491],[-111.77773,40.82039],[-111.7799,40.8197],[-111.78716,40.81967],[-111.78715,40.81688],[-111.79629,40.81354],[-111.79981,40.8124],[-111.79976,40.79864],[-111.80729,40.79845],[-111.81544,40.79847],[-111.81543,40.79733],[-111.8154,40.79168],[-111.81532,40.77961],[-111.81457,40.7763],[-111.81437,40.75497],[-111.80998,40.75499],[-111.80092,40.75494],[-111.80087,40.75172],[-111.8008,40.74775],[-111.80311,40.74774],[-111.8034,40.74297],[-111.80274,40.74122],[-111.80444,40.74124],[-111.80552,40.74039],[-111.80551,40.73681],[-111.80653,40.73444],[-111.8055,40.73395],[-111.80551,40.73219],[-111.80508,40.73043],[-111.8017,40.73296],[-111.79594,40.73305],[-111.79589,40.72551],[-111.79587,40.72223],[-111.79126,40.72224],[-111.79125,40.7198],[-111.79117,40.71226],[-111.79461,40.71185],[-111.79631,40.71132],[-111.79796,40.71131],[-111.80552,40.71438],[-111.80551,40.71495],[-111.80747,40.71492],[-111.81499,40.71494],[-111.81499,40.71454],[-111.81497,40.71218],[-111.81497,40.71121],[-111.82296,40.71131],[-111.82196,40.71278],[-111.82241,40.7129],[-111.82636,40.71397],[-111.82479,40.71272],[-111.8247,40.71231],[-111.82897,40.7123],[-111.8295,40.71202],[-111.82949,40.71214],[-111.83409,40.71168],[-111.83409,40.71151],[-111.8329,40.71151],[-111.83258,40.71024],[-111.83407,40.71023],[-111.8341,40.70745],[-111.8346,40.70744],[-111.83461,40.70659],[-111.83595,40.70663],[-111.83603,40.70672],[-111.83886,40.70671],[-111.83888,40.70834],[-111.84131,40.70842],[-111.84129,40.70931],[-111.84361,40.70932],[-111.84361,40.70839],[-111.84357,40.70601],[-111.85236,40.7061],[-111.85279,40.70559],[-111.85297,40.7061],[-111.85304,40.70628],[-111.8597,40.70628],[-111.85971,40.70588],[-111.85893,40.7055],[-111.85962,40.70472],[-111.85533,40.7046],[-111.85508,40.70298],[-111.8548,40.70247],[-111.85406,40.70074],[-111.854,40.69991],[-111.85541,40.6999],[-111.85829,40.69991],[-111.85973,40.69989],[-111.86112,40.70158],[-111.86186,40.7047],[-111.86013,40.70588],[-111.86014,40.70629],[-111.86256,40.70628],[-111.86259,40.70588],[-111.8626,40.70522],[-111.86261,40.70289],[-111.86548,40.70233],[-111.86544,40.70522],[-111.86544,40.70548],[-111.86831,40.70549],[-111.86831,40.70582],[-111.86832,40.71093],[-111.86831,40.71184],[-111.86984,40.71158],[-111.87127,40.71159],[-111.87127,40.71093],[-111.87126,40.70933],[-111.87487,40.70932],[-111.874,40.70785],[-111.87604,40.70784],[-111.87688,40.7094],[-111.87686,40.71265],[-111.87687,40.71328],[-111.87758,40.71327],[-111.87757,40.7151],[-111.87686,40.71511],[-111.87686,40.71627],[-111.87746,40.71627],[-111.87745,40.71652],[-111.87761,40.71652],[-111.87762,40.71699],[-111.87779,40.71699],[-111.8778,40.71785],[-111.87684,40.71787],[-111.87683,40.71836],[-111.8768,40.72543],[-111.88255,40.72543],[-111.88821,40.72545],[-111.90417,40.72542],[-111.91123,40.72553],[-111.92106,40.72598],[-111.92612,40.72597],[-111.9242,40.72446],[-111.93896,40.72419],[-111.94298,40.72423],[-111.95141,40.7254],[-111.95454,40.72582],[-111.96113,40.72596],[-111.96868,40.72682],[-111.97717,40.72616],[-111.97926,40.72598],[-112.0249,40.72589],[-112.0376,40.72586],[-112.04408,40.72559],[-112.06327,40.72559],[-112.0703,40.72556],[-112.07036,40.72895],[-112.06798,40.72954],[-112.06803,40.74023],[-112.06448,40.74024],[-112.06429,40.75481],[-112.08221,40.75481],[-112.08218,40.76201],[-112.09149,40.76199],[-112.09173,40.76925],[-112.10013,40.76921],[-112.10017,40.77113],[-112.10125,40.77112],[-112.10123,40.77877],[-112.09568,40.77879],[-112.09562,40.78143],[-112.10127,40.78143],[-112.1013,40.81265],[-112.10135,40.82714],[-112.07278,40.82728],[-112.07278,40.83088],[-112.06325,40.8309],[-112.06327,40.8164],[-112.0585,40.81641],[-112.05849,40.82368],[-112.0394,40.82369],[-112.03938,40.81282],[-112.03462,40.81287],[-112.03459,40.8092],[-112.02985,40.8092],[-112.02978,40.80195],[-112.02497,40.79832],[-112.00603,40.79838],[-112.00614,40.82721],[-111.96779,40.82745],[-111.9678,40.84195],[-111.95826,40.84195],[-111.95824,40.83859],[-111.96303,40.83859],[-111.96301,40.83108],[-111.95824,40.83108],[-111.95825,40.8358],[-111.95394,40.83581],[-111.95348,40.83049],[-111.94565,40.83003],[-111.94818,40.82495],[-111.95348,40.82492],[-111.95348,40.82281],[-111.96778,40.8228],[-111.96775,40.81304],[-111.96072,40.81304],[-111.96071,40.82018],[-111.95348,40.82022],[-111.94482,40.8202],[-111.94586,40.82179],[-111.94641,40.82205],[-111.94669,40.82384],[-111.94359,40.82739],[-111.94287,40.83049],[-111.94398,40.83156],[-111.94439,40.83166],[-111.94429,40.83415],[-111.94673,40.83796],[-111.95125,40.84196],[-111.94978,40.84312],[-111.95292,40.84465],[-111.95392,40.84764],[-111.95587,40.84911],[-111.95965,40.8486],[-111.96063,40.84789],[-111.963,40.84817],[-111.96168,40.84903],[-111.9589,40.84925],[-111.95997,40.85108],[-111.95966,40.85215],[-111.96179,40.85188],[-111.96449,40.85344],[-111.9616,40.85423],[-111.96378,40.85532],[-111.96588,40.85463],[-111.96645,40.85787],[-111.96407,40.85997],[-111.96477,40.86148],[-111.96265,40.8636],[-111.96384,40.86453],[-111.9639,40.8675],[-111.96256,40.86873],[-111.96289,40.87],[-111.96449,40.87102],[-111.96357,40.87156],[-111.96657,40.87232],[-111.96954,40.87232],[-111.96891,40.87411],[-111.97073,40.87509],[-111.97107,40.87665],[-111.96756,40.88006],[-111.96784,40.88239],[-111.96904,40.88347],[-111.96803,40.88457],[-111.96915,40.88569],[-111.96873,40.8869],[-111.96629,40.8888],[-111.96615,40.89165],[-111.96174,40.89336],[-111.96153,40.89528],[-111.95927,40.89633],[-111.95955,40.89781],[-111.9586,40.90017],[-111.95864,40.9127],[-111.95866,40.91806],[-111.95867,40.92182],[-112.00657,40.92185],[-112.00813,40.92102],[-112.14827,40.84613],[-112.19598,40.81332],[-112.26022,40.76909],[-112.22745,40.72531],[-112.22592,40.7242],[-112.22479,40.72341],[-112.22408,40.72291],[-112.22275,40.72199],[-112.22028,40.7203],[-112.21653,40.71791],[-112.21454,40.71789],[-112.21361,40.71681],[-112.20768,40.71572],[-112.20482,40.71076],[-112.20331,40.70914],[-112.2004,40.70298],[-112.19878,40.69752],[-112.1991,40.69492],[-112.19864,40.69319],[-112.19971,40.69182],[-112.20147,40.68634],[-112.20418,40.68339],[-112.2031,40.68176],[-112.20436,40.67865],[-112.20319,40.67536],[-112.20247,40.67486],[-112.20148,40.67118],[-112.20181,40.66872],[-112.20124,40.66322],[-112.20305,40.6583],[-112.20289,40.65419],[-112.20212,40.65214],[-112.19785,40.64784],[-112.19802,40.64393],[-112.19736,40.64184],[-112.19544,40.64031],[-112.19518,40.63894],[-112.19415,40.63561],[-112.19621,40.63167],[-112.19651,40.62975],[-112.19639,40.62934],[-112.19767,40.62546],[-112.19625,40.62362],[-112.1959,40.62123],[-112.19342,40.61997],[-112.18974,40.61627],[-112.18845,40.61418],[-112.18563,40.61408],[-112.18171,40.61205],[-112.17845,40.60678],[-112.17855,40.60547],[-112.17534,40.60398],[-112.17544,40.6021],[-112.1764,40.60026],[-112.17637,40.5972],[-112.17732,40.59646],[-112.17735,40.59521],[-112.17655,40.59399],[-112.17568,40.59029],[-112.17651,40.58843],[-112.17494,40.5854],[-112.17791,40.5841],[-112.17923,40.58177],[-112.18147,40.58038],[-112.18038,40.57735],[-112.18335,40.57387],[-112.18361,40.57304],[-112.18205,40.57088],[-112.18195,40.56649],[-112.18338,40.56465],[-112.18291,40.56219],[-112.18024,40.55819],[-112.17831,40.55642],[-112.17892,40.55453],[-112.17861,40.55279],[-112.17991,40.54873],[-112.18004,40.54586],[-112.18215,40.54366],[-112.18279,40.54098],[-112.18274,40.53856],[-112.18184,40.53768],[-112.18132,40.535],[-112.17919,40.53161],[-112.17946,40.52883],[-112.1788,40.52718],[-112.17909,40.5231],[-112.17876,40.52202],[-112.18521,40.51778],[-112.18754,40.5141],[-112.18459,40.50832],[-112.18098,40.50345],[-112.17972,40.50222],[-112.17584,40.50014],[-112.17877,40.49821],[-112.18058,40.49757],[-112.18143,40.49392],[-112.18102,40.49183],[-112.17702,40.48538],[-112.17732,40.48459],[-112.17748,40.48427],[-112.17814,40.48207],[-112.17601,40.47902],[-112.17631,40.47693],[-112.17397,40.47612],[-112.17157,40.47118],[-112.17286,40.46706],[-112.17651,40.46724],[-112.17965,40.46813],[-112.1815,40.46777],[-112.18492,40.46827],[-112.19027,40.46852],[-112.19244,40.46535],[-112.1944,40.46391],[-112.19569,40.46226],[-112.19748,40.4621],[-112.20387,40.46065],[-112.20619,40.46063],[-112.20771,40.45967],[-112.21,40.45919],[-112.21222,40.45928],[-112.2124,40.45678],[-112.21323,40.45511],[-112.21418,40.45231],[-112.21281,40.44904],[-112.21317,40.4448],[-112.21202,40.4415],[-112.21084,40.44038],[-112.21073,40.43888],[-112.20937,40.43444],[-112.20948,40.43307],[-112.20853,40.43174],[-112.2049,40.43107],[-112.20469,40.42993],[-112.2024,40.42773],[-112.19866,40.42566],[-112.19805,40.42339],[-112.19467,40.42106],[-112.19555,40.41734],[-112.19791,40.41493],[-112.19784,40.41264],[-112.19871,40.41044],[-112.19828,40.4091],[-112.19943,40.40579],[-112.19985,40.4035],[-112.19857,40.4],[-112.20005,40.39736],[-112.19919,40.39521],[-112.1997,40.39211],[-112.1994,40.39056],[-112.20158,40.38815],[-112.20082,40.38485],[-112.19917,40.38254],[-112.19732,40.38169],[-112.19441,40.37954],[-112.19214,40.37654],[-112.19104,40.37447],[-112.18873,40.37249],[-112.19023,40.37044],[-112.19137,40.37005],[-112.19373,40.36789],[-112.19364,40.36518],[-112.19474,40.36282],[-112.1945,40.3612],[-112.19399,40.35987],[-112.1902,40.35706],[-112.18919,40.35524],[-112.18808,40.35489],[-112.18682,40.35176],[-112.18595,40.35079],[-112.18534,40.34849],[-112.18137,40.34589],[-112.18074,40.34384],[-112.17913,40.34148],[-112.17862,40.33962],[-112.17553,40.33584],[-112.1772,40.33382],[-112.17993,40.33213],[-112.18322,40.33187],[-112.18804,40.33015],[-112.19106,40.32939],[-112.19367,40.3278],[-112.1944,40.32673],[-112.19628,40.32584],[-112.19268,40.32289],[-112.19366,40.32006],[-112.1937,40.31834],[-112.19459,40.31758],[-112.19678,40.31711],[-112.19837,40.31345],[-112.1985,40.31231],[-112.19735,40.3088],[-112.1986,40.30691],[-112.19558,40.30617],[-112.19208,40.3041],[-112.19185,40.30283],[-112.1898,40.30014],[-112.1895,40.29765],[-112.19021,40.29632],[-112.18795,40.29386],[-112.18736,40.29204],[-112.18846,40.2906],[-112.18649,40.28686],[-112.18844,40.2857],[-112.18811,40.28326],[-112.18923,40.28164],[-112.18841,40.27944],[-112.18901,40.27694],[-112.18905,40.27354],[-112.19147,40.27182],[-112.19171,40.2701],[-112.1929,40.26894],[-112.19204,40.26614],[-112.1922,40.2645],[-112.19003,40.26211],[-112.18657,40.2591],[-112.18384,40.25813],[-112.18406,40.25534],[-112.18329,40.25334],[-112.18446,40.25167],[-112.18391,40.24996],[-112.17933,40.24936],[-112.17965,40.24774],[-112.17901,40.24472],[-112.1791,40.24082],[-112.17969,40.23224],[-112.17693,40.23003],[-112.17669,40.22772],[-112.17542,40.22654],[-112.17435,40.22663],[-112.17054,40.22557],[-112.17007,40.22336],[-112.16862,40.22203],[-112.1687,40.21931],[-112.166,40.21785],[-112.16372,40.21836],[-112.16153,40.21706],[-112.15884,40.218],[-112.15715,40.21929],[-112.15385,40.21822],[-112.15384,40.21657],[-112.15474,40.21484],[-112.15271,40.2144],[-112.14949,40.21217],[-112.15084,40.2108],[-112.15312,40.21017],[-112.15638,40.20842],[-112.15858,40.20663],[-112.15724,40.20323],[-112.15936,40.20096],[-112.1604,40.19885],[-112.15921,40.19781],[-112.15643,40.19699],[-112.15521,40.19746],[-112.1514,40.1967],[-112.14856,40.19535],[-112.14894,40.19246],[-112.14871,40.19048],[-112.14684,40.18966],[-112.14775,40.18879],[-112.1505,40.18768],[-112.15081,40.18552],[-112.15228,40.18475],[-112.15337,40.18216],[-112.15268,40.17902],[-112.14823,40.17816],[-112.14671,40.17835],[-112.14576,40.17395],[-112.14438,40.17325],[-112.14475,40.17172],[-112.14593,40.1709],[-112.14768,40.1715],[-112.15229,40.17145],[-112.1559,40.17017],[-112.15508,40.16855],[-112.15605,40.16673],[-112.15807,40.16528],[-112.15868,40.16339],[-112.15964,40.16279],[-112.16441,40.16197],[-112.16863,40.15854],[-112.17334,40.1554],[-112.17399,40.15429],[-112.17127,40.1487],[-112.16921,40.14796],[-112.16777,40.14667],[-112.16948,40.14463],[-112.16994,40.14306],[-112.17224,40.1412],[-112.17321,40.13704],[-112.17339,40.13468],[-112.17505,40.13343],[-112.1761,40.13081],[-112.17458,40.12888],[-112.1721,40.12716],[-112.16876,40.12671],[-112.16361,40.12319],[-112.16429,40.12146],[-112.16417,40.11875],[-112.16169,40.11736],[-112.16086,40.11432],[-112.15741,40.1141],[-112.15575,40.11266],[-112.15591,40.11079],[-112.15488,40.10875],[-112.15089,40.1073],[-112.15112,40.10524],[-112.15419,40.10271],[-112.15496,40.09969],[-112.15691,40.09871],[-112.15715,40.09795],[-112.15754,40.09543],[-112.15795,40.08911],[-112.16077,40.0878],[-112.16486,40.0878],[-112.16725,40.08609],[-112.17141,40.08555],[-112.17262,40.08457],[-112.17455,40.08183],[-112.17406,40.0797],[-112.17596,40.07772],[-112.17437,40.07452],[-112.17378,40.07089],[-112.17242,40.06982],[-112.17217,40.06827],[-112.17321,40.06619],[-112.17683,40.06616],[-112.17809,40.06714],[-112.17984,40.06729],[-112.1802,40.06704],[-112.18194,40.06226],[-112.18359,40.05965],[-112.18251,40.05913],[-112.18169,40.05629],[-112.18001,40.05427],[-112.17892,40.05373],[-112.17765,40.05114],[-112.17814,40.04886],[-112.17761,40.04736],[-112.17549,40.04372],[-112.17198,40.03948],[-112.1733,40.03618],[-112.17487,40.03527],[-112.17408,40.03272],[-112.17708,40.03059],[-112.17698,40.02844],[-112.17805,40.02657],[-112.17761,40.02492],[-112.1779,40.02263],[-112.17713,40.02186],[-112.17689,40.01943],[-112.17815,40.0148],[-112.1798,40.01166],[-112.18186,40.0111],[-112.18386,40.00921],[-112.18499,40.00733],[-112.18686,40.00597],[-112.19084,40.00476],[-112.19169,40.00407],[-112.19332,40.00471],[-112.1967,40.00352],[-112.19986,40.00415],[-112.20116,40.00292],[-112.20192,39.99995],[-112.20564,39.99874],[-112.20675,39.99734],[-112.20808,39.9969],[-112.21062,39.99458],[-112.21356,39.99349],[-112.215,39.99236],[-112.21671,39.99201],[-112.21882,39.99074],[-112.22435,39.98861],[-112.22588,39.98617],[-112.22476,39.98216],[-112.22733,39.97892],[-112.22755,39.97772],[-112.2304,39.97463],[-112.23451,39.97098],[-112.23526,39.9699],[-112.23518,39.96781],[-112.23673,39.96663],[-112.2361,39.96307],[-112.23633,39.96072],[-112.23876,39.95855],[-112.24224,39.95692],[-112.24317,39.95712],[-112.24446,39.95724],[-112.2458,39.95615],[-112.24889,39.95078],[-112.25111,39.95008],[-112.25422,39.95059],[-112.25649,39.94845],[-112.25806,39.94543],[-112.2608,39.94275],[-112.26723,39.94177],[-112.27029,39.93902],[-112.27502,39.93991],[-112.27829,39.93924],[-112.28083,39.94137],[-112.28269,39.93991],[-112.28474,39.94114],[-112.28692,39.94113],[-112.28926,39.94026],[-112.29272,39.94006],[-112.29578,39.93903],[-112.29842,39.93869],[-112.30204,39.93664],[-112.30362,39.93713],[-112.30551,39.93997],[-112.30556,39.9432],[-112.30668,39.94545],[-112.30913,39.94477],[-112.30985,39.94737],[-112.30935,39.94839],[-112.31286,39.94748],[-112.31532,39.94582],[-112.31693,39.94559],[-112.32068,39.94603],[-112.32323,39.94447],[-112.32743,39.94667],[-112.33097,39.95157],[-112.3323,39.95279],[-112.3346,39.94949],[-112.3347,39.94568],[-112.33802,39.94557],[-112.33978,39.94368],[-112.33739,39.93656],[-112.33789,39.93536],[-112.33602,39.93259],[-112.3355,39.9306],[-112.33704,39.92791],[-112.33691,39.92502],[-112.33533,39.92367],[-112.33712,39.92209],[-112.33729,39.91889],[-112.33956,39.91753],[-112.34008,39.91438],[-112.34168,39.91275],[-112.34154,39.91166],[-112.34308,39.91085],[-112.34298,39.90898],[-112.34208,39.90781],[-112.34199,39.90446],[-112.35046,39.90443],[-112.45755,39.90389],[-112.60393,39.90367],[-112.79808,39.90369],[-112.79808,39.9042],[-113.02499,39.9049],[-113.2485,39.90471],[-113.2485,39.90532],[-113.70129,39.90553],[-113.92481,39.90593],[-114.04713,39.9061],[-114.04666,39.98059],[-114.04655,39.9969],[-114.04683,40.03013],[-114.04639,40.0979],[-114.04674,40.10423],[-114.04668,40.11694]]],[[[-111.81536,40.36272],[-111.81366,40.36273],[-111.81371,40.35958],[-111.81644,40.35958],[-111.81643,40.3621],[-111.81536,40.36272]]]]}}]}