{"type":"FeatureCollection","features":[{"type":"Feature","properties":{"name":"Gopher","boundary_type":"cousubs","source":"Census TIGER county subdivision","fidelity":"approximate","updated":"2026-09","units":"Washington County; Orange town; Washington town; Williamstown town","note":"Serves all of Washington County plus three neighboring Orange County towns: Orange, Washington, and Williamstown (per gophervt.org and web search of operator materials; site itself doesn't list towns explicitly). https://gophervt.org/","confidence":0.8},"geometry":{"type":"Polygon","coordinates":[[[-72.38183,44.00829],[-72.3819,44.00816],[-72.38276,44.0085],[-72.50242,44.05036],[-72.53821,44.06248],[-72.5692,44.07124],[-72.6291,44.08784],[-72.63448,44.08931],[-72.68287,44.01281],[-72.74224,44.02964],[-72.81896,44.05188],[-72.84865,44.06048],[-72.85182,44.06131],[-72.8969,44.07366],[-72.91023,44.07248],[-72.91678,44.07189],[-72.92176,44.09472],[-72.93215,44.1555],[-72.93408,44.16282],[-72.9522,44.16141],[-72.92229,44.22274],[-72.9066,44.25451],[-72.89498,44.2781],[-72.90596,44.28055],[-72.88038,44.32985],[-72.86125,44.3669],[-72.85555,44.36559],[-72.84935,44.36296],[-72.84383,44.36221],[-72.83532,44.35999],[-72.83266,44.35874],[-72.82837,44.36043],[-72.82596,44.35903],[-72.82528,44.35989],[-72.80237,44.38858],[-72.83983,44.40345],[-72.8306,44.41543],[-72.80486,44.45188],[-72.76556,44.44281],[-72.71993,44.4251],[-72.68435,44.41069],[-72.65434,44.3983],[-72.60028,44.47398],[-72.59891,44.47722],[-72.59728,44.47939],[-72.49356,44.42398],[-72.49324,44.42583],[-72.48509,44.43677],[-72.48474,44.43914],[-72.48128,44.44362],[-72.47593,44.45001],[-72.47448,44.45224],[-72.46725,44.46124],[-72.43884,44.49998],[-72.43412,44.50602],[-72.43468,44.50524],[-72.42625,44.50298],[-72.3259,44.4645],[-72.32138,44.46316],[-72.31754,44.46115],[-72.22381,44.42489],[-72.22314,44.4238],[-72.2262,44.42233],[-72.22819,44.4222],[-72.22897,44.42101],[-72.22822,44.41931],[-72.2252,44.42073],[-72.22522,44.42168],[-72.22193,44.42284],[-72.22093,44.42207],[-72.21946,44.41814],[-72.22112,44.41841],[-72.22016,44.41648],[-72.22265,44.41606],[-72.22204,44.41424],[-72.21887,44.41289],[-72.21708,44.41131],[-72.22543,44.40005],[-72.22778,44.3969],[-72.27013,44.34038],[-72.28203,44.32927],[-72.28588,44.32631],[-72.31683,44.29878],[-72.31665,44.27223],[-72.33509,44.24752],[-72.33687,44.24622],[-72.36888,44.20389],[-72.3052,44.18309],[-72.30655,44.17777],[-72.30746,44.17416],[-72.31254,44.15671],[-72.33137,44.09241],[-72.33736,44.09371],[-72.34878,44.09626],[-72.34904,44.09339],[-72.38183,44.00829]]]}},{"type":"Feature","properties":{"name":"Mountain Town Connector","boundary_type":"cousubs","source":"Census TIGER county subdivision","fidelity":"approximate","updated":"2026-09","units":"Andover town; Chester town; Jamaica town; Windham town; Winhall town","note":"Greater Londonderry/southern Vermont mountain area; 6 of 14 service towns identified (Andover, Chester, Jamaica, Windham, Winhall; Chester Depot status unknown); 8 additional towns not specified","confidence":0.6},"geometry":{"type":"Polygon","coordinates":[[[-72.77142,43.14171],[-72.77337,43.1523],[-72.77335,43.1539],[-72.77159,43.1569],[-72.77058,43.16202],[-72.77027,43.16555],[-72.76744,43.16781],[-72.76693,43.16906],[-72.76536,43.16963],[-72.76533,43.17162],[-72.76703,43.17342],[-72.76701,43.17447],[-72.76398,43.17545],[-72.76427,43.17836],[-72.76538,43.18092],[-72.76401,43.18283],[-72.76136,43.18368],[-72.75993,43.18676],[-72.7569,43.18866],[-72.75435,43.18943],[-72.74214,43.20255],[-72.74076,43.20329],[-72.74051,43.20522],[-72.73834,43.20683],[-72.73764,43.20759],[-72.73602,43.20861],[-72.7385,43.21174],[-72.73817,43.21434],[-72.73575,43.21841],[-72.73429,43.22336],[-72.72781,43.22641],[-72.72916,43.22787],[-72.72851,43.23109],[-72.72848,43.23118],[-72.72939,43.23173],[-72.73024,43.2333],[-72.75683,43.23969],[-72.75513,43.27065],[-72.7652,43.27267],[-72.76428,43.29519],[-72.76385,43.29725],[-72.75963,43.35377],[-72.75849,43.35331],[-72.68144,43.32243],[-72.67922,43.35197],[-72.66247,43.35113],[-72.62562,43.34921],[-72.60708,43.34814],[-72.54545,43.34525],[-72.54648,43.33495],[-72.5464,43.33157],[-72.5477,43.29325],[-72.54801,43.29228],[-72.54825,43.27958],[-72.54914,43.2359],[-72.54991,43.23582],[-72.55297,43.23553],[-72.55548,43.2353],[-72.67624,43.22408],[-72.67632,43.22267],[-72.68189,43.13253],[-72.69092,43.13173],[-72.69209,43.12186],[-72.70848,43.12577],[-72.7239,43.07994],[-72.73392,43.05042],[-72.82049,43.05254],[-72.87231,43.05364],[-72.86824,43.11393],[-72.88893,43.11443],[-72.89828,43.11465],[-72.92406,43.11611],[-72.94842,43.11748],[-72.99597,43.1187],[-72.99714,43.11746],[-72.99732,43.11545],[-73.0062,43.11586],[-73.00748,43.11664],[-73.00296,43.18714],[-73.00258,43.19422],[-73.0017,43.21089],[-72.9967,43.21027],[-72.97959,43.20963],[-72.89823,43.20663],[-72.89522,43.20656],[-72.8673,43.20542],[-72.86214,43.20522],[-72.8648,43.16615],[-72.82931,43.15687],[-72.82525,43.15581],[-72.77142,43.14171]]]}},{"type":"Feature","properties":{"name":"MyRide by TVT (Middlebury)","boundary_type":"cousub","source":"Census TIGER county subdivision","fidelity":"approximate","updated":"2026-09","units":"Middlebury town","note":"Mapped service zone within Middlebury; exact boundary shown only on operator map","confidence":0.85},"geometry":{"type":"Polygon","coordinates":[[[-73.18389,44.01937],[-73.18202,44.01951],[-73.17712,44.01987],[-73.17677,44.0227],[-73.1776,44.02554],[-73.17943,44.02807],[-73.1797,44.0301],[-73.17867,44.03184],[-73.18148,44.03603],[-73.1814,44.04357],[-73.18037,44.04634],[-73.1639,44.04783],[-73.14648,44.04944],[-73.14029,44.0502],[-73.13896,44.05015],[-73.11621,44.05228],[-73.1154,44.05243],[-73.0957,44.05426],[-73.09543,44.05429],[-73.09545,44.05442],[-73.09416,44.05451],[-73.09249,44.05462],[-73.09191,44.05467],[-73.07449,44.05637],[-73.06466,44.0576],[-73.06443,44.05521],[-73.06423,44.05319],[-73.06332,44.0422],[-73.06292,44.03855],[-73.05887,43.97261],[-73.05814,43.96286],[-73.11684,43.95702],[-73.16393,43.95236],[-73.16987,43.95178],[-73.17353,43.96759],[-73.1796,43.97429],[-73.18538,43.98152],[-73.18644,43.98851],[-73.18979,43.98802],[-73.19052,43.99186],[-73.19012,44.00282],[-73.1891,44.00929],[-73.18895,44.01023],[-73.19054,44.01889],[-73.18389,44.01937]]]}},{"type":"Feature","properties":{"name":"MyRide by TVT (Montpelier)","boundary_type":"cousub","source":"Census TIGER county subdivision","fidelity":"approximate","updated":"2026-09","units":"Montpelier city","note":"Downtown core zone (State St/Main St area); service covers subset of city limits","confidence":0.8},"geometry":{"type":"Polygon","coordinates":[[[-72.59489,44.28335],[-72.57395,44.31332],[-72.57184,44.31257],[-72.56431,44.3098],[-72.57192,44.29967],[-72.56181,44.29583],[-72.56631,44.28954],[-72.56119,44.28757],[-72.56568,44.28095],[-72.55708,44.27775],[-72.55867,44.27549],[-72.55547,44.27429],[-72.55687,44.2725],[-72.55548,44.27189],[-72.55733,44.2693],[-72.53613,44.26141],[-72.54049,44.25543],[-72.52509,44.24921],[-72.5318,44.24018],[-72.53344,44.24131],[-72.54189,44.24252],[-72.54448,44.24142],[-72.54731,44.24173],[-72.54925,44.24012],[-72.55031,44.23962],[-72.55326,44.23602],[-72.55326,44.23492],[-72.57367,44.23978],[-72.58618,44.2427],[-72.59029,44.24372],[-72.58797,44.24862],[-72.59785,44.25067],[-72.60106,44.25205],[-72.60203,44.25327],[-72.60096,44.2565],[-72.60174,44.25746],[-72.60311,44.25798],[-72.61245,44.25862],[-72.59489,44.28335]]]}},{"type":"Feature","properties":{"name":"RCT Rides","boundary_type":"gtfs_flex","source":"Agency GTFS-Flex feed","fidelity":"exact","updated":"2026-09","units":"GTFS-Flex locations.geojson, area_1396, area_1397 (routes 77564 (Lamoille) + 77565 (Newport Derby), real-time booking)","note":"Official geofence from the agency's GTFS-Flex feed (data.trilliumtransit.com/gtfs/ruralcommunity-vt-us/ruralcommunity-vt-us--flex-v2.zip), routes 77564 (Lamoille) + 77565 (Newport Derby), real-time booking. Fetched 2026-09-10. Covers only the two currently flex-geofenced RIDES zones (Lamoille, Newport Derby); CSV describes a broader ~90-town service area not fully captured here.","confidence":1.0},"geometry":{"type":"MultiPolygon","coordinates":[[[[-72.62018,44.51665],[-72.63037,44.52028],[-72.63804,44.52654],[-72.64189,44.55892],[-72.6803,44.59837],[-72.68879,44.60713],[-72.69706,44.61891],[-72.7082,44.64189],[-72.70773,44.64487],[-72.68539,44.64467],[-72.67268,44.64939],[-72.6397,44.62403],[-72.55137,44.57571],[-72.5296,44.56931],[-72.52116,44.54424],[-72.51697,44.52891],[-72.51823,44.52028],[-72.5885,44.54874],[-72.61081,44.54681],[-72.61049,44.52898],[-72.62018,44.51665]]],[[[-72.20146,44.96337],[-72.14678,45.00421],[-72.14079,45.0065],[-72.13265,45.00638],[-72.11505,45.00645],[-72.09879,45.00609],[-72.0901,45.00579],[-72.08561,45.00581],[-72.08345,45.00584],[-72.0814,45.00587],[-72.10233,44.98916],[-72.11165,44.97528],[-72.1199,44.96078],[-72.12715,44.9516],[-72.13581,44.94316],[-72.21197,44.91679],[-72.22626,44.9263],[-72.2314,44.93201],[-72.23363,44.9355],[-72.22825,44.94895],[-72.22048,44.95685],[-72.20995,44.95976],[-72.20146,44.96337]]]]}},{"type":"Feature","properties":{"name":"Springfield Microtransit","boundary_type":"cousub","source":"Census TIGER county subdivision","fidelity":"exact","updated":"2026-09","units":"Springfield town","note":"Town-wide on-demand service","confidence":0.95},"geometry":{"type":"Polygon","coordinates":[[[-72.54801,43.29228],[-72.5477,43.29325],[-72.5464,43.33157],[-72.54648,43.33495],[-72.54545,43.34525],[-72.54544,43.34527],[-72.50429,43.34313],[-72.502,43.34287],[-72.481,43.34179],[-72.46903,43.34119],[-72.44074,43.34011],[-72.408,43.33838],[-72.40633,43.33822],[-72.4067,43.3377],[-72.40904,43.3344],[-72.41035,43.33167],[-72.4102,43.3304],[-72.4087,43.32767],[-72.40253,43.32038],[-72.39762,43.31706],[-72.3958,43.31462],[-72.39546,43.31299],[-72.40167,43.3034],[-72.40784,43.28289],[-72.41545,43.27137],[-72.42158,43.26344],[-72.42768,43.26123],[-72.42771,43.26121],[-72.43522,43.25848],[-72.43638,43.25745],[-72.43869,43.2529],[-72.43894,43.24424],[-72.43665,43.23832],[-72.43422,43.23496],[-72.43369,43.23344],[-72.43368,43.23343],[-72.43379,43.23304],[-72.43462,43.23326],[-72.4986,43.23487],[-72.54914,43.2359],[-72.54825,43.27958],[-72.54801,43.29228]]]}},{"type":"Feature","properties":{"name":"Windsor MicroMOO","boundary_type":"cousub","source":"Census TIGER county subdivision","fidelity":"exact","updated":"2026-09","units":"Windsor town","note":"Town-wide on-demand service","confidence":0.95},"geometry":{"type":"Polygon","coordinates":[[[-72.45311,43.45546],[-72.45071,43.52087],[-72.45031,43.52501],[-72.40847,43.52084],[-72.39621,43.51955],[-72.3964,43.51907],[-72.39856,43.51344],[-72.39838,43.51083],[-72.3963,43.50806],[-72.38956,43.5039],[-72.38477,43.50026],[-72.38089,43.49339],[-72.38036,43.49163],[-72.38043,43.48853],[-72.38046,43.4883],[-72.38172,43.48009],[-72.38217,43.4786],[-72.38295,43.476],[-72.38449,43.4742],[-72.38472,43.47402],[-72.39047,43.4696],[-72.39153,43.46878],[-72.3925,43.46736],[-72.39263,43.46508],[-72.39057,43.45123],[-72.3912,43.44931],[-72.39399,43.44467],[-72.39566,43.43854],[-72.39592,43.43097],[-72.39644,43.42894],[-72.3965,43.42869],[-72.40267,43.4296],[-72.40573,43.43015],[-72.45031,43.43452],[-72.45489,43.43519],[-72.45352,43.45261],[-72.45311,43.45546]]]}}]}