{"type":"FeatureCollection","features":[{"type":"Feature","properties":{"name":"Ready Ride (PVTA)","boundary_type":"places","source":"Census TIGER place","fidelity":"approximate","updated":"2026-09","units":"Petersburg city; Moorefield town; Romney city; Keyser city","note":"On-demand zone service confined to defined pickup areas within each town (Petersburg, Moorefield, Romney, Keyser), not full town/county coverage; no published zone size or boundary map found. Source: https://www.potomacvalleytransit.org/routes/ready-ride-bus-service/","confidence":0.9},"geometry":{"type":"MultiPolygon","coordinates":[[[[-79.13181,39.00335],[-79.13099,39.00229],[-79.12975,39.00228],[-79.12399,39.00071],[-79.1219,39.0011],[-79.12003,39.00266],[-79.11803,39.00318],[-79.11323,39.00157],[-79.11451,38.99879],[-79.11323,38.99813],[-79.11176,38.99393],[-79.11143,38.98909],[-79.11397,38.98947],[-79.11748,38.98885],[-79.12363,38.98354],[-79.1245,38.98357],[-79.12735,38.98057],[-79.13161,38.97829],[-79.12987,38.97984],[-79.13228,38.98152],[-79.13416,38.98085],[-79.13543,38.98222],[-79.13337,38.98425],[-79.1302,38.98336],[-79.12687,38.98342],[-79.12914,38.99078],[-79.12949,38.99191],[-79.13128,38.99319],[-79.1316,38.9935],[-79.13213,38.99383],[-79.13298,38.99408],[-79.13686,38.99708],[-79.1396,38.99789],[-79.14345,38.99777],[-79.1432,39.00189],[-79.142,39.00282],[-79.14571,39.0027],[-79.14586,39.00049],[-79.14631,39.00111],[-79.14703,39.00111],[-79.14676,39.00259],[-79.14964,39.00215],[-79.15043,39.00288],[-79.14978,39.0055],[-79.1407,39.00698],[-79.13211,39.00396],[-79.13181,39.00335]]],[[[-78.97605,39.05795],[-78.97603,39.06032],[-78.9743,39.06356],[-78.97322,39.06519],[-78.97389,39.06937],[-78.97329,39.07366],[-78.97333,39.07436],[-78.97439,39.0755],[-78.97472,39.07718],[-78.97457,39.07814],[-78.97129,39.07695],[-78.97029,39.07246],[-78.96968,39.07236],[-78.96925,39.07497],[-78.9671,39.08048],[-78.97266,39.0824],[-78.97405,39.08216],[-78.98062,39.08751],[-78.98005,39.08763],[-78.97737,39.08625],[-78.97538,39.0845],[-78.9719,39.08278],[-78.96688,39.08098],[-78.96623,39.08426],[-78.96384,39.0881],[-78.96136,39.087],[-78.9614,39.08694],[-78.9443,39.07936],[-78.94729,39.0748],[-78.9521,39.07699],[-78.95197,39.07329],[-78.94726,39.07126],[-78.94574,39.0741],[-78.94155,39.07212],[-78.94239,39.071],[-78.94341,39.07145],[-78.94443,39.0701],[-78.94339,39.06852],[-78.94972,39.06705],[-78.95405,39.06929],[-78.9577,39.06982],[-78.95782,39.0698],[-78.95587,39.06795],[-78.96038,39.06113],[-78.96075,39.05761],[-78.96045,39.05624],[-78.96162,39.05609],[-78.96101,39.05359],[-78.95473,39.0556],[-78.95246,39.04932],[-78.95712,39.04471],[-78.96018,39.04617],[-78.96157,39.04819],[-78.96362,39.04743],[-78.9657,39.05258],[-78.96635,39.05331],[-78.97079,39.04736],[-78.96773,39.05205],[-78.9764,39.05015],[-78.97612,39.05286],[-78.97719,39.05363],[-78.97668,39.05402],[-78.97612,39.05363],[-78.97612,39.05648],[-78.9761,39.05688],[-78.97783,39.05763],[-78.98007,39.05548],[-78.98172,39.05127],[-78.98008,39.05603],[-78.97792,39.05777],[-78.97611,39.05717],[-78.97605,39.05795]],[[-78.96188,39.07131],[-78.96067,39.07214],[-78.95753,39.07148],[-78.95767,39.07171],[-78.95801,39.07165],[-78.95797,39.0718],[-78.95795,39.07216],[-78.95822,39.07299],[-78.95805,39.07346],[-78.9582,39.07341],[-78.95941,39.07539],[-78.96183,39.07641],[-78.96306,39.07487],[-78.96114,39.07407],[-78.96116,39.07239],[-78.96188,39.07131]]],[[[-78.7602,39.35635],[-78.7601,39.35645],[-78.75928,39.35681],[-78.75512,39.3586],[-78.75403,39.35851],[-78.75273,39.35636],[-78.75277,39.35441],[-78.75412,39.35095],[-78.75382,39.34986],[-78.75429,39.34786],[-78.75366,39.3471],[-78.75226,39.34891],[-78.75192,39.34863],[-78.7511,39.34942],[-78.74809,39.34732],[-78.74857,39.34684],[-78.74703,39.34616],[-78.74696,39.34376],[-78.74734,39.34311],[-78.74815,39.34326],[-78.74902,39.34205],[-78.74794,39.34023],[-78.74825,39.33996],[-78.74755,39.33977],[-78.74813,39.33895],[-78.74636,39.33765],[-78.74609,39.33708],[-78.7489,39.33792],[-78.74933,39.33735],[-78.74965,39.33692],[-78.75021,39.33732],[-78.75011,39.3363],[-78.7484,39.33524],[-78.74921,39.33316],[-78.7506,39.334],[-78.75169,39.33423],[-78.75236,39.33376],[-78.75359,39.33373],[-78.75557,39.33418],[-78.76201,39.33886],[-78.76505,39.33993],[-78.76506,39.34223],[-78.76727,39.34267],[-78.7622,39.34796],[-78.76326,39.35113],[-78.7602,39.35635]]],[[[-78.9936,39.45108],[-78.99005,39.45257],[-78.97883,39.44868],[-78.97298,39.44509],[-78.97012,39.44333],[-78.96746,39.4398],[-78.96548,39.43845],[-78.95796,39.44001],[-78.95571,39.43893],[-78.95316,39.44128],[-78.95308,39.44513],[-78.95387,39.44716],[-78.95279,39.4453],[-78.95292,39.44117],[-78.95378,39.43985],[-78.95895,39.43735],[-78.95577,39.43572],[-78.95773,39.4335],[-78.95912,39.4342],[-78.96334,39.4312],[-78.96363,39.43141],[-78.96335,39.43702],[-78.96601,39.43686],[-78.96728,39.43722],[-78.97023,39.43779],[-78.982,39.42902],[-78.98442,39.43054],[-78.9891,39.42544],[-78.98942,39.42517],[-78.99092,39.42682],[-78.98891,39.42796],[-78.98987,39.42914],[-78.9918,39.42777],[-78.99391,39.43006],[-78.9965,39.42865],[-78.9942,39.43037],[-78.99601,39.43233],[-78.99406,39.43338],[-78.9989,39.43711],[-78.99834,39.43818],[-78.99592,39.44262],[-78.99293,39.44686],[-78.9936,39.45108]]]]}},{"type":"Feature","properties":{"name":"RideMon","boundary_type":"city","source":"Census TIGER place","fidelity":"approximate","updated":"2026-09","units":"Morgantown city","note":"Service zone covers Mountain Heights and Grafton Road areas within Morgantown","confidence":0.8},"geometry":{"type":"MultiPolygon","coordinates":[[[[-79.98656,39.65021],[-79.98396,39.65371],[-79.98303,39.65497],[-79.98027,39.65372],[-79.9794,39.65684],[-79.97832,39.65673],[-79.97831,39.65903],[-79.979,39.65913],[-79.98056,39.65937],[-79.97959,39.66193],[-79.97722,39.66189],[-79.97963,39.66554],[-79.98187,39.66618],[-79.98188,39.66538],[-79.9819,39.66471],[-79.98498,39.66698],[-79.98517,39.66712],[-79.98546,39.66734],[-79.98468,39.66815],[-79.98381,39.66821],[-79.98103,39.66756],[-79.97761,39.66649],[-79.97727,39.6693],[-79.9813,39.66948],[-79.97999,39.672],[-79.97732,39.67118],[-79.97733,39.67252],[-79.97341,39.67184],[-79.97349,39.66811],[-79.97148,39.66526],[-79.97068,39.66779],[-79.96846,39.66842],[-79.96933,39.66542],[-79.96943,39.66509],[-79.96646,39.66566],[-79.9632,39.6628],[-79.96335,39.65932],[-79.96329,39.65774],[-79.9578,39.65797],[-79.9572,39.6602],[-79.95833,39.66013],[-79.95947,39.66316],[-79.96188,39.6643],[-79.95911,39.666],[-79.95479,39.66562],[-79.95545,39.66382],[-79.9578,39.66403],[-79.95696,39.66161],[-79.95499,39.6612],[-79.95528,39.65807],[-79.95564,39.65806],[-79.95587,39.65632],[-79.95593,39.6562],[-79.95559,39.65587],[-79.95559,39.65586],[-79.95577,39.65552],[-79.95326,39.65487],[-79.95331,39.65244],[-79.953,39.65097],[-79.95253,39.6488],[-79.95026,39.64833],[-79.94933,39.64796],[-79.94925,39.6477],[-79.94772,39.64552],[-79.94506,39.64594],[-79.94738,39.64403],[-79.94746,39.64281],[-79.94499,39.642],[-79.94456,39.64193],[-79.9446,39.64188],[-79.94473,39.6417],[-79.94325,39.64104],[-79.94331,39.64169],[-79.94385,39.64289],[-79.94266,39.64391],[-79.93949,39.64355],[-79.93971,39.64576],[-79.93757,39.64651],[-79.93748,39.64995],[-79.9398,39.65027],[-79.93914,39.65072],[-79.93678,39.65266],[-79.93291,39.65515],[-79.93362,39.65689],[-79.93052,39.65845],[-79.92983,39.65736],[-79.92893,39.65695],[-79.93012,39.64971],[-79.9298,39.64737],[-79.9315,39.64661],[-79.92917,39.6437],[-79.93074,39.64294],[-79.93246,39.64214],[-79.93483,39.64093],[-79.93729,39.63841],[-79.9335,39.64025],[-79.93106,39.63888],[-79.93109,39.63854],[-79.92831,39.63748],[-79.92997,39.63544],[-79.92709,39.63334],[-79.92509,39.63215],[-79.92361,39.63149],[-79.92006,39.62988],[-79.91999,39.62942],[-79.91934,39.63067],[-79.91891,39.63059],[-79.9186,39.63512],[-79.92462,39.63686],[-79.92492,39.63688],[-79.92487,39.63951],[-79.92096,39.64816],[-79.92185,39.64898],[-79.92149,39.64929],[-79.92029,39.65239],[-79.91688,39.65287],[-79.91419,39.65207],[-79.91303,39.65276],[-79.91513,39.65382],[-79.91625,39.65452],[-79.91669,39.65505],[-79.9168,39.65556],[-79.9152,39.65884],[-79.91345,39.65881],[-79.91041,39.6607],[-79.90692,39.66167],[-79.90546,39.66311],[-79.90542,39.66318],[-79.90448,39.66391],[-79.90385,39.66414],[-79.90075,39.6646],[-79.90066,39.66446],[-79.90024,39.66377],[-79.89904,39.66157],[-79.90064,39.66101],[-79.90029,39.65793],[-79.90115,39.65491],[-79.90086,39.6571],[-79.90628,39.65594],[-79.90822,39.65851],[-79.91323,39.65627],[-79.91343,39.65756],[-79.91524,39.65843],[-79.91671,39.65557],[-79.91295,39.65271],[-79.91376,39.65202],[-79.91466,39.65208],[-79.91597,39.65254],[-79.91282,39.64945],[-79.91404,39.64857],[-79.91216,39.64695],[-79.91014,39.64852],[-79.91022,39.64696],[-79.9065,39.64435],[-79.90565,39.64576],[-79.90468,39.645],[-79.90334,39.64661],[-79.90374,39.64903],[-79.90286,39.6487],[-79.90348,39.64502],[-79.9024,39.64471],[-79.90602,39.64402],[-79.90567,39.64276],[-79.90053,39.64168],[-79.90146,39.64074],[-79.90012,39.64],[-79.90112,39.6374],[-79.90332,39.63886],[-79.90507,39.63709],[-79.90649,39.63799],[-79.90639,39.63628],[-79.90863,39.63554],[-79.9097,39.63448],[-79.91385,39.63459],[-79.91318,39.63187],[-79.91409,39.63046],[-79.91855,39.63057],[-79.91969,39.62899],[-79.91767,39.6242],[-79.91752,39.62381],[-79.9219,39.62112],[-79.91873,39.61489],[-79.91864,39.61469],[-79.9181,39.61337],[-79.91753,39.61196],[-79.91895,39.61027],[-79.91995,39.60969],[-79.92082,39.6094],[-79.92243,39.6087],[-79.92435,39.61052],[-79.92446,39.61066],[-79.92405,39.61272],[-79.92788,39.61414],[-79.92882,39.61772],[-79.92688,39.61836],[-79.92596,39.62192],[-79.92795,39.62367],[-79.93064,39.62402],[-79.93124,39.62558],[-79.93289,39.62393],[-79.9331,39.62327],[-79.93599,39.62315],[-79.93629,39.62101],[-79.93472,39.61713],[-79.93778,39.61628],[-79.94268,39.61597],[-79.94388,39.61847],[-79.94969,39.61559],[-79.95167,39.61455],[-79.9515,39.61456],[-79.95012,39.61131],[-79.94886,39.61048],[-79.94623,39.61032],[-79.9426,39.61141],[-79.94186,39.60984],[-79.9427,39.60946],[-79.94504,39.60789],[-79.9453,39.60928],[-79.94786,39.60768],[-79.94636,39.60651],[-79.94496,39.60719],[-79.94485,39.60461],[-79.94761,39.60624],[-79.95129,39.60581],[-79.95252,39.6062],[-79.95351,39.60484],[-79.95594,39.60479],[-79.95626,39.60752],[-79.95721,39.60906],[-79.95943,39.60939],[-79.96024,39.61038],[-79.96399,39.60925],[-79.96338,39.60817],[-79.96138,39.60864],[-79.95781,39.60861],[-79.9576,39.60317],[-79.95998,39.60247],[-79.95798,39.60217],[-79.95576,39.59985],[-79.95705,39.59878],[-79.95351,39.59619],[-79.95461,39.59499],[-79.95506,39.5945],[-79.9537,39.5936],[-79.95341,39.59237],[-79.95485,39.59052],[-79.9531,39.58524],[-79.95358,39.58399],[-79.95142,39.5791],[-79.95199,39.57855],[-79.95459,39.57951],[-79.95897,39.5757],[-79.96007,39.57769],[-79.96182,39.57789],[-79.96195,39.58059],[-79.95609,39.5818],[-79.9542,39.58014],[-79.95338,39.58024],[-79.95385,39.5839],[-79.95569,39.58774],[-79.95786,39.58706],[-79.95842,39.58883],[-79.95585,39.58848],[-79.95555,39.59004],[-79.95367,39.59229],[-79.95654,39.59492],[-79.96003,39.59621],[-79.96078,39.5968],[-79.96361,39.60168],[-79.96582,39.60435],[-79.96816,39.60599],[-79.96868,39.60648],[-79.96912,39.60709],[-79.96953,39.60817],[-79.97167,39.60755],[-79.97227,39.60736],[-79.97311,39.61328],[-79.97277,39.61522],[-79.96565,39.62606],[-79.96192,39.62989],[-79.96077,39.63122],[-79.95943,39.63317],[-79.95944,39.63583],[-79.96111,39.63736],[-79.96664,39.64078],[-79.96881,39.64133],[-79.97256,39.64068],[-79.977,39.64085],[-79.98122,39.64212],[-79.98386,39.64358],[-79.98488,39.6451],[-79.98816,39.64789],[-79.98789,39.64831],[-79.98778,39.64848],[-79.98656,39.65021]],[[-79.96568,39.60681],[-79.96675,39.60822],[-79.96809,39.60846],[-79.96867,39.60748],[-79.96675,39.60511],[-79.96568,39.60681]],[[-79.95051,39.61],[-79.94978,39.61086],[-79.95023,39.6112],[-79.95075,39.61194],[-79.95168,39.61447],[-79.95178,39.61455],[-79.95363,39.61365],[-79.95162,39.61281],[-79.95051,39.61]],[[-79.94952,39.60894],[-79.95006,39.60934],[-79.95028,39.60953],[-79.95036,39.60972],[-79.95053,39.60999],[-79.95211,39.60988],[-79.9533,39.60999],[-79.95352,39.60889],[-79.94957,39.6089],[-79.94952,39.60894]]],[[[-79.94511,39.66449],[-79.94761,39.665],[-79.94638,39.66715],[-79.94607,39.66768],[-79.94519,39.66746],[-79.94309,39.6671],[-79.94029,39.66559],[-79.93956,39.6664],[-79.94152,39.66771],[-79.93942,39.66836],[-79.93995,39.66959],[-79.9373,39.67063],[-79.93546,39.66983],[-79.93399,39.67373],[-79.92344,39.67478],[-79.92019,39.67484],[-79.92083,39.67056],[-79.92301,39.66994],[-79.92273,39.66701],[-79.92593,39.66676],[-79.92113,39.66408],[-79.92202,39.6631],[-79.92158,39.66294],[-79.92157,39.65855],[-79.92397,39.65834],[-79.92534,39.65912],[-79.92633,39.66017],[-79.92817,39.65922],[-79.93052,39.65845],[-79.93369,39.66088],[-79.93572,39.66172],[-79.93653,39.66057],[-79.93692,39.65998],[-79.94025,39.65794],[-79.94501,39.65964],[-79.94638,39.65671],[-79.94499,39.65708],[-79.94447,39.6555],[-79.94752,39.65655],[-79.94648,39.65944],[-79.94786,39.65972],[-79.94599,39.66178],[-79.94511,39.66449]],[[-79.92575,39.66951],[-79.92323,39.67166],[-79.92576,39.67209],[-79.9277,39.66957],[-79.92949,39.66875],[-79.9263,39.66697],[-79.92575,39.66951]]]]}}]}