{"type":"FeatureCollection","features":[{"type":"Feature","properties":{"name":"Buffalo Area Transit System (BATS)","boundary_type":"county","source":"Census TIGER county","fidelity":"approximate","updated":"2026-09","units":"Johnson County","note":"Primary coverage: Buffalo and Johnson County; weekly regional trips to Sheridan and Gillette counties","confidence":0.75},"geometry":{"type":"Polygon","coordinates":[[[-107.36962,44.55984],[-107.29644,44.5591],[-107.12562,44.55836],[-107.05292,44.55841],[-107.03321,44.55834],[-107.0332,44.5592],[-107.00062,44.55883],[-106.99649,44.55908],[-106.93429,44.55846],[-106.86338,44.55787],[-106.81401,44.55787],[-106.71849,44.55752],[-106.66381,44.55687],[-106.6309,44.55747],[-106.6256,44.55717],[-106.55074,44.55687],[-106.55,44.55687],[-106.4289,44.55678],[-106.4289,44.56178],[-106.17918,44.56208],[-106.17948,44.56378],[-106.05928,44.56308],[-106.00968,44.56398],[-106.00848,44.52108],[-106.01448,44.52098],[-106.01671,44.30446],[-106.0165,44.16973],[-106.01138,44.16974],[-106.01138,44.1372],[-106.00993,44.03046],[-106.0092,43.82158],[-106.0176,43.82149],[-106.01886,43.62497],[-106.018,43.61958],[-106.01737,43.49497],[-106.07807,43.49447],[-106.4468,43.49272],[-106.50059,43.49232],[-106.51663,43.49179],[-106.69436,43.49196],[-107.11092,43.49236],[-107.11073,43.50029],[-107.1108,43.55557],[-107.11364,43.55578],[-107.11338,43.72481],[-107.11306,43.72975],[-107.11388,43.73524],[-107.1139,43.74427],[-107.11356,43.74996],[-107.11365,43.81609],[-107.12762,43.81596],[-107.12803,43.87363],[-107.12828,43.87496],[-107.12839,43.90248],[-107.12864,44.12125],[-107.12836,44.12496],[-107.12849,44.16077],[-107.12858,44.16569],[-107.14681,44.16567],[-107.145,44.324],[-107.15078,44.32447],[-107.15297,44.32379],[-107.15547,44.32233],[-107.15959,44.32514],[-107.15982,44.32579],[-107.15956,44.33002],[-107.15672,44.33176],[-107.15822,44.33329],[-107.16045,44.33447],[-107.16386,44.33516],[-107.16595,44.33509],[-107.16835,44.33568],[-107.17261,44.33516],[-107.17633,44.33819],[-107.17603,44.3426],[-107.17971,44.34607],[-107.185,44.34636],[-107.18853,44.34737],[-107.18898,44.34817],[-107.18774,44.35033],[-107.18871,44.3518],[-107.18869,44.35335],[-107.18598,44.35587],[-107.18489,44.3588],[-107.17312,44.36045],[-107.16915,44.36429],[-107.16776,44.36462],[-107.16346,44.36806],[-107.1614,44.36863],[-107.16318,44.36981],[-107.16457,44.37194],[-107.16445,44.37327],[-107.16546,44.37387],[-107.17069,44.37438],[-107.17326,44.37497],[-107.17641,44.37655],[-107.17534,44.37904],[-107.1754,44.38072],[-107.17406,44.38211],[-107.17447,44.38399],[-107.17378,44.38447],[-107.17352,44.3872],[-107.174,44.38784],[-107.1727,44.38913],[-107.17007,44.39006],[-107.16921,44.39351],[-107.17118,44.39492],[-107.17343,44.39798],[-107.17617,44.39982],[-107.1763,44.40086],[-107.17893,44.40328],[-107.1828,44.40344],[-107.18592,44.40194],[-107.18847,44.39867],[-107.19284,44.3983],[-107.19372,44.399],[-107.19946,44.3993],[-107.19878,44.40274],[-107.19946,44.40412],[-107.19987,44.40934],[-107.20077,44.41315],[-107.2015,44.41399],[-107.20188,44.41646],[-107.20052,44.41897],[-107.2002,44.42165],[-107.20241,44.4227],[-107.20402,44.4252],[-107.20434,44.42898],[-107.20323,44.43139],[-107.20056,44.43282],[-107.20071,44.43405],[-107.20385,44.43575],[-107.20151,44.43959],[-107.20161,44.4406],[-107.20015,44.44196],[-107.20204,44.44631],[-107.20704,44.44511],[-107.21031,44.44496],[-107.21232,44.44541],[-107.21517,44.4467],[-107.21664,44.44898],[-107.21858,44.44956],[-107.21882,44.44709],[-107.22153,44.44362],[-107.22737,44.44149],[-107.23016,44.44172],[-107.23409,44.44124],[-107.23876,44.44022],[-107.24195,44.43846],[-107.24613,44.43923],[-107.24887,44.44059],[-107.25144,44.44035],[-107.25505,44.44161],[-107.25831,44.44603],[-107.26101,44.44766],[-107.26312,44.44788],[-107.26786,44.44958],[-107.27271,44.44889],[-107.27396,44.45016],[-107.27873,44.45082],[-107.27906,44.45185],[-107.27737,44.45225],[-107.27467,44.4557],[-107.2775,44.45772],[-107.27862,44.4592],[-107.28138,44.45868],[-107.28586,44.45863],[-107.28895,44.45982],[-107.29205,44.45914],[-107.29544,44.45935],[-107.29839,44.45809],[-107.30058,44.45908],[-107.30235,44.46143],[-107.30254,44.46293],[-107.30429,44.46378],[-107.30272,44.46688],[-107.30343,44.46832],[-107.30151,44.46924],[-107.30085,44.47095],[-107.30196,44.47219],[-107.30055,44.47253],[-107.3012,44.47415],[-107.29966,44.47627],[-107.30194,44.4796],[-107.30457,44.48206],[-107.30519,44.48347],[-107.29848,44.48456],[-107.29711,44.48861],[-107.29712,44.49093],[-107.29848,44.49404],[-107.29854,44.49621],[-107.29416,44.50071],[-107.29928,44.50504],[-107.30143,44.50642],[-107.30651,44.50737],[-107.31094,44.50883],[-107.31263,44.5119],[-107.3146,44.51306],[-107.31529,44.51578],[-107.31941,44.51796],[-107.32527,44.5217],[-107.32705,44.52212],[-107.32713,44.52368],[-107.32528,44.52543],[-107.32276,44.52919],[-107.32431,44.53323],[-107.32757,44.53424],[-107.33012,44.53607],[-107.33062,44.53966],[-107.33028,44.54381],[-107.33115,44.5443],[-107.33484,44.54052],[-107.3377,44.53963],[-107.33971,44.53967],[-107.34177,44.54084],[-107.35115,44.54167],[-107.35378,44.54219],[-107.35557,44.54525],[-107.359,44.54612],[-107.36047,44.54707],[-107.36016,44.55031],[-107.36327,44.55257],[-107.36543,44.55505],[-107.37145,44.55694],[-107.36968,44.55834],[-107.36962,44.55984]]]}},{"type":"Feature","properties":{"name":"Campbell County Dial-a-Ride","boundary_type":"county","source":"Census TIGER county","fidelity":"approximate","updated":"2026-09","units":"Campbell County","note":"Gillette is primary service hub; countywide service available with advance notice","confidence":0.8},"geometry":{"type":"Polygon","coordinates":[[[-106.02491,44.98263],[-106.02482,44.99347],[-105.92817,44.99349],[-105.91315,45.00024],[-105.91048,45.00024],[-105.77544,45.00032],[-105.62823,45.00041],[-105.37131,45.00024],[-105.3713,45.00024],[-105.16917,45.00012],[-105.16083,45.00012],[-105.09987,45.00012],[-105.0766,45.00011],[-105.0767,44.87107],[-105.07479,44.87107],[-105.07686,44.78619],[-105.07966,44.78658],[-105.08545,44.7868],[-105.08557,44.68549],[-105.08565,44.54187],[-105.08615,44.52771],[-105.0827,44.52761],[-105.08371,44.43134],[-105.08354,44.42961],[-105.08393,44.42704],[-105.08421,44.28896],[-105.08391,44.2855],[-105.08382,44.28015],[-105.08447,44.27877],[-105.08403,44.27762],[-105.08447,44.21663],[-105.0838,44.20911],[-105.08218,44.17618],[-105.07928,44.17618],[-105.08078,43.96622],[-105.08141,43.82693],[-105.07878,43.82702],[-105.07913,43.81301],[-105.08069,43.73994],[-105.08056,43.5024],[-105.07982,43.49997],[-105.0798,43.49844],[-105.12553,43.49787],[-105.3727,43.49731],[-105.44686,43.4967],[-105.49586,43.49683],[-105.50054,43.49656],[-105.68501,43.49582],[-105.87556,43.49513],[-105.9232,43.49501],[-106.00057,43.4948],[-106.00188,43.49505],[-106.01737,43.49497],[-106.018,43.61958],[-106.01886,43.62497],[-106.0176,43.82149],[-106.0092,43.82158],[-106.00993,44.03046],[-106.01138,44.1372],[-106.01138,44.16974],[-106.0165,44.16973],[-106.01671,44.30446],[-106.01448,44.52098],[-106.00848,44.52108],[-106.00968,44.56398],[-106.00976,44.56986],[-106.01077,44.69024],[-106.01068,44.69318],[-106.01498,44.70708],[-106.01427,44.85778],[-106.01757,44.86879],[-106.0231,44.86882],[-106.02493,44.97681],[-106.02524,44.97957],[-106.02491,44.98263]]]}},{"type":"Feature","properties":{"name":"SafeRide (Laramie)","boundary_type":"city","source":"Census TIGER place","fidelity":"exact","updated":"2026-09","units":"Laramie city","note":"Service within City of Laramie only","confidence":1.0},"geometry":{"type":"Polygon","coordinates":[[[-105.69272,41.30353],[-105.69213,41.31408],[-105.69217,41.32088],[-105.68665,41.32087],[-105.69007,41.32341],[-105.68633,41.32628],[-105.6794,41.32113],[-105.67912,41.32711],[-105.65469,41.32021],[-105.64802,41.3198],[-105.63982,41.31967],[-105.63746,41.31914],[-105.63438,41.31766],[-105.63432,41.31426],[-105.6323,41.31536],[-105.6323,41.31676],[-105.6344,41.31784],[-105.6344,41.31858],[-105.63081,41.31755],[-105.63091,41.31606],[-105.62981,41.3148],[-105.62945,41.31622],[-105.62642,41.31628],[-105.62644,41.31779],[-105.62037,41.31779],[-105.62069,41.32345],[-105.62369,41.32344],[-105.62369,41.32444],[-105.62062,41.32446],[-105.62041,41.32761],[-105.6226,41.32761],[-105.62228,41.33126],[-105.61655,41.33096],[-105.61691,41.32823],[-105.61944,41.32807],[-105.61686,41.32751],[-105.61608,41.32494],[-105.61575,41.32116],[-105.61559,41.32298],[-105.61514,41.32791],[-105.60776,41.32793],[-105.61321,41.3288],[-105.61515,41.33014],[-105.61461,41.3358],[-105.61275,41.33578],[-105.60946,41.33578],[-105.60945,41.33182],[-105.60682,41.33139],[-105.60786,41.32987],[-105.60531,41.329],[-105.60688,41.32785],[-105.60048,41.32912],[-105.59952,41.32858],[-105.59902,41.32789],[-105.59179,41.32795],[-105.59064,41.32795],[-105.59137,41.32949],[-105.59074,41.3358],[-105.58631,41.33502],[-105.5834,41.33496],[-105.58321,41.3328],[-105.58051,41.33373],[-105.58046,41.33477],[-105.57678,41.33475],[-105.57671,41.33571],[-105.56134,41.33566],[-105.56129,41.33233],[-105.55725,41.33157],[-105.55747,41.33116],[-105.55735,41.3281],[-105.54206,41.32795],[-105.53824,41.32801],[-105.53831,41.32077],[-105.53826,41.31361],[-105.53821,41.304],[-105.53663,41.30272],[-105.5282,41.30271],[-105.52821,41.29872],[-105.52886,41.2973],[-105.53204,41.29591],[-105.53458,41.29879],[-105.53583,41.29777],[-105.5381,41.29775],[-105.53823,41.29395],[-105.55762,41.29404],[-105.55773,41.29778],[-105.55906,41.29665],[-105.56142,41.29661],[-105.56242,41.29758],[-105.56519,41.29577],[-105.56675,41.29707],[-105.56654,41.29801],[-105.56757,41.29889],[-105.57279,41.29888],[-105.57334,41.29857],[-105.57196,41.29856],[-105.57194,41.29639],[-105.5698,41.29519],[-105.57513,41.29523],[-105.57688,41.29523],[-105.57676,41.29265],[-105.57742,41.29178],[-105.57741,41.29029],[-105.57654,41.29024],[-105.57653,41.28753],[-105.57798,41.28713],[-105.57956,41.28714],[-105.57954,41.29025],[-105.57856,41.2918],[-105.58816,41.29197],[-105.58811,41.28771],[-105.59213,41.29224],[-105.593,41.29278],[-105.59275,41.29077],[-105.58377,41.28148],[-105.58195,41.27999],[-105.57985,41.27738],[-105.59585,41.27758],[-105.59614,41.28875],[-105.596,41.29205],[-105.59639,41.29788],[-105.59778,41.29823],[-105.59771,41.2988],[-105.59986,41.2988],[-105.60387,41.2988],[-105.60422,41.29576],[-105.60403,41.29374],[-105.60219,41.29288],[-105.60209,41.29097],[-105.60546,41.29229],[-105.61022,41.29234],[-105.61037,41.29374],[-105.61081,41.29843],[-105.61589,41.29838],[-105.61655,41.29596],[-105.61802,41.29547],[-105.61985,41.29405],[-105.61887,41.29152],[-105.6226,41.29037],[-105.62266,41.28914],[-105.62729,41.28994],[-105.62929,41.28844],[-105.63163,41.28834],[-105.63429,41.28728],[-105.63448,41.29879],[-105.63255,41.29879],[-105.63369,41.30029],[-105.63181,41.3004],[-105.63162,41.299],[-105.62793,41.29881],[-105.62796,41.3049],[-105.63086,41.30489],[-105.63087,41.30598],[-105.6348,41.30601],[-105.63952,41.30248],[-105.65353,41.29234],[-105.65541,41.29241],[-105.6554,41.291],[-105.66838,41.28141],[-105.66846,41.28404],[-105.67464,41.28391],[-105.67473,41.292],[-105.67334,41.30623],[-105.67834,41.30602],[-105.68322,41.30286],[-105.6914,41.29709],[-105.6928,41.29543],[-105.69716,41.29881],[-105.69472,41.30059],[-105.69272,41.30353]],[[-105.63506,41.30598],[-105.63917,41.30601],[-105.63941,41.30407],[-105.63936,41.30279],[-105.63506,41.30598]],[[-105.57246,41.32803],[-105.56921,41.32806],[-105.57106,41.32944],[-105.5716,41.33024],[-105.57408,41.33021],[-105.57411,41.32941],[-105.57246,41.32803]]]}},{"type":"Feature","properties":{"name":"START On-Demand","boundary_type":"city","source":"Census TIGER place","fidelity":"exact","updated":"2026-09","units":"Jackson town","note":"Service within Town of Jackson only","confidence":1.0},"geometry":{"type":"Polygon","coordinates":[[[-110.81279,43.46695],[-110.80686,43.47059],[-110.80604,43.47321],[-110.80744,43.47498],[-110.80241,43.4752],[-110.80239,43.46917],[-110.80728,43.46917],[-110.80732,43.46553],[-110.80369,43.46556],[-110.80368,43.46428],[-110.8008,43.46372],[-110.79816,43.46414],[-110.79614,43.46553],[-110.79735,43.46554],[-110.79737,43.46915],[-110.79239,43.46913],[-110.79238,43.47272],[-110.79028,43.4727],[-110.7894,43.47446],[-110.78998,43.47496],[-110.79088,43.47636],[-110.77355,43.47613],[-110.77241,43.47687],[-110.77222,43.48326],[-110.7681,43.48335],[-110.76715,43.48699],[-110.76477,43.48699],[-110.76458,43.49046],[-110.76205,43.49028],[-110.76225,43.48898],[-110.76101,43.48547],[-110.75887,43.48546],[-110.75789,43.48333],[-110.75236,43.48333],[-110.75236,43.48178],[-110.74884,43.48177],[-110.74713,43.48083],[-110.74715,43.47968],[-110.74236,43.47969],[-110.74244,43.477],[-110.74093,43.477],[-110.74093,43.47521],[-110.74249,43.47521],[-110.74257,43.47259],[-110.73764,43.47259],[-110.73771,43.46904],[-110.75248,43.46894],[-110.75304,43.46894],[-110.7603,43.46894],[-110.78181,43.46907],[-110.78242,43.46907],[-110.78245,43.46551],[-110.78578,43.46552],[-110.78579,43.46744],[-110.78579,43.46824],[-110.78584,43.46747],[-110.7862,43.46706],[-110.78614,43.46651],[-110.78853,43.46599],[-110.78852,43.46593],[-110.78853,43.46584],[-110.78834,43.45818],[-110.79325,43.45827],[-110.79323,43.45816],[-110.79714,43.45817],[-110.80356,43.45842],[-110.81345,43.45837],[-110.81347,43.46557],[-110.81279,43.46695]]]}},{"type":"Feature","properties":{"name":"Wind River Transportation Authority (WRTA)","boundary_type":"county","source":"Census TIGER county","fidelity":"exact","updated":"2026-09","units":"Fremont County","note":"Countywide service in Fremont County, includes Wind River Indian Reservation","confidence":0.85},"geometry":{"type":"Polygon","coordinates":[[[-110.05037,44.00916],[-110.04897,44.00878],[-110.04716,44.00649],[-110.04515,44.00602],[-110.04399,44.0045],[-110.03951,44.00311],[-110.03559,44.00313],[-110.03349,44.00249],[-110.03158,44.00097],[-110.03144,43.99995],[-110.03284,43.99765],[-110.03254,43.99615],[-110.02794,43.99135],[-110.02694,43.98875],[-110.02374,43.98595],[-110.02384,43.98325],[-110.02244,43.98175],[-110.02014,43.98105],[-110.01884,43.97935],[-110.01934,43.97745],[-110.01874,43.97495],[-110.01864,43.96825],[-110.01724,43.96685],[-110.01204,43.96735],[-110.00984,43.96665],[-110.00414,43.96725],[-110.00194,43.96695],[-110.00124,43.96385],[-110.00028,43.9627],[-110.00036,43.96102],[-110.00164,43.95935],[-110.00204,43.95545],[-110.00134,43.95465],[-109.99972,43.95232],[-109.99387,43.94956],[-109.99007,43.94907],[-109.98815,43.94985],[-109.98214,43.95423],[-109.97584,43.9545],[-109.97197,43.95563],[-109.96959,43.95833],[-109.968,43.95934],[-109.9668,43.96139],[-109.95886,43.96457],[-109.95551,43.96415],[-109.95198,43.96139],[-109.94958,43.96061],[-109.9452,43.95822],[-109.93935,43.95817],[-109.93543,43.95515],[-109.9336,43.95174],[-109.93229,43.95072],[-109.92965,43.95089],[-109.92761,43.94999],[-109.92206,43.94608],[-109.91835,43.94645],[-109.91131,43.94607],[-109.90309,43.94672],[-109.89841,43.94669],[-109.8935,43.94705],[-109.88576,43.9488],[-109.8819,43.94908],[-109.87695,43.952],[-109.87367,43.95322],[-109.87082,43.95331],[-109.86207,43.9573],[-109.85875,43.95799],[-109.85776,43.95495],[-109.85546,43.95218],[-109.85493,43.95026],[-109.85793,43.94901],[-109.85766,43.94747],[-109.85882,43.94529],[-109.85812,43.94268],[-109.86009,43.94103],[-109.86297,43.94002],[-109.86461,43.94019],[-109.86783,43.93798],[-109.8685,43.93655],[-109.87395,43.9336],[-109.87408,43.93213],[-109.87249,43.92795],[-109.86753,43.92718],[-109.86592,43.92627],[-109.86104,43.92614],[-109.85655,43.92484],[-109.85186,43.92659],[-109.85419,43.92406],[-109.85299,43.92257],[-109.84955,43.92106],[-109.84858,43.91696],[-109.84983,43.91533],[-109.84942,43.91332],[-109.85013,43.9126],[-109.84796,43.90992],[-109.84788,43.90812],[-109.84991,43.90781],[-109.85047,43.90652],[-109.85422,43.90372],[-109.85718,43.90266],[-109.85927,43.90076],[-109.85518,43.90077],[-109.84779,43.90023],[-109.8425,43.89705],[-109.8382,43.89604],[-109.83711,43.89468],[-109.83258,43.89507],[-109.83079,43.88979],[-109.82715,43.88831],[-109.82702,43.88695],[-109.82359,43.88718],[-109.81758,43.88328],[-109.81618,43.88197],[-109.81657,43.88053],[-109.82461,43.87717],[-109.82537,43.87509],[-109.82876,43.87521],[-109.83031,43.87459],[-109.83187,43.87275],[-109.83183,43.87137],[-109.82866,43.86667],[-109.82139,43.86732],[-109.81686,43.86321],[-109.81378,43.86176],[-109.81551,43.8607],[-109.81929,43.8596],[-109.82082,43.85783],[-109.82324,43.85726],[-109.82574,43.85533],[-109.82948,43.85539],[-109.83135,43.85485],[-109.83466,43.85523],[-109.83785,43.85463],[-109.84121,43.85271],[-109.84438,43.8533],[-109.8477,43.8532],[-109.85042,43.8516],[-109.85125,43.84928],[-109.85517,43.84826],[-109.85669,43.84479],[-109.85649,43.8417],[-109.85398,43.83929],[-109.84978,43.83709],[-109.85331,43.83664],[-109.85532,43.83477],[-109.85534,43.83232],[-109.85648,43.82837],[-109.85217,43.82449],[-109.84908,43.82286],[-109.84734,43.82258],[-109.84429,43.82032],[-109.84175,43.81932],[-109.8403,43.81957],[-109.8351,43.82229],[-109.83092,43.82266],[-109.82994,43.82454],[-109.82755,43.82438],[-109.82677,43.82387],[-109.82713,43.82095],[-109.82693,43.81782],[-109.82591,43.81617],[-109.81974,43.81513],[-109.8176,43.8158],[-109.81376,43.81389],[-109.81306,43.81253],[-109.80925,43.80951],[-109.80622,43.80898],[-109.8024,43.80886],[-109.80057,43.80828],[-109.79896,43.80627],[-109.79583,43.80538],[-109.79397,43.80423],[-109.7899,43.80325],[-109.78755,43.80134],[-109.78639,43.8048],[-109.78318,43.80573],[-109.7806,43.80713],[-109.78064,43.81013],[-109.77936,43.81209],[-109.77128,43.81319],[-109.76585,43.81643],[-109.76436,43.8184],[-109.76393,43.8206],[-109.75862,43.81847],[-109.75716,43.81732],[-109.75271,43.81743],[-109.75165,43.81826],[-109.75072,43.821],[-109.74624,43.82487],[-109.74263,43.8275],[-109.7415,43.82783],[-109.73573,43.82723],[-109.73452,43.82835],[-109.73446,43.83005],[-109.73176,43.83318],[-109.72767,43.83333],[-109.72571,43.83396],[-109.72485,43.83301],[-109.72249,43.83297],[-109.72212,43.83467],[-109.72012,43.83745],[-109.71666,43.83812],[-109.71397,43.83648],[-109.70875,43.83578],[-109.70632,43.83666],[-109.70264,43.84103],[-109.69496,43.83931],[-109.68905,43.8397],[-109.68704,43.84346],[-109.6857,43.84424],[-109.68176,43.84279],[-109.67653,43.8427],[-109.6738,43.8435],[-109.67208,43.84511],[-109.66589,43.84573],[-109.66546,43.84782],[-109.66672,43.84898],[-109.66521,43.85216],[-109.66575,43.85713],[-109.66962,43.85996],[-109.67052,43.86325],[-109.67177,43.86482],[-109.67248,43.8681],[-109.67093,43.87159],[-109.66797,43.87445],[-109.66745,43.8757],[-109.66727,43.88002],[-109.66683,43.88058],[-109.66142,43.87858],[-109.6594,43.87929],[-109.65621,43.8813],[-109.65302,43.88677],[-109.6548,43.89392],[-109.65606,43.89597],[-109.65442,43.90057],[-109.65412,43.90268],[-109.65436,43.90712],[-109.65044,43.91129],[-109.64811,43.913],[-109.6468,43.91553],[-109.64653,43.91781],[-109.64497,43.91916],[-109.64446,43.92075],[-109.64181,43.92278],[-109.63825,43.92222],[-109.63649,43.92276],[-109.63367,43.92538],[-109.62881,43.92701],[-109.62572,43.92728],[-109.6224,43.92582],[-109.62019,43.92573],[-109.61371,43.92748],[-109.61308,43.92961],[-109.61135,43.93184],[-109.60889,43.93375],[-109.60639,43.93659],[-109.60529,43.93964],[-109.60699,43.94305],[-109.60733,43.94561],[-109.60547,43.94796],[-109.60221,43.94908],[-109.60083,43.94893],[-109.595,43.94559],[-109.59296,43.94365],[-109.59174,43.94157],[-109.58778,43.93835],[-109.58431,43.93788],[-109.57817,43.94067],[-109.57486,43.94423],[-109.57478,43.94582],[-109.57048,43.95006],[-109.56877,43.95093],[-109.56694,43.95482],[-109.56327,43.95447],[-109.55991,43.95464],[-109.55705,43.95774],[-109.55265,43.96057],[-109.5453,43.96129],[-109.54233,43.96135],[-109.54224,43.95982],[-109.53966,43.95694],[-109.53701,43.95597],[-109.53512,43.95442],[-109.53196,43.94946],[-109.52681,43.94654],[-109.52322,43.94548],[-109.52029,43.94275],[-109.51865,43.94225],[-109.51227,43.93913],[-109.50776,43.93849],[-109.50318,43.93882],[-109.49949,43.94111],[-109.49851,43.94243],[-109.49198,43.94539],[-109.48974,43.94829],[-109.48738,43.94881],[-109.48187,43.9481],[-109.47839,43.94809],[-109.47605,43.94884],[-109.47273,43.94513],[-109.47216,43.94052],[-109.47054,43.93881],[-109.47085,43.93659],[-109.47243,43.93428],[-109.47239,43.93218],[-109.46843,43.93064],[-109.46268,43.92956],[-109.4582,43.928],[-109.45473,43.92766],[-109.45154,43.92954],[-109.4452,43.93042],[-109.44236,43.93043],[-109.44079,43.92834],[-109.43953,43.92538],[-109.43817,43.9198],[-109.4364,43.91687],[-109.4339,43.91404],[-109.42686,43.91004],[-109.42137,43.90922],[-109.4164,43.90903],[-109.41342,43.90925],[-109.41195,43.9072],[-109.41094,43.90399],[-109.40901,43.90288],[-109.40495,43.90198],[-109.40627,43.89904],[-109.40344,43.89365],[-109.40176,43.89201],[-109.4025,43.8884],[-109.39846,43.88434],[-109.39679,43.88359],[-109.39172,43.88268],[-109.38408,43.88299],[-109.38017,43.8828],[-109.37914,43.88142],[-109.37628,43.87957],[-109.37402,43.87745],[-109.37426,43.8753],[-109.3736,43.87376],[-109.37537,43.87139],[-109.37633,43.87116],[-109.37505,43.86858],[-109.37527,43.86641],[-109.37382,43.86393],[-109.37265,43.85942],[-109.3699,43.85723],[-109.37147,43.85665],[-109.3722,43.85299],[-109.37115,43.85087],[-109.36749,43.84974],[-109.3683,43.84894],[-109.36762,43.84674],[-109.36777,43.84403],[-109.36676,43.84301],[-109.35474,43.84153],[-109.35326,43.84043],[-109.34932,43.83991],[-109.34706,43.84035],[-109.34458,43.83996],[-109.34097,43.84017],[-109.336,43.8421],[-109.33284,43.84003],[-109.33104,43.83965],[-109.32963,43.83843],[-109.3258,43.83775],[-109.32401,43.83596],[-109.32242,43.83537],[-109.32161,43.83403],[-109.32291,43.83246],[-109.3221,43.82909],[-109.31794,43.8253],[-109.31621,43.82419],[-109.31727,43.82313],[-109.31669,43.82165],[-109.31664,43.81847],[-109.31288,43.81415],[-109.31295,43.81329],[-109.31298,43.81171],[-109.31194,43.811],[-109.31161,43.8088],[-109.31006,43.80603],[-109.30822,43.80517],[-109.30443,43.80551],[-109.30039,43.80428],[-109.298,43.80221],[-109.2961,43.80141],[-109.29207,43.80165],[-109.28844,43.80134],[-109.2841,43.80279],[-109.28208,43.80075],[-109.28032,43.80018],[-109.27825,43.79811],[-109.2746,43.79687],[-109.2742,43.79402],[-109.27312,43.79264],[-109.27274,43.78981],[-109.27102,43.78577],[-109.26973,43.7846],[-109.26854,43.78114],[-109.26665,43.77938],[-109.26418,43.77606],[-109.26213,43.77415],[-109.25638,43.77333],[-109.24799,43.77073],[-109.24647,43.76956],[-109.24675,43.76819],[-109.24517,43.76694],[-109.24111,43.76531],[-109.23838,43.76479],[-109.23677,43.76388],[-109.2349,43.76389],[-109.23366,43.76213],[-109.22987,43.75857],[-109.22811,43.7564],[-109.22431,43.74996],[-109.22285,43.74877],[-109.22277,43.74746],[-109.21619,43.74136],[-109.21426,43.73723],[-109.21221,43.73615],[-109.20935,43.73294],[-109.20817,43.73064],[-109.20852,43.7283],[-109.20664,43.72615],[-109.20677,43.7236],[-109.20096,43.7195],[-109.19855,43.71603],[-109.19796,43.71373],[-109.19513,43.71077],[-109.19421,43.7102],[-109.18966,43.70928],[-109.1874,43.70701],[-109.18269,43.70539],[-109.18222,43.70334],[-109.17816,43.70135],[-109.17553,43.70134],[-109.17336,43.69976],[-109.17145,43.6992],[-109.17164,43.61976],[-108.93414,43.61916],[-108.93383,43.60472],[-108.81428,43.60526],[-108.81428,43.57556],[-108.75753,43.57542],[-108.69467,43.57576],[-108.69507,43.53226],[-108.68392,43.53228],[-108.57617,43.53256],[-108.57617,43.50326],[-108.45696,43.50316],[-108.45697,43.47428],[-108.33777,43.47406],[-108.33786,43.45976],[-108.172,43.45973],[-108.17084,43.45975],[-108.15638,43.45961],[-108.15628,43.47063],[-107.59514,43.47228],[-107.5951,43.5014],[-107.5349,43.50136],[-107.53498,43.49996],[-107.53503,43.47276],[-107.51703,43.47266],[-107.51573,43.21306],[-107.51693,43.21316],[-107.51671,43.14205],[-107.51673,43.12796],[-107.50233,43.12806],[-107.50206,42.87443],[-107.50192,42.86889],[-107.50142,42.78146],[-107.54353,42.78136],[-107.54209,42.4499],[-107.54202,42.43436],[-107.52292,42.43436],[-107.52272,42.26176],[-107.63515,42.2614],[-108.12503,42.26252],[-108.12564,42.26249],[-108.33802,42.26353],[-108.44054,42.2634],[-108.53435,42.26307],[-108.69858,42.26314],[-108.95018,42.2636],[-109.04386,42.26368],[-109.04346,42.26808],[-109.0438,42.43364],[-109.06948,42.43348],[-109.07006,42.49995],[-109.0708,42.50338],[-109.07137,42.51636],[-109.0709,42.52624],[-109.07204,42.63687],[-109.07221,42.63775],[-109.07218,42.68236],[-109.07285,42.69351],[-109.11516,42.6938],[-109.12568,42.69427],[-109.13447,42.69429],[-109.1338,42.69844],[-109.13569,42.70114],[-109.1377,42.70512],[-109.13712,42.70573],[-109.12841,42.70839],[-109.13225,42.71023],[-109.13319,42.71308],[-109.13292,42.71463],[-109.13412,42.71598],[-109.13435,42.71782],[-109.13628,42.7186],[-109.13732,42.72131],[-109.13792,42.72142],[-109.14349,42.72541],[-109.14615,42.72582],[-109.14791,42.72756],[-109.14328,42.73323],[-109.13833,42.73324],[-109.13604,42.73393],[-109.13327,42.73309],[-109.13264,42.73354],[-109.13403,42.7357],[-109.13231,42.73749],[-109.13369,42.73816],[-109.13735,42.73773],[-109.14143,42.73875],[-109.1421,42.74128],[-109.14404,42.74226],[-109.14912,42.74323],[-109.15159,42.74228],[-109.15389,42.74327],[-109.15688,42.74264],[-109.16021,42.74378],[-109.16009,42.74623],[-109.16147,42.74828],[-109.1656,42.7487],[-109.16711,42.74808],[-109.17112,42.74946],[-109.17947,42.75104],[-109.17951,42.75358],[-109.17874,42.75472],[-109.17979,42.75558],[-109.18257,42.75607],[-109.18368,42.75754],[-109.18461,42.76033],[-109.18889,42.76352],[-109.19046,42.76378],[-109.19289,42.76556],[-109.19526,42.76854],[-109.19704,42.76822],[-109.20288,42.76855],[-109.20574,42.77071],[-109.20738,42.77011],[-109.2098,42.77042],[-109.21357,42.76685],[-109.2145,42.76447],[-109.2146,42.7618],[-109.21745,42.76005],[-109.22102,42.7627],[-109.22392,42.76209],[-109.23043,42.76578],[-109.23223,42.76802],[-109.2361,42.76846],[-109.23691,42.76957],[-109.23559,42.76989],[-109.23639,42.77174],[-109.23575,42.77375],[-109.23672,42.77456],[-109.23736,42.77674],[-109.23619,42.77884],[-109.2329,42.78046],[-109.23295,42.7826],[-109.22672,42.788],[-109.22737,42.78957],[-109.22595,42.79094],[-109.22249,42.79162],[-109.22011,42.79026],[-109.21758,42.79091],[-109.21453,42.79236],[-109.21269,42.79217],[-109.21034,42.79314],[-109.21021,42.79408],[-109.21103,42.79447],[-109.21414,42.79983],[-109.21585,42.80088],[-109.22139,42.8015],[-109.22703,42.80347],[-109.23156,42.8039],[-109.23432,42.80548],[-109.23579,42.80777],[-109.23455,42.80831],[-109.23687,42.80952],[-109.24013,42.8088],[-109.24176,42.80605],[-109.24375,42.80526],[-109.24797,42.80616],[-109.24953,42.80817],[-109.25367,42.81041],[-109.2563,42.81377],[-109.26037,42.81592],[-109.26064,42.81941],[-109.2635,42.82238],[-109.26434,42.82421],[-109.26879,42.82448],[-109.27026,42.82632],[-109.27169,42.83003],[-109.27117,42.83201],[-109.2729,42.83324],[-109.27353,42.83483],[-109.27702,42.83615],[-109.27924,42.84096],[-109.28108,42.84356],[-109.27867,42.84482],[-109.27889,42.84601],[-109.28286,42.84718],[-109.28301,42.84847],[-109.28516,42.84647],[-109.29193,42.84603],[-109.29296,42.84724],[-109.29616,42.84869],[-109.30006,42.84969],[-109.30135,42.85169],[-109.30637,42.85326],[-109.31216,42.85545],[-109.31536,42.85613],[-109.32007,42.86016],[-109.32056,42.86248],[-109.32355,42.86387],[-109.32577,42.86878],[-109.32761,42.87339],[-109.33046,42.87495],[-109.32919,42.87704],[-109.32984,42.8818],[-109.33179,42.88344],[-109.33063,42.88652],[-109.33184,42.89247],[-109.33191,42.89542],[-109.33384,42.89679],[-109.33853,42.89751],[-109.34085,42.90369],[-109.34085,42.90537],[-109.34313,42.908],[-109.34441,42.91243],[-109.34435,42.914],[-109.34545,42.91592],[-109.34536,42.9189],[-109.34678,42.92016],[-109.35641,42.92475],[-109.35731,42.92943],[-109.35959,42.93345],[-109.36161,42.93614],[-109.36445,42.93796],[-109.36575,42.94081],[-109.36834,42.94306],[-109.37066,42.94573],[-109.37258,42.94531],[-109.37477,42.94329],[-109.37719,42.94192],[-109.38103,42.94124],[-109.38411,42.93929],[-109.38616,42.93886],[-109.39112,42.94034],[-109.39776,42.9392],[-109.39947,42.94006],[-109.40109,42.94413],[-109.40015,42.94574],[-109.40225,42.94717],[-109.40479,42.95061],[-109.40697,42.95169],[-109.40876,42.95342],[-109.41096,42.95457],[-109.41121,42.95546],[-109.41627,42.95619],[-109.42089,42.95728],[-109.423,42.9589],[-109.42876,42.96066],[-109.42779,42.96238],[-109.42964,42.96291],[-109.43195,42.96533],[-109.43236,42.96815],[-109.43382,42.96863],[-109.43718,42.96752],[-109.44101,42.96786],[-109.44349,42.97035],[-109.44767,42.97008],[-109.45067,42.97116],[-109.45423,42.97027],[-109.4556,42.97508],[-109.45817,42.9768],[-109.46042,42.97811],[-109.4632,42.9813],[-109.46317,42.98213],[-109.46061,42.98214],[-109.45976,42.98297],[-109.46056,42.98465],[-109.45924,42.98629],[-109.46018,42.98806],[-109.46562,42.99083],[-109.46666,42.99195],[-109.471,42.99047],[-109.47256,42.99048],[-109.47491,42.99387],[-109.47914,42.99482],[-109.48273,42.99385],[-109.48703,42.99395],[-109.48879,42.99562],[-109.49206,42.99535],[-109.49273,42.99739],[-109.49424,42.99863],[-109.49382,43.0007],[-109.49759,43.00352],[-109.49844,43.00701],[-109.50096,43.00804],[-109.50241,43.01051],[-109.50446,43.01064],[-109.50617,43.01063],[-109.50662,43.00957],[-109.50861,43.0087],[-109.51047,43.00916],[-109.51389,43.00717],[-109.51512,43.00737],[-109.51601,43.0093],[-109.51776,43.01104],[-109.52033,43.0098],[-109.52298,43.0094],[-109.52587,43.01043],[-109.52902,43.01386],[-109.53243,43.01397],[-109.5362,43.01288],[-109.53969,43.01309],[-109.541,43.01261],[-109.54315,43.01037],[-109.54692,43.01091],[-109.54858,43.01172],[-109.55258,43.01254],[-109.55279,43.01457],[-109.55541,43.02167],[-109.55489,43.02385],[-109.55371,43.02484],[-109.55575,43.02701],[-109.55468,43.02934],[-109.55431,43.03195],[-109.55125,43.03415],[-109.55057,43.03605],[-109.54871,43.03671],[-109.55205,43.03996],[-109.55506,43.0403],[-109.56031,43.03951],[-109.55996,43.04223],[-109.55894,43.04405],[-109.55983,43.04776],[-109.56441,43.04659],[-109.56601,43.048],[-109.57075,43.04934],[-109.56531,43.05035],[-109.56185,43.05199],[-109.56144,43.05329],[-109.55654,43.05554],[-109.55221,43.05983],[-109.55245,43.06127],[-109.55461,43.06213],[-109.55334,43.06373],[-109.55363,43.06469],[-109.55183,43.0679],[-109.55279,43.06888],[-109.553,43.0723],[-109.55858,43.07441],[-109.5616,43.07778],[-109.56045,43.08354],[-109.56529,43.08513],[-109.56658,43.08791],[-109.56941,43.09036],[-109.57008,43.09198],[-109.56874,43.09261],[-109.56834,43.09436],[-109.57074,43.09811],[-109.57037,43.09965],[-109.57173,43.10012],[-109.57729,43.0996],[-109.57871,43.09987],[-109.58119,43.10149],[-109.58188,43.10419],[-109.58529,43.10772],[-109.58493,43.10894],[-109.58728,43.11008],[-109.59155,43.11538],[-109.59568,43.11827],[-109.59837,43.11874],[-109.60115,43.1184],[-109.60395,43.11898],[-109.60889,43.12313],[-109.61201,43.12495],[-109.61625,43.12439],[-109.62063,43.1256],[-109.6223,43.12793],[-109.62247,43.13025],[-109.62346,43.13087],[-109.62488,43.13378],[-109.62366,43.13553],[-109.6251,43.13664],[-109.62672,43.13909],[-109.62656,43.14115],[-109.62838,43.14235],[-109.63095,43.14923],[-109.62948,43.15177],[-109.63074,43.15476],[-109.62993,43.15821],[-109.63053,43.16067],[-109.63028,43.16317],[-109.63147,43.16324],[-109.63492,43.16592],[-109.63937,43.16481],[-109.64106,43.16298],[-109.64368,43.16213],[-109.64622,43.16303],[-109.64798,43.16559],[-109.651,43.16686],[-109.65386,43.17118],[-109.65566,43.17606],[-109.65464,43.18065],[-109.65612,43.18126],[-109.65614,43.18245],[-109.65466,43.18424],[-109.65483,43.18672],[-109.65653,43.18872],[-109.65755,43.19215],[-109.6578,43.19515],[-109.65936,43.19808],[-109.66077,43.19963],[-109.65859,43.2015],[-109.66001,43.20294],[-109.66554,43.20441],[-109.66478,43.20609],[-109.66692,43.20669],[-109.67046,43.20956],[-109.67074,43.21273],[-109.676,43.21511],[-109.67545,43.22002],[-109.67578,43.22406],[-109.67378,43.22504],[-109.67282,43.2269],[-109.67009,43.2287],[-109.6706,43.23055],[-109.67248,43.23177],[-109.67279,43.23317],[-109.67765,43.23587],[-109.67785,43.23936],[-109.67628,43.24173],[-109.67697,43.24437],[-109.67381,43.24797],[-109.6768,43.24857],[-109.67884,43.25063],[-109.67933,43.25247],[-109.68199,43.25466],[-109.6819,43.25728],[-109.68256,43.2589],[-109.68565,43.26026],[-109.6881,43.26191],[-109.69004,43.26243],[-109.69272,43.26503],[-109.68995,43.26638],[-109.68873,43.26634],[-109.68377,43.2687],[-109.68172,43.27063],[-109.68122,43.27236],[-109.6787,43.27315],[-109.67887,43.27493],[-109.68153,43.27794],[-109.68254,43.27969],[-109.68551,43.28192],[-109.68566,43.28574],[-109.68168,43.28647],[-109.68066,43.28723],[-109.68011,43.28955],[-109.68158,43.29324],[-109.68082,43.29384],[-109.67567,43.29531],[-109.67359,43.29668],[-109.67356,43.29883],[-109.67192,43.30088],[-109.67401,43.30434],[-109.6724,43.30593],[-109.6721,43.30874],[-109.67237,43.31002],[-109.67673,43.31252],[-109.67764,43.31349],[-109.67971,43.31815],[-109.68529,43.31831],[-109.69418,43.32481],[-109.69483,43.32708],[-109.69867,43.3306],[-109.70043,43.33499],[-109.70026,43.33705],[-109.70126,43.33879],[-109.70063,43.34283],[-109.69791,43.34606],[-109.69534,43.34818],[-109.69444,43.35067],[-109.6951,43.35365],[-109.69461,43.35723],[-109.69621,43.35933],[-109.69432,43.36271],[-109.69412,43.36536],[-109.69494,43.36615],[-109.70001,43.36767],[-109.70182,43.3687],[-109.7047,43.36869],[-109.70514,43.37036],[-109.70804,43.37422],[-109.70865,43.37435],[-109.7127,43.37413],[-109.71908,43.37111],[-109.726,43.36993],[-109.72983,43.36844],[-109.7329,43.36604],[-109.73584,43.36529],[-109.73838,43.36567],[-109.74241,43.36488],[-109.74546,43.36642],[-109.74855,43.36581],[-109.75446,43.3659],[-109.75461,43.42992],[-109.75472,43.4632],[-110.05157,43.46478],[-110.05131,43.74119],[-110.05144,43.81445],[-110.05364,43.81455],[-110.05318,44.00802],[-110.05037,44.00916]]]}}]}